address_location_name,address_line1,address_line2,address_line3,address_city,address_state,address_zip,directions,polling_hours,id
Community Christian Church,1919 S. Horton,,,Fort Scott,KS,66701 ,, - ,60064633
Grace Baptist Church,502 S. Margrave,,,Fort Scott,KS,66701 ,, - ,60064634
Center for Health &amp; Wellness,"2707 E 21st St N, Wichita",,,Wichita,KS,67214 ,South side of 21st St N between Grove and Erie. ,06:00 AM - 07:00 PM,60016876
50 Eudora Church of Christ,1530 Winchester,,,Eudora,KS,66025 ,"
",07:00 AM - 07:00 PM,60020494
Centralia Area Comm Bldg - Home,106 John Riggins Ave,,,Centralia,KS,66415 ,,07:00 AM - 07:00 PM,60064867
North Lyon County Library,421 Main St.,,,Allen,KS,66833 ,,07:00 AM - 07:00 PM,60016575
32 Christ the King Luth Ch,111 W Magnolia Road,,,Salina,KS,67401 ,"East Door off of Simmons St-Key for SJ

Key Pad Code ""7610"" for West Door given to Road &amp; Bridge. ",07:00 AM - 07:00 PM,60017463
Gl/OH/PV F D Station #3,2911 N Hedville Rd,,,Hedville,KS,67401 ,"South Door off of parking lot

Key Pad Code - ""1245""
. ",07:00 AM - 07:00 PM,60017469
Nemaha Co Comm Bldg - Richmond,1500 Community Drive,,,Seneca,KS,66538 ,,07:00 AM - 07:00 PM,60064875
Nemaha Co Comm Bldg - Seneca City Ward 2,1500 Community Drive,,,Seneca,KS,66538 ,,07:00 AM - 07:00 PM,60064877
Pleasantview Baptist,"1335 N Buckner, Derby",,,Derby,KS,67037 ,W side of Buckner S of Meadowlark (71st St S). Use N entry. ,06:00 AM - 07:00 PM,60016991
WSU Metropolitan Complex,"5015 E 29th St N, Wichita",,,Wichita,KS,67220 ,"SE corner of Oliver and 29th St N.  Use Entrance ""N"" on South side of building (Welsbacher Theatre entrance). ",06:00 AM - 07:00 PM,60017049
Andale City Building,"326 N Main, Andale",,,Andale,KS,67001 ,E side of Main just N of Anderson. Park on East side of building,06:00 AM - 07:00 PM,60016859
Randolph Senior Center,109 Front Street,,,Randolph,KS,66554 ,,07:00 AM - 07:00 PM,60017205
Troy Community Building - Troy City,1225 Last Chance Road,,,Troy,KS,66087 ,,07:00 AM - 07:00 PM,60064236
Wathena Community Center - Bo,(Burr Oak Precinct),303 E St. Joseph St,,Wathena,KS,66090 ,,07:00 AM - 07:00 PM,60064238
GR First Christian Ch,2727 E Crawford St,,,Salina,KS,67401 ,"Enter West Door off parking lot - turn left down hallway

Key for SJ. ",07:00 AM - 07:00 PM,60017471
EU/GY Gypsum Com Library,521 Maple Street-East Door,,,Gypsum,KS,67448 ,Enter East Door at back of Library. ,07:00 AM - 07:00 PM,60017477
35 SA Area Tech College,2562 Centennial Rd,,,Salina,KS,67401 ,,07:00 AM - 07:00 PM,60017486
Pottorf Hall (Cico),Avery Ave.,,,Manhattan,KS,66503 ,,07:00 AM - 07:00 PM,60017195
London Heights Baptist Church,734 North 78th St,,,Kansas City,KS,66112 ,, - ,60018101
Immanuel Lutheran Church,630 S Eisenhower,,,Junction City,KS,66441 ,,07:00 AM - 07:00 PM,60065169
Community Christian Church - Ward 3,18 McCardell St,,,Council Grove,KS,66846 ,, - ,60065111
St. John Lutheran Hall,304 W. 3rd St.,,,Pittsburg,KS,66762 ,,07:00 AM - 07:00 PM,60019910
State Street/Chase School 2/03,2250 NE State Street,,SW Parking Lot Door,Topeka,KS,66616 ,SW PARKING LOT DOOR. , - ,60021215
Plaza West Apartments  11/04,5620 SW 22nd St,,Front Door,Topeka,KS,66614 ,FRONT DOOR. , - ,60021221
Presbyterian Manor  10/02,4712 SW 6th Ave,,Main Door,Topeka,KS,66606 ,MAIN DOOR. , - ,60021229
Dwight Community Bldg - Twp 4,,,,,KS,,, - ,60065119
Senior Citizen Center  1/02,619 NW Paramore St,,Back Door,Topeka,KS,66608 ,BACK DOOR. , - ,60021245
Shawnee Heights Elementary  45,2410 SE Burton St,,Front Door,Topeka,KS,66605 ,FRONT DOOR. , - ,60021252
Christ the King Church  12/01,5973 SW 25th St,,East Side Main Door,Topeka,KS,66614 ,EAST SIDE MAIN DOOR. , - ,60021121
First Baptist Church  9/03,3033 SW MacVicar Ave,,Main Door/ New Building,Topeka,KS,66611 ,MAIN DOOR/NEW BUILDING. , - ,60021141
42 Church of Christ,201 N Michigan St,,,Lawrence,KS,66044 ,"Park to Vote signs
Needs Temporary Disabled Parking signs and Orange Cones",07:00 AM - 07:00 PM,60020483
24 Arbor Court At Alvamar,1510 St Andrews Dr,,,Lawrence,KS,66047 ,"Park to Vote signs
Needs  Temporary Disabled parking sign and orange cones",07:00 AM - 07:00 PM,60020492
47 Good Shepherd Lutheran Church,2211 Inverness Dr,,,Lawrence,KS,66047 ,Park to Vote signs,07:00 AM - 07:00 PM,60020502
55 Grant Twp Comm Center,1853 E 1600 Rd,,,Lawrence,KS,66044 ,,07:00 AM - 07:00 PM,60020503
1 Fairgrounds. -Pct. 4,Meadowlark Building,2000 N Poplar,,Hutchinson,KS,67502 ,, - ,60011793
National Guard Armory,1111 N. Severance St,,,Hutchinson,KS,67501 ,Drill Floor. , - ,60011776
Salem Community Church of the Brethren,"5603 N Salem Rd, ",,,Nickerson,KS,67561 ,, - ,60011806
Plevna City Offices,301 South Main St.,,,Plevna,,67568 ,, - ,60011815
Mennonite Friendship Manor,600 W Blanchard Ave.,,,,,,, - ,60011822
Ward 2 - Parkside Manor,,,,,KS,,, - ,60022885
60 4-H Building,,,,,KS,,, - ,60022897
Corp of Engineers Office,2945 Riverside Drive,,,Marquette,KS,67464 ,,07:00 AM - 07:00 PM,6003630
Nazarene Church Gym,1000 N Main St,,,Newton,KS,67114 ,Handicap entrance and parking on east side of building - off of alley. ,07:00 AM - 07:00 PM,6005426
KS/NE Conf. of Seventh Day Adv  95,3440 SW Urish Rd,,Back Lower North Door,Topeka,KS,66614 ,BACK LOWER NORTH DOOR. , - ,60021305
Morland City Hall,Main St,,,Morland,KS,67650 ,, - ,60022276
Bogue Fellowship Hall,902 Hummingbird,,,Bogue,KS,67625 ,, - ,60022277
17 Holcom Recreation Center,2700 W 27th St,,,Lawrence,KS,66047 ,Park to Vote Signs,07:00 AM - 07:00 PM,60020505
57 Lecompton City Hall,327 Elmore St,,,Lecompton,KS,66050 ,,07:00 AM - 07:00 PM,60020513
04 USD 497 Admin Center,110 McDonald Dr,,,Lawrence,KS,66044 ,"Park to Vote signs
Needs a Temporary Disabled Parking Sign and Orange Cones
   Place on Mass S Parking spot",07:00 AM - 07:00 PM,60020530
65 1st Church of the Nazarene,1470 N 1000 Rd,,,Lawrence,KS,66046 ,,07:00 AM - 07:00 PM,60020533
First Baptist Church,340 N 13th St,,,Leavenworth,KS,66048 ,, - ,6007242
Trinity Lutheran Church,2101 10th Ave,,,Leavenworth,KS,66048 ,, - ,6007248
Holy Angels Catholic Ch.,15438 Leavenworth Rd,,,Basehor,KS,66007 ,, - ,6007253
Alexandria Twp Fire Stat.,23449 Bauserman Rd,,,Leavenworth,KS,66048 ,, - ,6007266
Grantville Comm Bldg,3877 South St,,,Grantville,KS,66429 ,,07:00 AM - 07:00 PM,6006034
Sunnyside School,1121 Republic Rd,,,Lawrence,KS,66044 ,"From Wellman Rd-turn west onto 13th Street, approximately 1/2 mile west turn south onto Republic Road.  School is 1/2 mile south on the west side . ",07:00 AM - 07:00 PM,6006042
Carbondale Community Bldg (North),,,,,,,,07:00 AM - 07:00 PM,6009963
Osage City Comm Bldg,,,,,,,,07:00 AM - 07:00 PM,6009967
Lincolnville Community Center,213 W 6th,,,Lincolnville,KS,66858 ,,07:00 AM - 07:00 PM,60065068
Grove Township Hall  12,6939 NW Tibbs Rd,,Front Door,Silver Lake,KS,66539 ,FRONT DOOR. , - ,60064157
St John's Lutheran Church  3/04,901 SW Fillmore St,,South Door,Topeka,KS,66606 ,SOUTH DOOR. , - ,60064131
Marquette Senior Center,"102 N. Washington, Marquette",,,Marquette,KS,67464 ,, - ,6008764
White City Community Bldg - Ov,118 W Mackenzie,,,White City,KS,66872 ,, - ,60064061
Satanta Senior Center,Sequoyah St,,,Satanta,KS,67870 ,,07:00 AM - 07:00 PM,60024688
Meade City Building,132 S Fowler,,,,,,, - ,6009040
Plains Community Building,404 Grand,,,,,,, - ,6009042
Wetmore American Legion - Wetmore Township,329 2nd Street,,,Wetmore,KS,66550 ,,07:00 AM - 07:00 PM,6009667
Emmett Fire Station,,,,,,66422 ,,07:00 AM - 07:00 PM,60025285
Robinson Senior Citizens Center,,,,Robinson,KS,66532 ,,07:00 AM - 07:00 PM,600925
Delia Community Bldg,,,,Delia,KS,66418 ,,07:00 AM - 07:00 PM,6005743
Ja Co Courthouse,1st Floor,,,Holton,KS,66436 ,,07:00 AM - 07:00 PM,6005735
Heritage Conference Center,710 South 9th,,,Atchison,KS,66002 ,,07:00 AM - 07:00 PM,600307
Effingham Municipal Building,407 Main,,,Effingham,KS,66023 ,,07:00 AM - 07:00 PM,600315
Huron Community Center,208 South 3rd Street,,,Huron,KS,66041 ,,07:00 AM - 07:00 PM,600320
Arrington Community Building,"1301 State Hwy 116, Arrington",,,,,,,07:00 AM - 07:00 PM,600319
St. Patrick'S Grade School,"19286 234th Road, Atchison Ks.",,,,,,,07:00 AM - 07:00 PM,600328
Church Of The Nativity,3800 W 119th St,,,Leawood,KS,66209 ,"Parish Hall
West Entrance Off Southwest Parking Lot Lower Level
Elevator Available From Main Level. ", - ,60031661
Lenexa Methodist Church,9138 Caenen Lake Rd,,,Lenexa,KS,66215 ,Schneeberger Room for November 2008. , - ,60025592
Trinity Lutheran Church,5601 W 62nd St,,,Mission,KS,66202 ,"Sanctuary Foyer
Main Entrance. ", - ,60025844
Community Center Ward 4,619 N Main,,,Pratt,KS,67124 ,,07:00 AM - 07:00 PM,60064178
First Christian Church,904 Alexander,,,Winfield,KS,67156 ,, - ,6001888
Presbyterian Ch Stanley,14895 Antioch Rd,,,Overland Park,KS,66221 ,"Narthex
Southwest Entrance. ", - ,60025745
Sauder Community Center,Madison,,,,,,,07:00 AM - 07:00 PM,6005140
4H Community Building,713 S Fry,,,Yates Center,KS,66783 ,,07:00 AM - 07:00 PM,60016263
Olathe Bible Church,13700 W 151st St,,,Olathe,KS,66062 ,Youth Center. , - ,60025632
Roeland Park Community Ctr,4850 Rosewood Dr,,,Roeland Park,KS,66205 ,"Room # Four
Main Front Entrance. ", - ,60025625
OP Church Of Christ,13400 W 119th St,,,Overland Park,KS,66213 ,"Room 104
Left of Main Entrance. ", - ,60025614
Atonement Lutheran Church,9948 Metcalf Ave,,,Overland Park,KS,66212 ,"Gathering Place.
North Entrance. ", - ,60031656
Reformed Presbyterian Ch,6835 Pflumm Rd,,,Shawnee,KS,66203 ,"Multi-Purpose Room
Main Entrance Off Parking Lot. ", - ,60025746
OP Lutheran Church,7810 W 79th St,,,Overland Park,KS,66204 ,"Parish Hall
East Entrance. ", - ,60025837
Cuba Comm. Center,Cuba Community Center,216 Baird Street,,Cuba,KS,66940 ,,07:00 AM - 07:00 PM,60027091
Courtland Comm. Center,Courtland Community Center,401 Main Street,,Courtland,KS,66939 ,,07:00 AM - 07:00 PM,60027093
Angola Community Center,Angola Community Center,,,Coffeyville,KS,67337 ,Canada &amp; Howard Twps. ,07:00 AM - 07:00 PM,60064440
Mound Valley Community Center,,,,Mound Valley,KS,67354 ,Mound Valley City/Twp. ,07:00 AM - 07:00 PM,60064445
Lakeview Village,9100 Park St,,,Lenexa,KS,66215 ,"Coffee Lounge or Main Lounge
Main Front Entrance. ", - ,60025591
Grace Christian Fellowship,7230 Quivira Rd,,,Shawnee,KS,66216 ,"Lobby Area
East Entrance. ", - ,60025636
Kirwin Fire Station,,,,,,,,07:00 AM - 07:00 PM,60011171
Courthouse Lobby-Ctr 2-06.01/06.08,,,,,KS,,,07:00 AM - 07:00 PM,60065020
Aldersgate Methodist Ch,15315 W 151st St,,,Olathe,KS,66062 ,"Rear of Worship Center.
South Entrance off Main Parking Lot.. ", - ,60031645
Milan Community Bldg,205 S Monroe,,,Milan,KS,67105 ,,07:00 AM - 07:00 PM,60014193
Wgtn Knights of Columbus Hall,201 E Harvey,,,Wellington,KS,67152 ,,07:00 AM - 07:00 PM,60014197
Degraff Fire Station,110th &amp; Degraff Rd,,,Burns,KS,66840 ,,06:00 AM - 07:00 PM,60027506
RH Christian Church,314 N. Rose Hill Rd,,,Rose Hill,KS,67133 ,Come to Admin Bldg south of the playground for delivery &amp; pickup. ,06:00 AM - 07:00 PM,60027397
12th Street Community Center,1002 W.12th St.,,,Junction City,KS,66441 ,,07:00 AM - 07:00 PM,6004530
Sabetha City Hall - Sabetha City Ward 3,805 Main,,,Sabetha,KS,66534 ,,07:00 AM - 07:00 PM,60064296
North Community Building,"505 N. Buckeye, Iola KS",,,Iola,KS,,,07:00 AM - 07:00 PM,60029205
Anderson County Community Bldg,North Lake Park,,,,,,,07:00 AM - 07:00 PM,60014
Municipal Bldg Basement,112 S 17th ,,,Parsons,KS,67357 ,Parsons City 2nd Ward. ,07:00 AM - 07:00 PM,60030405
Parsons Middle School,2719 Main,,,Parsons,KS,67357 ,Parsons City 4th Ward. ,07:00 AM - 07:00 PM,60030407
Cadmus Grange Hall,21981 KS Highway 7,,,La Cygne,KS,66040 ,, - ,6007545
Garden Valley Retirement Village,1505 E Spruce,,,Garden City,KS,67846 ,,07:00 AM - 07:00 PM,60064317
The Homestead Assisted Living,2414 Henderson,,,Garden City,KS,67846 ,,07:00 AM - 07:00 PM,60064322
Presbyterian Church,1719 Texas,,,Garden City,KS,67846 ,,07:00 AM - 07:00 PM,60064323
El Dorado Senior Center,210 E. 2nd,,,El Dorado,KS,67042 ,Pick up key on Monday before.. ,06:00 AM - 07:00 PM,60064435
Osage Mission,"203 Washington, St. Paul",,,St Paul,KS,,,07:00 AM - 07:00 PM,60029509
Sycamore Township Hall West Cherry Township,101 N. Brick Ave,,,Sycamore,KS,67363 ,,07:00 AM - 07:00 PM,60028899
Logan Park Building Cherry Township,501 Park Street,,,Cherryvale,KS,67335 ,,07:00 AM - 07:00 PM,60028905
Neosho Twp Fire Station,25001 Wallace Rd,,,Parsons,KS,67357 ,Montana &amp; Neosho Twps. ,07:00 AM - 07:00 PM,60064439
Wm Carpenter Building 2,608 Fairground Rd,,,Scott City,KS,67871 ,,07:00 AM - 07:00 PM,60064304
Wm Carpenter Building 5,608 Fairground Rd,,,Scott City,KS,67871 ,,07:00 AM - 07:00 PM,60064307
Wm Carpenter Building 11,608 Fairground Rd,,,Scott City,KS,67871 ,,07:00 AM - 07:00 PM,60064313
Senior Citizen Bldg in Galena,720 Wall St,,,Galena,KS,66739 ,,07:00 AM - 07:00 PM,60031327
Larrabee,Jerome Township Hall,,,,,,, - ,60031010
Pierceville-Plymell School,20 W Plymell Rd,,,Garden City,KS,67846 ,,07:00 AM - 07:00 PM,60029803
Wakefield United,600 Elm   Methodist Church,"Wakefield, KS 67487",,Wakefield,KS,67487 ,,07:00 AM - 07:00 PM,60064581
Macksville Christian Church,"234 N Sheaffer - Macksville, KS  67557",,,Macksville,KS,67557 ,amount paid is a donation equal to the amount billed from SF Sr Ctr. ,07:00 AM - 07:00 PM,60064587
West Mineral Community Bldg,200 Janett St,,,West Mineral,KS,66782 ,,07:00 AM - 07:00 PM,60064750
Colwich City Building,"310 S 2nd St, Colwich",,,Colwich,KS,67030 ,SE corner of 2nd St and Kansas. ,06:00 AM - 07:00 PM,60064534
Memorial Hall - Center 5,,,,,KS,,, - ,60065394
Kelley Hall Ward 3,,,,,KS,,,07:00 AM - 07:00 PM,60065304
Westminster Presbyterian Ch  8/03,1275 SW Boswell Ave,,East Side Lower Door,Topeka,KS,66604 ,EAST SIDE LOWER DOOR. , - ,60065324
Memorial Hall 2nd Pct 5th Ward,Penn &amp; Locust (North Door),,,Independence,KS,67301 ,,07:00 AM - 07:00 PM,60065291
Gridley Commun. Bldg 3,,,,,KS,,,07:00 AM - 07:00 PM,60065327
Lebo American Legion 1,,,,,KS,,,07:00 AM - 07:00 PM,60065328
Harper Senior Center(Harper Wd1),,,,,KS,,, - ,60065353
Harper Senior Center(Harper Wd2),,,,,KS,,, - ,60065354
Grace Point Ch Nazarene,5425 Martindale Rd,,,Shawnee,KS,66218 ,"Large Assembly Room
Front Entrance
Disabled Entrance. ", - ,60065377
Abundant Life Assmbly God,12400 Antioch Rd,,,Overland Park,KS,66213 ,"South Fellowship Hall
Use Front Main Entrance
Front Main Entrance Disabled Entrance
. ", - ,60065404
Meridian Baptist Church,1130 W Broadway,,,Newton,KS,67114 ,,07:00 AM - 07:00 PM,60065620
Countryside Baptist Church,14150 W 175th St,,,Olathe,KS,,"Library
Main Entrance. ", - ,60065935
Paola Adult Education Center,1710 Industrial Park Dr,Photo ID required when voting,,Paola,KS,66071 ,,07:00 AM - 07:00 PM,60065956
Lane County 4-h Building White Rock Twp,,,,,KS,,,07:00 AM - 07:00 PM,60066159
Langdon City Hall,18 S. Front St.,,,Langdon,KS,67583 ,, - ,60066225
Grace Fellowship Church-Pct 12,,,,,KS,,,07:00 AM - 07:00 PM,60066141
Lutheran Church Orlando,,,,,KS,,, - ,60066236
Christian Church 2,402 W. 6th,,,Concordia,KS,66901 ,On North and East Side ,07:00 AM - 07:00 PM,60066032
Christian Church 3,402 W. 6th,,,Concordia,KS,66901 ,North and east side,07:00 AM - 07:00 PM,60066033
Benton United Methodist,14300 SW 20th ,,,Benton,KS,67017 ,Kay Goerzen has a key. ,06:00 AM - 07:00 PM,60065999
Municipal Hall (Anthony W1),130 E Main,,,Anthony,KS,67003 ,, - ,60066043
Calvary Bible Church,518 W. Insley Ave.,,,Bonner Springs,KS,66012 ,, - ,60066583
5 Fairgrounds - Pct. 9,Meadowlark Building,2000 N. Poplar,,Hutchinson,KS,67502 ,, - ,60066916
9 Fairgrounds - Pct. 14,Meadowlark Building,2000 N. Poplar,,Hutchinson,KS,67502 ,, - ,60066920
11 Fairgrounds - Pct. 16,Meadowlark Building,2000 N. Poplar,,Hutchinson,KS,67502 ,, - ,60066922
12 Fairgrounds - Pct. 17,Meadowlark Building,2000 N. Poplar,,Hutchinson,KS,67502 ,, - ,60066923
14 Fairgrounds - Pct. 22,Meadowlark Building,2000 N. Poplar,,Hutchinson,KS,67502 ,, - ,60066925
Grace UMC 4/15,2627 SW Western Ave,,North Side East End,Topeka,KS,66611 ,NORTH SIDE EAST END. , - ,60066861
Lake Shawnee Event Center  5/11,3025 SE Croco Rd,,Main Door,Topeka,KS,66605 ,MAIN DOOR. , - ,60066862
Peru City Hall,106 E 6,,,Peru,KS,67360 ,, - ,60066968
Omnia Township Hall,308 3rd,PO BOX 42,,Atlanta,KS,67008 ,, - ,60066832
St. Marks Lutheran Church,1508 W. 12th Avenue,,,Emporia,KS,66801 ,,07:00 AM - 07:00 PM,60066263
Blue Valley Methodist Church,835 Church Ave,,,Manhattan,KS,66502 ,,07:00 AM - 07:00 PM,60066780
Bison Community Center - Illinois Twp,,,,,KS,,, - ,60066541
Center Township Hall - Union Twp,,,,,KS,,, - ,60066542
Parkerfield Community Center,29271 91st Road,,,Parkerfield,KS,67005 ,, - ,60066563
Voltaire Twp,Emergency Services Building,1006 Center Avenue,,Goodland,KS,67735 ,, - ,60066769
02 Senior Center,745 Vermont St,,,Lawrence,KS,66044 ,,07:00 AM - 07:00 PM,60066836
New Community Bldg - Baxter Springs,1101 East Avenue,,,Baxter Springs,KS,66713 ,,07:00 AM - 07:00 PM,60066397
Delphos Presbyterian Fellowship Hall,307 N Main,,,Delphos,KS,67436 ,,07:00 AM - 07:00 PM,60066577
USD 473 District Office,822 N Marshall,,,Chapman,KS,67431 ,, - ,60067121
Journey Mennonite Church,808 S. Poplar St.,,,Hutchinson,KS,,, - ,60067163
24 Fairgrounds - Pct. 19,Meadowlark Building,2000 N. Poplar,,Hutchinson,KS,67502 ,, - ,60067165
Peabody United Methodist Church,403 Sycamore,,,Peabody,KS,66866 ,,07:00 AM - 07:00 PM,60067237
Pittsburg Public Utilities Annex,1506 N. Walnut,,,Pittsburg,KS,66762 ,,07:00 AM - 07:00 PM,60067176
United Methodist Church Rm 2,,,,,KS,,, - ,60067186
Cornerstone Church - Ward 4 Pct 2,,,,,KS,,,07:00 AM - 07:00 PM,60067204
Senior Citizen - Cofv Building - Pct 10,,,,,KS,,,07:00 AM - 07:00 PM,60067215
33 Vintage Church,1501 New Hampshire St.,,,Lawrence,KS,66044 ,,07:00 AM - 07:00 PM,60067153
Central Christian Church,"2900 N Rock Rd, Wichita",,,Wichita,KS,67226 ,SE corner of 29th St N and Rock Rd. Use Entrance 14. ,06:00 AM - 07:00 PM,60016877
First Mennonite Brethren,8000 W. 21st St. N. ,,,Wichita,KS,67205 ,"N side of 21st St N between Ridge Rd and Tyler Rd
North East entrance is for voters.  Parking at back - north east side. . ",06:00 AM - 07:00 PM,60016926
Circle Grove School,29020 Mission Belleview,Photo ID required when voting,,Louisburg,KS,66053 ,,07:00 AM - 07:00 PM,60018665
Marysville Township Hall,2nd &amp; Central,Photo ID required when voting,,Hillsdale,KS,66036 ,,07:00 AM - 07:00 PM,60018669
Rural Water District #4 Office,33895 Mission Belleview Rd,Photo ID required when voting,,Louisburg,KS,66053 ,,07:00 AM - 07:00 PM,60018674
St Nicholas Church,2901 E 13th St,,,Hays,KS,67601 ,,07:00 AM - 07:00 PM,60017780
First United Pentecostal Church,"1755 E MacArthur Rd, Wichita",,,Wichita,KS,67216 ,SE corner of MacArthur Rd and Hydraulic; use S entry. ,06:00 AM - 07:00 PM,60016927
HCC Western Center Commons - Clear Creek,313 Nemaha,,,Baileyville,KS,66404 ,,07:00 AM - 07:00 PM,60064860
Centralia Area Comm Bldg - Neuchatel,106 John Riggins Ave,,,Centralia,KS,66415 ,,07:00 AM - 07:00 PM,60064868
Pilgrim Congregational,"6000 E Harry, Wichita",,,Wichita,KS,67218 ,N side of Harry between Waverly and Fabrique. ,06:00 AM - 07:00 PM,60016988
St Elizabeth Ann Seton,"645 N 119th St W, Wichita",,,Wichita,KS,67235 ,SW corner of 119th St W and Central Ave.  Use School entry on W wing of building. ,06:00 AM - 07:00 PM,60017012
Mt Saint Marys Auditorium,"3700 E Lincoln, Wichita",,,Wichita,KS,67218 ,"Drive in gated entrance at Lincoln and Clifton; North Entrance on West End.
Basement Auditorium - Room 101N. ",06:00 AM - 07:00 PM,60017016
Grace Community Church - 3rd Precinct,210 McKinley,North Entrance,,Great Bend,KS,67530 ,,07:00 AM - 07:00 PM,60065104
Faith Evangelical Church,1921 Barnes Rd,,,Manhattan,KS,66502 ,,07:00 AM - 07:00 PM,60017201
College Ave United Methodist,1609 College Ave,,,Manhattan,KS,66502 ,,07:00 AM - 07:00 PM,60017202
Sedalia Community Church,6040 N 52nd St,,,Manhattan,KS,66503 ,,07:00 AM - 07:00 PM,60017163
Wathena Community Center - Ma,(Marion Precinct),303 E St. Joseph St,,Wathena,KS,66090 ,,07:00 AM - 07:00 PM,60064237
St. Thomas More Church,2900 Kimball Ave,,,Manhattan,KS,66502 ,,07:00 AM - 07:00 PM,60017189
SM Smolan Community Bldg,320 S 3rd St,,,"Smolan,",KS,67456 ,"Enter South Door

. ",07:00 AM - 07:00 PM,60017494
Piper Middle School,4420 N 107th St,,,Kansas City,KS,66109 ,, - ,60018114
St Joseph Parish Center,110 West 2nd,,,Ellinwood,KS,67526 ,,07:00 AM - 07:00 PM,60019572
Grace Community Church - 1st Precinct,210 McKinley,North Entrance,,Great Bend,KS,67530 ,,07:00 AM - 07:00 PM,60019580
Front Door,1615 10th Street,,,Great Bend,KS,67530 ,,07:00 AM - 07:00 PM,60019581
Hoisington Activity Center - Meeting Rm 2,1200 Susank Rd,,,Hoisington,KS,67544 ,,07:00 AM - 07:00 PM,60019592
Pawnee Rock Depot,410 Centre,,,Pawnee Rock,KS,67567 ,,07:00 AM - 07:00 PM,60019599
Clyde City Hall,412 Washington St,,,Clyde,KS,,,07:00 AM - 07:00 PM,60019265
Miltonvale Comm. Center,117 Starr,,,Miltonvale,KS,,,07:00 AM - 07:00 PM,60019272
Countryside Church Hall,1901 E. 4th St.,,,Pittsburg,KS,66762 ,,07:00 AM - 07:00 PM,60019880
Community Christian Church - Ward 1,18 McCardell St,,,Council Grove,KS,66846 ,, - ,60065109
"Community Christian Church - Twp 1, Pct 2",18 McCardell St,,,Council Grove,KS,66846 ,, - ,60065113
Aldersgate Village 85,7220 SW Asbury Dr,,Front Door/East Side,Topeka,KS,66614 ,FRONT DOOR EAST SIDE. , - ,60021075
St Matthew's Church  4/09,2700 SE Virginia Ave,,Main Entrance Church,Topeka,KS,66605 ,MAIN ENTRANCE CHURCH. , - ,60021079
Berryton United Methodist Church  56,7010 SE Berryton Rd,,Family Life Ctr Door,Berryton,KS,66409 ,FAMILY LIFE CTR DOOR. , - ,60021084
American Legion Ward 2.2,,,,,KS,,,07:00 AM - 07:00 PM,60064885
Topeka Fire Station #2  2/06,619 SE Rice Rd,,Front Door,Topeka,KS,66607 ,FRONT DOOR. , - ,60021177
First Congregational Church  8/08,1701 SW Collins Ave,,Main Door,Topeka,KS,66604 ,MAIN DOOR. , - ,60021182
Northland Christian Church  35,3102 NW Topeka Blvd,,East Side Center Door,Topeka,KS,66617 ,EAST SIDE CENTER DOOR. , - ,60021244
Highland Park UMC  5/02,2914 SE Michigan Ave,,East Side Door,Topeka,KS,66605 ,EAST SIDE DOOR. , - ,60021209
No Voters,Precincts with 0 Registered Voters,,,,,,, - ,60021210
Dover Community Center Inc  81,5928 SW Douglas Rd,,Front Door,Dover,KS,66420 ,FRONT DOOR. , - ,60021112
13 American Legion,3408 W 6th St,,,Lawrence,KS,66049 ,"Park to Vote Signs
Needs Temporary Disabled Parking sign and Orange cones",07:00 AM - 07:00 PM,60020473
34 Haskell Stidham Union,155 Indian Ave,Box 5026,,Lawrence,KS,66046 ,"Park to Vote signs
Needs Temporary Disabled Parking signs and cones",07:00 AM - 07:00 PM,60020475
25 Central United Methodist Church,1501 Massachusetts St,,,Lawrence,KS,66044 ,Park to vote signs,07:00 AM - 07:00 PM,60020481
53 Eudora Twp Fire,310 E 20th St,,,Eudora,KS,66025 ,,07:00 AM - 07:00 PM,60020497
26 Fairgrounds- Pct. 26 &amp; 26ex,Meadowlark Building,2000 N. Poplar,,Hutchinson,KS,67502 ,, - ,60011794
Sunflower Center,301 South Main St,P.O. Box 67,,Sylvia,KS,67581 ,, - ,60011826
Arlington Senior Center,P.O. Box 85,,,Arlington,KS,67514 ,, - ,60011828
Valley Township Building,PO Box 53,4412 S. Worthington Rd.,,Burrton,KS,67020 ,, - ,60011830
Ward 1- Lincoln Manor,,,,,KS,,, - ,60022884
Ward 4 - 4-H Building,,,,,KS,,, - ,60022887
53 Lincoln Twp Building,,,,,KS,,, - ,60022890
62 Lincoln Twp Building,,,,,KS,,, - ,60022899
Kanopolis City Library,221 N Kansas Ave,,,Kanopolis,KS,67454 ,,07:00 AM - 07:00 PM,6003629
Election Office Voting Place  6/04,921 A SW 37th St,,Front Door,Topeka,KS,66611 ,FRONT DOOR. , - ,60021307
48 Pioneer Ridge,4851 Harvard Rd,,,Lawrence,KS,66049 ,Park to Vote Signs,07:00 AM - 07:00 PM,60020519
St. Paul Lutheran Church,311 N 7th St,,,Leavenworth,KS,66048 ,, - ,6007240
Church of The Open Door,4800 S 20th St ,,,Leavenworth,KS,66048 ,, - ,6007252
Linwood Community Bldg,302 Main St,,,Linwood,KS,66052 ,, - ,6007277
West Haven Bapt. Church,1000 West St,,,Tonganoxie,KS,66086 ,, - ,6007273
Maple Hill City Hall,Maple Hill,,,Maple Hill,KS,66507 ,,07:00 AM - 07:00 PM,60014763
Mcfarland Senior Citizens Cent,305 Main,,,Mcfarland,KS,66501 ,,07:00 AM - 07:00 PM,60014765
American Legion,1305 Canterbury Dr,,,Hays,KS,67601 ,,07:00 PM - 07:00 PM,60064013
Lansing Community Rm.,800 1st Terrace,,,Lansing,KS,66043 ,, - ,60064032
Herndon Senior Center,,,,,KS,,, - ,60021979
KTWU Building  8/07,1901 SW Jewell Ave,,SE Door Lower Level,Topeka,KS,66621 ,SE DOOR LOWER LEVEL. , - ,60064165
KNI Wheatland Bldg  9/02,3107 SW 21st St,,East Door,Topeka,KS,66604 ,EAST DOOR. , - ,60064123
Civic Center W4-2,201 NW 2nd St,,,Abilene,KS,67410 ,, - ,6002413
Solomon City Building,116 West Main,,,Solomon,KS,67480 ,, - ,6002437
Woodbine United Methodist Church,308 W 7th St,,,Woodbine,KS,67492 ,, - ,6002445
County Extension Office,"600 W. Woodside, McPherson",,,McPherson,KS,67460 ,, - ,6008731
Ashland City Library,604 Main,,,Ashland,KS,67831 ,,07:00 AM - 07:00 AM,60024082
Rolla Community Center,401 Washington,,,Rolla,KS,67954 ,,07:00 AM - 07:00 PM,60023786
Lighthouse Baptist Church,308 Lincoln St.   Saint George,,,St George,KS,66535 ,,07:00 AM - 07:00 PM,60025291
Green Valley Community Center,3770 Green Valley Rd,,,Manhattan,KS,66502 ,,07:00 AM - 07:00 PM,60025295
New Strawn Community Center 2,319 W. Getz,,,New Strawn,KS,66839 ,,07:00 AM - 07:00 PM,60066480
New Strawn Community Center 3,319 W. Getz,,,New Strawn,KS,66839 ,,07:00 AM - 07:00 PM,60066481
St. Francis Xavier Hall,301 E James St,,,Mayetta,KS,66509 ,,07:00 AM - 07:00 PM,6005736
Lancaster City Hall,301 Kansas ,,,Lancaster,,66041 ,,07:00 AM - 07:00 PM,600321
Woodson Ave Bible Church,6701 Woodson St,,,Overland Park,KS,66204 ,Gymnasium. , - ,60031618
St Andrew Christian Church,13890 W 127th St,,,Olathe,KS,66062 ,"Fellowship Hall
Parking and Entrance in Rear of Building
Disabled Parking &amp; Entrance in Front of Building on 127th. ", - ,60031627
Sylvester Powell Jr Com Ctr,6200 Martway St,,,Mission,KS,66202 ,"Break Out Room
Main Front Entrance. ", - ,60025884
Tomahawk Hills Golf Course,17501 Midland Dr,,,Shawnee,KS,66217 ,"Clubhouse 
East Entrance
Formerly known as Tomahawk Rec Complex. ", - ,60031682
Jo Co Northeast Offices,6000 Lamar Ave,,,Mission,KS,66202 ,"Meeting Room
Main Entrance East Side of Building
Disabled Entrance on South Side of Building
. ", - ,60025857
OP Chamber Of Commerce,9001 W 110th Bldg 29,,,Overland Park,KS,66210 ,"Main entrance.
Meeting Room at end of hallway past elevators. ", - ,60025670
Christ Lutheran Church,11720 Nieman Rd,,,Overland Park,KS,66210 ,"Worship Area Lobby
Main Front Entrance. ", - ,60025677
Community Bible Church,1304 N Parker St,,,Olathe,KS,66051 ,"Fellowship Hall
East End
Main Front Entrance. ", - ,60031659
Myron E Scafe Justice Ctr,8500 Antioch Rd,,,Overland Park,KS,66212 ,"Formerly known as Antioch Justice Center
Training Room
West Side Upper Level. ", - ,60025643
Ford Community Church Fellowship Hall,,,,Ford,KS,67842 ,,07:00 AM - 07:00 PM,60064233
Breakpointe Community Ch,10001 W 88th St,,,Overland Park,KS,66212 ,"Foyer
Main Front Entrance. ", - ,60025741
Leawood Baptist Church,8200 State Line Rd,,,Leawood,KS,66206 ,"Multi-Purpose Room
Lower Level Rear Parking Lot
Elevator Available From Upper Level Front of Building. ", - ,60025604
Am Legion 153 Of Olathe,410 E Dennis Ave,,,Olathe,KS,66062 ,"Abbot Hall
Front South Entrance
Disabled Entrance. ", - ,60031650
Rosedale Masonic Ldge 333,6161 Slater St,,,Merriam,KS,66202 ,"Social Hall
Rear Entrance Lower Level. ", - ,60025603
Tomahawk Ridge Comm Ctr,11902 Lowell Ave,,,Overland Park,KS,66213 ,"Conference Room
West Entrance. ", - ,60025869
Midland Adventist Academy,6915 Maurer Rd,,,Shawnee,KS,66217 ,"Library
Main Front Entrance. ", - ,60064195
Foursquare Church,98 East Main,,,Parsons,KS,67357 ,North Twp. ,07:00 AM - 07:00 PM,60064447
Osage Community Center,,,,Dennis,KS,67341 ,Osage Twp. ,07:00 AM - 07:00 PM,60064448
Westside Christian Church,5100 West Main,,,Parsons,KS,67357 ,Walton Twp. ,07:00 AM - 07:00 PM,60064449
The Long Shed,1305 Walnut,,,Cedar Vale,,67024 ,, - ,6001218
Gridley Commun. Bldg 2,307 Main St.,,,Gridley,KS,,,07:00 AM - 07:00 PM,60027693
Township #1 Community Building,,,,Woodston,KS,67675 ,, - ,60012073
Stockton City Hall,115 South Walnut,,,Stockton,KS,67669 ,Stockton City Hall - Precinct #3-2. , - ,60012078
St Agnes Church,5250 Mission Rd,,,Roeland Park,KS,66205 ,"Parish Center 
Lower Level
Rear Entrance. ", - ,60025823
Beloit Municipal Building - 2nd Ward,119 N Hersey,,,Beloit,KS,67420 ,"Basement

. ", - ,6009338
"American Legion Hall, Glen Eld",Glen Elder,,,,,,, - ,6009365
Wells Comm Center,Main St,,,Wells,KS,67467 ,,07:00 AM - 07:00 PM,60064213
Towanda Community Bldg,315 Main,,,Towanda,KS,67144 ,Pick up key at City Hall.. ,06:00 AM - 07:00 PM,60027536
Raymond Frye Complex 1,320 N Jefferson,,,Wellington,KS,67152 ,,07:00 AM - 07:00 PM,60014200
Leon Senior Center,112 S Main,,,Leon,KS,67074 ,"Barbra is Judge and has a key.
Deliver at south door.
. ",06:00 AM - 07:00 PM,60027507
First Baptist Ch Stilwell,19950 Broadmoor Ln,,,Stilwell,KS,66085 ,"Fellowship Hall
Main Front Entrance. ", - ,60031666
Dwest South Gym-Be,(Bendena Precinct),642 E Hwy 20,,Denton,KS,66017 ,,07:00 AM - 07:00 PM,6002723
Larned Comm Center (USD 495),"1500 Toles, Larned, Ks",,,,,,,07:00 AM - 07:00 PM,60010865
Geary County Office Building,200 E.8th St.-Conference Room,,,,,,,07:00 AM - 07:00 PM,6004527
Western Hills Baptist Church  86,2900 SW Auburn Rd,,West Side South Door,Topeka,KS,66614 ,WEST SIDE SOUTH DOOR. , - ,60065050
Courthouse Assembly Room,"1 N Washington, Iola KS",,,Iola,KS,,,07:00 AM - 07:00 PM,60029200
LaHarpe Senior Center,"111 S Main, LaHarpe KS",,,La Harpe,KS,,,07:00 AM - 07:00 PM,60029203
An Co Community Buildi,,,,,,,,07:00 AM - 07:00 PM,60011
Uniontown City Hall,"Uniontown, Ks 66779",,,,,,, - ,600628
Courthouse Annex,306 W Main,,,Mound City,KS,66056 ,, - ,6007541
Prescott City Hall,202 West 4th Street,,,Prescott,KS,66767 ,, - ,6007546
Pittsburg Elk's Lodge,2312 W. 4th St.,,,Pittsburg,KS,,,07:00 AM - 07:00 PM,60064991
St Johns Catholic School,315 N. Denver,,,El Dorado,KS,67042 ,,06:00 AM - 07:00 PM,60064432
Anderson County Community Bldg (Pct 1),,,,,KS,,,07:00 AM - 07:00 PM,60064624
Anderson Co Annex,,,,,KS,,,07:00 AM - 07:00 PM,60064626
Crystalbrook Church Indep. City 2nd Pct 2nd Ward,801 W. Chestnut,,,Independence,KS,67301 ,,07:00 AM - 07:00 PM,60064374
Tyro Christian Church Fawn Crk Twp Tyro Pct,301 S. Market,,,Tyro,KS,67364 ,,07:00 AM - 07:00 PM,60064402
Tyro Christian Church Caney Township Tyro Pct,301 S. Market Street,,,Tyro,KS,67364 ,,07:00 AM - 07:00 PM,60028906
Wm Carpenter Building 8,608 Fairground Rd,,,Scott City,KS,67871 ,,07:00 AM - 07:00 PM,60064310
Lewis,Jerom Township Hall,,,,,,, - ,60031005
Health Department Adm Ctr,"1900 E 9th St N, Wichita",,,Wichita,KS,67214 ,NW corner of 9th St N and Minnesota just east of I135. ,06:00 AM - 07:00 PM,60064538
Larsen Community Center,"105 S Ohio, Mount Hope",,,Mount Hope,KS,67108 ,SW corner of Main and Ohio. ,06:00 AM - 07:00 PM,60064539
Oakley City 2nd Precinct #274,Logan County EMS Building #2,703 W. 3rd,,Oakley,KS,67748 ,,07:00 AM - 07:00 PM,60064799
Memorial Hall 2nd Pct 6th Ward,Penn &amp; Locust (North Door),,,Independence,KS,67301 ,,07:00 AM - 07:00 PM,60065294
Thayer City Hall,"103 W. Neosho, Thayer",,,,KS,,,07:00 AM - 07:00 PM,60065764
Jewish Community Campus,5801 W 115th St,,,Overland Park,KS,,"Multi Activity Center
Theater Entrance
West Side of Facility. ", - ,60065937
National Bank Kansas City,10700 Nall Ave,,,Overland Park,KS,,"Second Floor Conference Room
Main Entrance on South Side of Building
Take Elevator to Second Floor. ", - ,60065941
Edgemoor Rec Center,"5815 E 9th St N, Wichita",,,Wichita,KS,67208 ,SE corner of Edgemoor and 9th St N. ,06:00 AM - 07:00 PM,60016904
McDonald Schoolhouse,,,,,KS,,, - ,60065597
Lane County 4-h Building Alamota Twp,,,,,KS,,,07:00 AM - 07:00 PM,60066158
Inman Community Center*,200 S Walnut,,,Inman,KS,67546 ,, - ,60066009
Grace Fellowship Church Parker Twp 1,,,,,KS,,,07:00 AM - 07:00 PM,60066143
Lutheran Church Wano I,,,,St. Francis,KS,67756 ,Wano I Lutheran. Wano, - ,60066230
Lutheran Church Jaqua,,,,,KS,,, - ,60066235
Breidenthal Youth/family Center,1240 Troup Avenue,,,Kansas City,KS,,, - ,60066019
"Municipal Hall (Bluff, Freeport, Twp 4)",130 E Main,,,Anthony,KS,67003 ,, - ,60066059
St Marys Catholic Parish Hall,300 1st Street   ( Glasco),,,Glasco,KS,67445 ,,07:00 AM - 07:00 PM,60066483
Denison Fire Station,2000 Denison Ave,,,Manhattan,KS,66502 ,,07:00 AM - 07:00 PM,60067005
Sacred Heart Parish Hall,106 Exchange Street,,,Emporia,KS,66801 ,,07:00 AM - 07:00 PM,60066415
7 Fairgrounds - Pct. 12,Meadowlark Building,2000 N. Poplar,,Hutchinson,KS,67502 ,, - ,60066918
17 Fairgrounds - Pct. 25,Meadowlark Building,2000 N. Poplar,,Hutchinson,KS,67502 ,, - ,60066928
Alta Vista Af &amp; Am Masonic Lodge,705 Main St,,,Alta Vista,KS,66834 ,This is a more convenient place for the citizens to vote.  August 2010 will be the first time it will be used as a polling place.. ,07:00 AM - 07:00 PM,60066458
37 Prairie Park School,2711 Kensington Rd,,,Lawrence,KS,66046 ,,07:00 AM - 07:00 PM,60066893
Heritage Center One,,,,,KS,,, - ,60066961
Faith Bible Fellowship,18688 262nd Rd,,,Atchison,KS,66002 ,,07:00 AM - 07:00 PM,60067032
United Methodist Church,501 Kansas Avenue,,,Atchison,KS,66002 ,,07:00 AM - 07:00 PM,60067033
Jetmore Senior Center A,,,,,KS,,, - ,60066547
Jetmore Senior Center B,,,,,KS,,, - ,60066548
USD 367 Sport &amp; Fitness Zone,300 11th St,Photo ID required when voting,,Osawatomie,KS,66064 ,,07:00 AM - 07:00 PM,60066387
LaCrosse City Auditorium - L City 2 - Lb 2 Twp,,,,,KS,,, - ,60066543
Prairie Village Comm Ctr,7720 Mission Rd,,,Prairie Village,KS,66208 ,Community Center across from City Hall. , - ,60066564
Seaman Middle School 22,5620 NW Topeka Blvd,,SE Door Multipurpose,Topeka,KS,66617 ,SE DOOR MULTIPURPOSE. , - ,60066857
Unity Church of Overland Park,10300 Antioch Rd,,,Overland Park,KS,66212 ,, - ,60066819
Legacy Christian Church BV,14301 Metcalf Ave,,,Overland Park,KS,66223 ,, - ,60066820
Llanos Twp #352,Emergency Services Building,1006 Center Avenue,,Goodland,KS,67735 ,, - ,60066760
McPherson Twp,Emergency Services Building,1006 Center Avenue,,Goodland,KS,67735 ,, - ,60066762
Union Twp #352,Emergency Services Building,1006 Center Avenue,,Goodland,KS,67735 ,, - ,60066768
GB Rec Com Activity Center,2715 18th ,,,Great Bend,KS,67530 ,East Main Entrance. ,07:00 AM - 07:00 PM,60066881
K-State Res/Ext Ofc-Wildcat Rm.,1200 N. 79th St.,,,Kansas City,KS,66112 ,, - ,60066395
Pleasant Ridge Elem School,20753 Easton Rd,,,Easton,KS,66020 ,, - ,60067107
Fellowship Bible Church 12/19,6800 SW 10th  Street,,Main South Entrance,Topeka,KS,66615 ,, - ,60067136
USD 501 Natatorium 7/02,530 SW Tuffy Kellogg Dr,Hummer Sports Park,Main Door,Topeka,KS,66606 ,, - ,60067140
Topeka Civic Theatre &amp; Academy 7/01,3028 SW 8th Ave,,Main West Entrance,Topeka,KS,66606 ,, - ,60067142
First Presbyterian Church - Wichita,525 N Broadway,,,Wichita,KS,67214 ,On Market North of Central.  Across the street from the Historic Court House. ,06:00 AM - 07:00 PM,60067082
Piper Community Center,3130 N 122nd Street,Sandy McMahon Young Meeting Room,,Kansas City,KS,66109 ,, - ,60067111
Wamego E M S Training Building (a),406 Miller Dr.  Wamego KS ,,,Wamego,KS,66547 ,, - ,60067223
Sacred Heart School Building,1439 Kansas Avenue,,,Atchison,KS,66002 ,,07:00 AM - 07:00 PM,60067175
Glenville Church,4604 S Seneca St,,,Wichita,KS,67217 ,Southwest corner of 45th St and Seneca St. ,06:00 AM - 07:00 PM,60067127
Christ the King Church,"4411 W Maple, Wichita",,,Wichita,KS,67209 ,On S side of Maple W of Tracey by Towne West Mall; Parish Hall in separate building E of Church building. ,06:00 AM - 07:00 PM,60016883
Countryside Christian,"1919 S Rock Rd, Wichita",,,Wichita,KS,67207 ,W side of Rock Rd between Harry &amp; Pawnee; vote in gym at back of Church building. ,06:00 AM - 07:00 PM,60016898
Dawson Methodist Church,"2741 Laura, Wichita",,,Wichita,KS,67216 ,NW corner of Wassall and Laura. ,06:00 AM - 07:00 PM,60016903
12 First Baptist Church,1330 Kasold Dr,,,Lawrence,KS,66049 ,Park to Vote signs,07:00 AM - 07:00 PM,60020498
52 Eudora City Hall,4 E 7th St,,,Eudora,KS,66025 ,,07:00 AM - 07:00 PM,60020495
Elm Grove Baptist Church,15375 W. 247th St.,Photo ID required when voting,,Paola,KS,66071 ,,07:00 AM - 07:00 PM,60018666
Fontana Methodist Church,Stephens &amp; Osborn,Photo ID required when voting,,Fontana,KS,66026 ,,07:00 AM - 07:00 PM,60018667
Trinity Lutheran Church,34868 Block Rd,Photo ID required when voting,,Paola,KS,,,07:00 AM - 07:00 PM,60018677
Centralia Area Comm Bldg - Centralia-Illinois,106 John Riggins Ave,,,Centralia,KS,66415 ,,07:00 AM - 07:00 PM,60064866
Goff Comm Center - Harrison-Goff,1723 State Highway 9,,,Goff,KS,66428 ,,07:00 AM - 07:00 PM,60064871
Machinists Building,3830 S Meridian Ave,,,Wichita,KS,67217 ,E side of Meridian S of I235; use S entrance. ,06:00 AM - 07:00 PM,60016957
Goff Comm Center - Reilly,1723 State Highway 9,,,Goff,KS,66428 ,,07:00 AM - 07:00 PM,60064873
Garfield Community Center,"201 1/2 School, Garfield, KS  67529",,,Garfield,KS,67529 ,,07:00 AM - 07:00 PM,60065029
Memorial Hall 1st of 1st,Penn &amp; Locust (North Door),,,Independence,KS,67301 ,,07:00 AM - 07:00 PM,60065284
Crystalbrook Church 2nd Pct 3rd Ward,801 W. Chestnut,,,Independence,KS,67301 ,,07:00 AM - 07:00 PM,60065288
Leonardville Comm Bldg,118 N. Erpelding,,,Leonardville,KS,66449 ,,07:00 AM - 07:00 PM,60017160
Westview Comm Church,615 Gillespie Dr.,,,Manhattan,KS,66502 ,,07:00 AM - 07:00 PM,60017170
Riley County Senior Cntr,301 N. 4th St.,,,Manhattan,KS,66502 ,,07:00 AM - 07:00 PM,60017179
21 Presbyterian Manor,2601 E Crawford Street,,,Salina,KS,67401 ,Enter the main door and follow signs. ,07:00 AM - 07:00 PM,60017488
31 Redeemer Lutheran Ch,743 E Magnolia Road,,,Salina,KS,67401 ,"East Doors
Our key is for the North entrance;  Road &amp; Bridge gets one key; SJ gets other one. ",07:00 AM - 07:00 PM,60017490
Wl Southeast of Saline Sch,5056 E K-4 Highway,,,Gypsum,KS,67448 ,"Southeast of Saline School - Enter East Door of USD Board Office on
Westside of parking lot. ",07:00 AM - 07:00 PM,60017496
Quindaro Community Center,2726 Brown Avenue,,,Kansas City,KS,66104 ,, - ,60018064
Dynasty Volleyball Academy and Community Center,7120 Gibbs Rd,,,Kansas City,KS,66106 ,, - ,60018103
National Guard Armory,100 S 20th St,,,Kansas City,KS,66102 ,, - ,60018106
Open Door Baptist Church,3033 N 103rd Ter,,,Kansas City,KS,66109 ,, - ,60018113
Center Christian Church,3150 SW Center Rd,,,Columbus,KS,66725 ,,07:00 AM - 07:00 PM,60065182
Faith Community Church - Family Center,293 West Barton Co Rd - B,,,Great Bend,KS,67530 ,,07:00 AM - 07:00 PM,60019568
Galatia Fire Station,503 Main St,(Galatia),,Hoisington,KS,67544 ,,07:00 AM - 07:00 PM,60019574
Grace Community Church - 2nd Precinct,210 McKinley,North Entrance,,Great Bend,KS,67530 ,,07:00 AM - 07:00 PM,60019584
Church of Christ - Twp #10,320 Country Club Rd,,,Pratt,KS,67124 ,,07:00 AM - 07:00 PM,60065263
Garfield Community Center  1/01,1600 NE Quincy St,,Front Door,Topeka,KS,66608 ,FRONT DOOR. , - ,60021150
Hayden High School  10/01,401 SW Gage Blvd,,South Front Doors,Topeka,KS,66606 ,SOUTH FRONT DOORS. , - ,60021154
Rolling Hills Christian Church 26,4530 NW Hiawatha Place,,Front Door,Topeka,KS,66618 ,FRONT DOOR. , - ,60065036
Mulberry Snr Ctr,207 S. Military Ave.,,,Mulberry,KS,66756 ,,07:00 AM - 07:00 PM,60019907
Our Saviors Lutheran Church  9/04,2021 SW 29th St,,East Side Door,Topeka,KS,66611 ,EAST SIDE DOOR. , - ,60021217
Lake Shawnee Golf Course  5/10,4141 SE East Edge Rd,,Front Door,Topeka,KS,66609 ,FRONT DOOR. , - ,60021184
First United Methodist Church  2/11,600 SW Topeka Blvd,,West Door,Topeka,KS,66603 ,WEST DOOR. , - ,60021185
Wanamaker Seventh-Day Adv Ch  12/03,2435 SW Wanamaker Rd,,East Side Front Door,Topeka,KS,66614 ,EAST SIDE FRONT DOOR. , - ,60021247
Manor Care Home  12/02,2515 SW Wanamaker Rd,,Front Door,Topeka,KS,66614 ,FRONT DOOR. , - ,60064940
16 360 Church,3200 Clinton Pkwy,,,Lawrence,KS,66047 ,Park to Vote signs,07:00 AM - 07:00 PM,60020485
First Lutheran Church  10/06,1234 SW Fairlawn Rd,,North Main Door,Topeka,KS,66604 ,NORTH MAIN DOOR. , - ,60021145
19 Brandon Woods,4730 Brandon Woods Ter,,,Lawrence,KS,66047 ,"Park to Vote Signs
Needs Temporary Disabled Parking sign and orange cones
Needs 6 vote here signs for the roads",07:00 AM - 07:00 PM,60020479
Pretty Prairie Senior Center,"302 S Rhodes Ave,",,,Pretty Prairie,KS,67570 ,, - ,60011742
Dillon Nature Center,3002 E. 30th Ave,,,Hutchinson,KS,67502 ,Main Building- meeting room. , - ,60011795
Nickerson High School,305 S. Nickerson St. ,,,Nickerson,KS,67561 ,, - ,60011811
St Joe Parish Community Hall,13003 E Maple Grove Road,,,Mount Hope,KS,67108 ,, - ,60011825
Waldo Senior Center,,,,,KS,,, - ,60022883
Ward 3 - RRH Lobby,,,,,KS,,, - ,60022886
Ellsworth American Legion,E Hwy 40,,,Ellsworth,KS,67439 ,,07:00 AM - 07:00 PM,6003638
East Lake Volunteer Hall,314 N East Lake Rd,,,Newton,KS,67114 ,,07:00 AM - 07:00 PM,6005448
Trego Community High School,1200 Russell Ave,,,Wa Keeney,KS,67672 ,,07:00 AM - 07:00 PM,60014459
Courthouse,410 N Pomeroy,,,Hill City,KS,67642 ,, - ,60022275
Fire Dist No.1 Fire Stat.,111 E Kansas ,,,Lansing,KS,66043 ,, - ,6007255
Ozawkie Comm Bldg,524 Kiowa Dr,,,Ozawkie,KS,66070 ,,07:00 AM - 07:00 PM,6006038
Delaware Township Hall,501 Broadway St,,,Valley Falls,KS,66088 ,,07:00 AM - 07:00 PM,6006030
Paxico Senior Citizens Center,Paxico,,,Paxico,KS,66526 ,,07:00 AM - 07:00 PM,60014769
Melvern Comm Bldg,,,,,,,,07:00 AM - 07:00 PM,6009961
Quenemo Comm Bldg,,,,,,,,07:00 AM - 07:00 PM,6009949
Tampa Senior Center,100 Main Street,,,Tampa,KS,67483 ,,07:00 AM - 07:00 PM,60065067
Florence Masonic Center,421 Main,,,Florence,KS,66851 ,,07:00 AM - 07:00 PM,6008143
Carlton City Bldg,275 Main Ave,,,Carlton,KS,67448 ,, - ,6002446
First United Methodist Ch,"1200 E. Kansas, McPherson",,,McPherson,KS,67460 ,, - ,6008733
Lindsborg Senior Center,"116 S. Main, Lindsborg",,,Lindsborg,KS,67456 ,, - ,6008736
White City Community Bldg - Hi,118 W Mackenzie,,,White City,KS,66872 ,, - ,60064060
Morton County Courthouse,1025 Morton,,,Elkhart,KS,67950 ,,07:00 AM - 07:00 PM,60023781
Eisenhower Hall,,,,Ft Dodge,KS,67843 ,,07:00 AM - 07:00 PM,6003934
Westmoreland Community Center,Main &amp; 2nd,,,Westmoreland,KS,66549 ,,07:00 AM - 07:00 PM,60025296
Fairview Community Center,505 W Front St,,,Fairview,KS,66425 ,,07:00 AM - 07:00 PM,600923
Ja Co Fair,5th &amp; Dakota,,,Holton,KS,66436 ,,07:00 AM - 07:00 AM,6005722
Soldier Community Center,212  1st St,,,Soldier,KS,66540 ,,07:00 AM - 07:00 PM,6005740
Circleville Christian Church,7701 254th Road,,,Circleville,KS,66416 ,,07:00 AM - 07:00 PM,6005734
Netawaka Community Building,418 Kansas St,,,Netawaka,KS,66516 ,,07:00 AM - 07:00 PM,6005738
Second Christian Church,700 M Street,,,Atchison,KS,66002 ,,07:00 AM - 07:00 PM,600306
First Baptist Ch OP,8200 W 96th St,,,Overland Park,KS,66212 ,"Fellowship Hall Lounge
East Entrance. ", - ,60031690
Southminster Presbyterian,6306 Roe Ave,,,Prairie Village,KS,66208 ,"2011 Narthex
South Entrance. ", - ,60025865
Cedar Ridge Christian Ch,8835 Lackman Rd,,,Lenexa,KS,66219 ,"Formerly Known as Country Hills Christian Church.
Hospitality Room off Main Lobby of Rear Building. ", - ,60025679
Shawnee Church Nazarene,5539 Quivira Rd,,,Shawnee,KS,66216 ,"Main Foyer
. ", - ,60025613
Shawnee Presbyterian Ch,6837 Nieman Rd,,,Shawnee,KS,66203 ,"Narthex
Front Main Entrance, Disabled Entrance. ", - ,60025707
Shawnee Bible Church,12921 W 61st St,,,Shawnee,KS,66216 ,"Lobby
Main Entrance. ", - ,60025805
Cheney Baptist Church,1502 N Main,,,Cheney,KS,67025 ,"North side of town, east side of street, across from golf course. ",06:00 AM - 07:00 PM,60064191
Jo Co Library Lackman,15345 W 87th Street Pkwy,,,Lenexa,KS,66219 ,"Meeting Room
Main Entrance. ", - ,60025753
Jo Co Health Human Svcs,11875 S Sunset Dr,,,Olathe,KS,66061 ,"Conference Rooms A/B/C
Main Entrance Hallway to Right. ", - ,60025676
Tisdale Unt Methodist Church,17507 US 160,,,Winfield,KS,67156 ,, - ,6001867
Sunflower School Lenexa,8955 Loiret Blvd,,,Lenexa,KS,66219 ,Gymnasium for November 2008. , - ,60025588
Severy Methodist Church,Severy,,,,,,,07:00 AM - 07:00 PM,6005144
Old Mission Methodist Ch,5519 State Park Rd,,,Fairway,KS,66205 ,"Hanson Hall
North Entrance. ", - ,60025626
Congregation Beth Torah,6100 W 127th St,,,Overland Park,KS,66209 ,"Main Foyer
Main Front Entrance. ", - ,60025699
Am Legion 370 of OP,7500 W 75th St,,,Overland Park,KS,66204 ,"Front Main Hall.
. ", - ,60025760
Colonial Church,7039 Mission Rd,,,Prairie Village,KS,66208 ,"Choir Room for April 2009
Main, front entrance. ", - ,60031607
St Paul's Methodist Church,7740 Lackman Rd,,,Lenexa,KS,66217 ,"Main Entrance
Area to Right of Main Entrance. ", - ,60031713
Merriam Christian Church,9401 Johnson Dr,,,Merriam,KS,66203 ,"Fellowship Hall
South Entrance. ", - ,60025816
Prairie Center Ch Of God,105 S Montclaire Dr,,,Olathe,KS,66061 ,"Front Lobby or Multi-Purpose Room
Main Front Entrance. ", - ,60031620
Emmanuel Baptist Church,10100 Metcalf Ave,,,Overland Park,KS,66212 ,"North Foyer
North Entrance. ", - ,60031665
Westwood City Hall,4700 Rainbow Blvd,,,Westwood,KS,66205 ,"Westwood Community Room
Main Entrance. ", - ,60025827
Rosalia Community Bldg,602 SE Rosalia Rd,,,Rosalia,KS,67132 ,"Election office has key.
. ",06:00 AM - 07:00 PM,60027427
Meadow View Elementary,1377 21000 Rd,,,Parsons,KS,67357 ,Labette Twp. ,07:00 AM - 07:00 PM,60064444
Latham Fire Station,233 W. Blaine,,,Latham,KS,67072 ,Margie is Judge and has a key.. ,06:00 AM - 07:00 PM,60027444
Cassoday United Methodist,223 N. Washington,,,Cassoday,KS,66842 ,Both contacts have a key.. ,06:00 AM - 07:00 PM,60027463
Jo Co Church Of Christ,7300 Nieman Rd,,,Shawnee,KS,66203 ,"Formerly the Redeemer Lutheran Church
Fellowship Hall
. ", - ,60025737
Huck Boyd Center (Glade),,,,,,,,07:00 AM - 07:00 PM,60011168
Richland Township Hall,,,,Damar,KS,67632 ,, - ,60012066
Protection Twp. Library,,,,,,,,07:00 AM - 07:00 AM,6001512
Srader Center,119 W Court,,,Smith Center,KS,66967 ,,07:00 AM - 07:00 PM,60013889
Beloit Municipal Building - Township 2,119 N Hersey,,,Beloit,KS,67420 ,Basement. , - ,6009364
Cunningham Community Center,% Jack Myers,N Main St,,Cunningham,KS,67035 ,N on Main St and on the Right Side of the Street.. ,07:00 AM - 07:00 PM,60025890
Tipton Community Building,Tipton,,,,,,, - ,6009344
Caldwell Community Bldg 1,119 E First Ave,,,Caldwell,KS,67022 ,,07:00 AM - 07:00 PM,60014151
Mayfield Grocery Store Annex,101 N Osborn Ave,,,Mayfield,KS,67103 ,,07:00 AM - 07:00 PM,60014190
South Haven Community Bldg,207 Main St,,,,,,,07:00 AM - 07:00 PM,60014195
Lutheran Ch Resurrection,9100 Mission Rd,,,Prairie Village,KS,66207 ,"Fellowship Hall
West Entrance
North Disabled Entrance / Elevator to Lower Level . ", - ,60025721
Olathe Christian Church,1115 S Ridgeview Rd,,,Olathe,KS,66062 ,"Friendship Center
Front East Entrance. ", - ,60025801
Dwest South Gym-Se,(Severance Precinct),642 E Hwy 20,,Denton,KS,66017 ,,07:00 AM - 07:00 PM,6002735
4H/Senior Citizens Center,1107 Spring Valley Road,,,,,,,07:00 AM - 07:00 PM,6004542
St. Teresa Church Basement,Westphalia,,,,,,,07:00 AM - 07:00 PM,60023
Parker Sr. Center,417 W Kimball,,,Parker,KS,66072 ,, - ,6007538
Pleasanton Comm. Bldg,902 Palm Street,,,Pleasanton,KS,66075 ,, - ,6007543
Linn Valley City Hall,22412 E 2400 Rd,,,Linn Valley,KS,66040 ,, - ,6007535
Church of Christ Hall,802 E. Centennial St.,,,Pittsburg,KS,66762 ,,07:00 AM - 07:00 PM,60064994
1st United Methodist,1106 N. Main St.,,,Garden City,KS,67846 ,,07:00 AM - 07:00 PM,60064318
St. James Lutheran,1608 Belmont,,,Garden City,KS,67846 ,,07:00 AM - 07:00 PM,60064320
La Cygne Comm. Bldg (n),204 N Commercial,,,La Cygne,KS,66040 ,, - ,60064328
Otis City Hall - O City - Pi Twp,105 W Fisher,,,Otis,KS,67565 ,, - ,60012365
Center Township Hall - R City - C Twp,Union Street,,,Rush Center,KS,67575 ,, - ,60012366
Zion Lutheran Activity Center,"24 N Larson, Chanute",,,Chanute,KS,,,07:00 AM - 07:00 PM,60029513
Elk City Community Building,125 S. Montgomery,,,Elk City,KS,67344 ,,07:00 AM - 07:00 PM,60028927
Memorial Hall Harmony,,,,,KS,,, - ,60064314
Payne,American Legion,c/o Marvin Beougher,235 Main St,Grainfield,KS,67737 ,, - ,60031006
Grinnell,Grinnell VFW,,92 S Oak,Grinnell,KS,67738 ,, - ,60031009
Baker Twp,United Methodist Church,,218 W 4th,Quinter,KS,67752 ,, - ,60031011
Grainfield,American Legion,,235 Main St,Grainfield,KS,67737 ,, - ,60031012
United Methodist Church,520 West Sixth,,,Sharon Springs,KS,67758 ,, - ,60015054
Kalvesta Methodist Church,,,,Kalvesta,KS,67835 ,,07:00 AM - 07:00 PM,60029802
American Legion-Solomon 2-11.01/11.02,,,,,KS,,,07:00 AM - 07:00 PM,60065025
Calvary Baptist Church,"1636 E Patriot Ave, Derby",,,Derby,KS,67037 ,N side of 63rd St S just W of Rock Rd; use E entrance-Room G3. ,06:00 AM - 07:00 PM,60064535
Holy Cross Lutheran,"600 N Greenwich Rd, Wichita",,,Wichita,KS,67206 ,"East side of Greenwich Rd just north of Central Ave
Bell Tower Entrance -North Doors . ",06:00 AM - 07:00 PM,60064667
Light of the World Family Ch  12/08,3301 SW Gage Blvd,,West Door,Topeka,KS,66614 ,WEST DOOR. , - ,60065039
"Harper Senior Center( Danville,Twp5 East)",,,,,KS,,, - ,60065360
Central Baptist Seminary,6601 Monticello Rd,,,Shawnee,KS,66226 ,"Front Entrance
Room 202, Second Level, for the August 2010 election. ", - ,60065368
Bressner Hall,711 S. Fry,,,Yates Center,KS,66783 ,,07:00 AM - 07:00 PM,60065296
Schuyler Museum Annex (North),218 W. Fremont,,,Burlingame,KS,66413 ,,07:00 AM - 07:00 PM,60065545
Ethiopian Christian Fellowship,14345 W 119th St,,,Olathe,KS,,Main Entry Foyer and Prayer Room. , - ,60065952
Leav. Baptist Church,746 Spruce St,,,Leavenworth,KS,66048 ,, - ,60065957
Faith Christian Church,"2110 W 45th St S, Wichita",,,Wichita,KS,67217 ,N side of 45th St S E of Meridian Ave; use NW door. ,06:00 AM - 07:00 PM,60016921
Gloria Dei Lutheran,"1101 N River Blvd, Wichita",,,Wichita,KS,67203 ,"NW corner of N River Blvd and Briggs, S of 11th St N. Parking lot lights on a timer.  Must be addressed for early morning.",06:00 AM - 07:00 PM,60064977
St Andrew's Lutheran,"2555 Hyacinth Ln, Wichita",,,Wichita,KS,67204 ,"SW corner of 25th St N and Hyacinth Ln just east of I235
. ",06:00 AM - 07:00 PM,60017010
Grace Fellowship Church-Pct 5,,,,,KS,,,07:00 AM - 07:00 PM,60066138
Grace Fellowship Church-Pct 11,,,,,KS,,,07:00 AM - 07:00 PM,60066140
Grace Fellowship Church-Pct 13,,,,,KS,,,07:00 AM - 07:00 PM,60066142
Municipal Hall (Anthony W2),130 E Main,,,Anthony,KS,67003 ,, - ,60066055
Municipal Hall (Anthony W3),130 E Main,,,Anthony,KS,67003 ,, - ,60066056
Municipal Hall (Anthony W4),130 E Main ,,,Anthony,KS,67003 ,, - ,60066057
Highland Ridge Club House,509 Stone Drive,,,Manhattan,KS,66503 ,,07:00 AM - 07:00 PM,60065981
Twelfth Avenue Baptist Church,2023 W. 12th Avenue,,,Emporia,KS,66801 ,,07:00 AM - 07:00 PM,60066414
8 Fairgrounds - Pct. 13,Meadowlark Building,2000 N. Poplar,,Hutchinson,KS,67502 ,, - ,60066919
15 Fairgrounds - Pct. 23 &amp; 23EX,Meadowlark Building,2000 N. Poplar,,Hutchinson,KS,67502 ,, - ,60066926
Grace Community Church,,,,,KS,,,07:00 AM - 07:00 PM,60066969
LaCrosse City Auditorium - Lib City - Bt Twp,,,,,KS,,, - ,60066544
George J. Perry Armory Twp,110 S 5th St,,,St Marys,KS,66536 ,,07:00 AM - 07:00 PM,60066790
"Logan Park Bldg.,Drum Ck Twp - USD 447",501 Park St,,,Cherryvale,KS,67335 ,"201 S. Park St
Cherryvale, KS  67335. ",07:00 AM - 07:00 PM,60066722
Hanston Elk Plaza,203 N. West St,,,Hanston,KS,67849 ,, - ,60066355
Central Christian Church,206 W. Central Ave,,,Arkansas City,KS,67005 ,, - ,60067056
Stateline Twp,Emergency Services Building,1006 Center Avenue,,Goodland,KS,67735 ,, - ,60066766
"Ward Four, Comm 1",Emergency Services Building,1006 Center Avenue,,Goodland,KS,67735 ,, - ,60066771
Galena City Hall,211 W 7th St,,,Galena,KS,66739 ,,07:00 AM - 07:00 PM,60066472
Victory Hills Church of Nazarene,6200 Parallel Pkwy.,,,Kansas City,KS,66102 ,, - ,60066391
Recreation Annex Building,2900 State Ave.,,,Kansas City,KS,66102 ,, - ,60066394
Bonner Springs Church of Nazarene,742 N. Nettleton Ave.,,,Bonner Springs,KS,66012 ,, - ,60066486
Olathe Community Center,1205 E Kansas City Rd,,,Olathe,KS,66061 ,Main front entrance. , - ,60067101
Reading Civic Building,613 1st Street,,,Reading,KS,66868 ,,07:00 AM - 07:00 PM,60067072
House of Prayer Church,6090 SE Highway Alt 69,,,Riverton,KS,66770 ,,07:00 AM - 07:00 PM,60067169
Valley Rental Center 1,803 Valley ,,,Concordia,KS,66901 ,Old Lincoln School. ,07:00 AM - 07:00 PM,60067123
Haysville Community Library,210 Hays Ave,,,Haysville,KS,67060 ,,06:00 AM - 07:00 PM,60067078
Cornerstone Church - W 1 P 2 Exc B,,,,,KS,,,07:00 AM - 07:00 PM,60067206
Cornerstone Church - W 2 P2 Exclave,,,,,KS,,,07:00 AM - 07:00 PM,60067207
Senior Citizen - Cofv Building - Pct 7,,,,,KS,,,07:00 AM - 07:00 PM,60067212
Croco Square Inc 40,6115 SE US HWY 40,,West End Entrance,Tecumseh,KS,66542 ,, - ,60067129
Second Christian Church.,700 M Street,,,Atchison,KS,66002 ,,07:00 AM - 07:00 PM,60064845
VFW (Ellis),813 Jefferson,,,Ellis,KS,67637 ,,07:00 AM - 07:00 PM,60064946
Evergreen Recreation Ctr,"2700 Woodland, Wichita",,,Wichita,KS,67204 ,Between Arkansas Ave and Cloud Elementary School.  Entrances are on Woodland and on 27th St N.. ,06:00 AM - 07:00 PM,60016919
Richland Township Hall,35466 W 247th St,Photo ID required when voting,,Paola,KS,66071 ,,07:00 AM - 07:00 PM,60018673
St Anthony Comm. Ctr.,209 N Front St,,,Schoenchen,KS,67667 ,,07:00 AM - 07:00 PM,60017778
St Michael's Episcopal Church,2900 Canal,,,Hays      ,KS,,,07:00 AM - 07:00 PM,60017779
Neosho Rapids Community Building,238 N. Main,,,Neosho Rapids,KS,66864 ,,07:00 AM - 07:00 PM,60016557
Bern Comm Bldg - Oneida City,416 Main,,,Bern,KS,66408 ,,07:00 AM - 07:00 PM,60064864
Plainville Twp Hall,108 South Jefferson,,,Plainville,KS,67663 ,Twp #1. , - ,60064652
Sabetha City Hall - Rock Creek,805 Main,,,Sabetha,KS,66534 ,,07:00 AM - 07:00 PM,60064881
Wetmore American Legion - Wetmore City,329 2nd Street,,,Wetmore,KS,66550 ,,07:00 AM - 07:00 PM,60064883
Crystalbrook Church 1st Pct 3rd Ward,801 W. Chestnut,,,Independence,KS,67301 ,,07:00 AM - 07:00 PM,60065287
Crystalbrook Church 1st Pct 4th Ward,801 W. Chestnut,,,Independence,KS,67301 ,,07:00 AM - 07:00 PM,60065289
Keats Methodist Annex,3193 Keats Ave,,,Manhattan,KS,66503 ,,07:00 AM - 07:00 PM,60017207
Ashland Community Center,2901 W 32nd Ave,,,Manhattan,KS,66502 ,,07:00 AM - 07:00 PM,60017159
Ogden Community Bldg,220 Willow St,,,Ogden,KS,66517 ,,07:00 AM - 07:00 PM,60017166
Wathena Community Center - Bl,(Blair Precinct),303 E St. Joseph St,,Wathena,KS,66090 ,,07:00 AM - 07:00 PM,60064239
KSU Foundation Center,2323 Anderson Ave,,,Manhattan,KS,66502 ,,07:00 AM - 07:00 PM,60017185
Living Word Church,2711 Amherst Ave,,,Manhattan,KS,66502 ,,07:00 AM - 07:00 PM,60017186
28/30 St Marys School,304 E Cloud Street,,,Salina,KS,67401 ,West Doors off of parking lot. ,07:00 AM - 07:00 PM,60017498
25/10/27 Univ United Meth Ch,1509 S Santa Fe Ave,,,Salina,KS,67401 ,"East parking lot, lower level forum.  Take the elevator to lower level
Key ? - Pastor will unlock doors - Marva -2010. ",07:00 AM - 07:00 PM,60017502
Bethel Seventh-Day Adventist,6910 Riverview Ave,,,Kansas City,KS,66102 ,, - ,60018072
Edwardsville Community Center,696 S 3rd St,,,Edwardsville,KS,66111 ,, - ,60018082
Stony Point Christian Church,149 S 78th St,,,Kansas City,KS,66111 ,, - ,60018120
Westside Family Church,8500 Woodsonia,,,Lenexa,KS,66220 ,Commons and Gallery area. , - ,60064904
Catholic Parish Center,714 Court,"Clay Center, KS 67432",,Clay Center,KS,67432 ,,07:00 AM - 07:00 PM,60018968
East Hess/4-H Bldg,"17002 US Hwy 50, Cimarron",,,Cimarron,KS,67835 ,,07:00 AM - 07:00 PM,60064837
Highland Park High School  5/01,2424 SE California Ave,,North Door Near Gym,Topeka,KS,66605 ,NORTH DOOR NEAR GYM. , - ,60021168
Bethel Community Church  15,6944 NW Landon Rd,,East Side Door,Topeka,KS,66618 ,SOUTH DOOR. , - ,60065037
St. Joseph Hall,207 W. South St.,,,Arma,KS,66712 ,,07:00 AM - 07:00 PM,60019871
St. Michael Hall,509 - 511 W. Walnut,,,Girard,KS,66743 ,,07:00 AM - 07:00 PM,60019874
Brewster Place  6/03,1205 SW 29th St,,East Door,Topeka,KS,66611 ,EAST DOOR. , - ,60021088
New Hope United Methodist  7/05,2915 SW 8th Ave ,,Back Door,Topeka,KS,66606 ,BACK DOOR. , - ,60021283
Shawnee Heights Middle School  43,4335 SE Shawnee Hts Rd,,North Door Near Gym,Tecumseh,KS,66542 ,NORTH DOOR NEAR GYM. , - ,60021254
St Peter's Methodist Church  28,3737 NW 35th St,,Front Door,Topeka,KS,66618 ,FRONT DOOR. , - ,60021268
Seaman Congregational Church  1/05,2036 NW Taylor St,,Back Door,Topeka,KS,66608 ,BACK DOOR. , - ,60021117
Northern Hills Baptist Church  33,920 NW 62nd St,,Fellowship Hall Front,Topeka,KS,66618 ,FELLOWSHIP HALL FRONT. , - ,60021123
51 Clinton Township Hall,1177 E 604 Rd,,,Lawrence,KS,66047 ,,07:00 AM - 07:00 PM,60020486
Prairie Hills Middle School,3200 Lucille Drive,,,Hutchinson,KS,67502 ,cafetorium. , - ,60011784
Sunrise Acres,441 N Washington,,,South Hutchinson,KS,67505 ,Community Center. , - ,60011820
L R Mutual Telephone Office,,,,,,,,07:00 AM - 07:00 PM,60023186
Dorrance City Building,,,,,KS,,, - ,60022878
Gorham Senior Center,,,,,KS,,, - ,60022879
Community Building,Swope Park,,,Cottonwood Fall,KS,66845 ,,07:00 AM - 07:00 PM,60064017
American Legion Ward 1.1,,,,,,,,07:00 AM - 07:00 PM,60021673
18 Mustard Seed Fellowship,700 Wakarusa Dr,,,Lawrence,KS,66049 ,"Park to Vote Signs
Need Temporary Disabled Parking sign and Orange cones",07:00 AM - 07:00 PM,60020515
32 United Way Building,2518 Ridge Ct,,,Lawrence,KS,66046 ,Park to Vote signs,07:00 AM - 07:00 PM,60020531
Calvary Baptist Church,4451 10th Ave,,,Leavenworth,KS,66048 ,, - ,6007251
St. Lawrence Hall,Easton City,,,Easton,KS,66020 ,, - ,6007268
VFW Building,910 E 1st St,,,Tonganoxie,KS,66086 ,, - ,6007263
High Prairie Church,26480 187th St,,,Leavenworth,KS,66048 ,, - ,6007270
Reno Twp Fire Station,12755 238th St,,,Linwood,KS,66052 ,, - ,6007272
Stranger Twp Fire Station,19501 State Ave,,,Tonganoxie,KS,66086 ,, - ,6007274
VFW (Hays),2106 Vine St,,,Hays,KS,67601 ,,07:00 AM - 07:00 PM,60064014
Jewell Community Center,214 Delaware,,,Jewell,KS,66949 ,,07:00 AM - 07:00 PM,60064037
Civic Center W1,201 NW 2nd St,,,Abilene,KS,67410 ,, - ,6002409
Civic Center W3,201 NW 2nd St,,,Abilene,KS,67410 ,, - ,6002411
The Lord's Chapel,2994 Main St,,,Talmage,KS,67482 ,, - ,6002447
Grant Twp Hall &amp; Fire Station,922 S Buckeye Ave,,,Abilene,KS,67410 ,, - ,6002440
Trinity Lutheran Church,119 N. Elm,,,McPherson,KS,67460 ,, - ,6008730
Lindsborg Safety Center,"102 S. First, Lindsborg",,,Lindsborg,KS,67456 ,, - ,6008737
Inman Community Center,200 S Walnut,,,Inman,KS,67546 ,, - ,6008766
Cimarron 1 4-H Bldg,"17002 US Hwy 50, Cimarron",,,Cimarron,KS,67835 ,,07:00 AM - 07:00 PM,6004830
Credit Union 29th &amp; Croco  49,3623 SE 29th St,,Front Doors,Topeka,KS,66605 ,FRONT DOORS. , - ,60064155
Corning Comm Bldg - Corning City,6221 5th St,,,Corning,KS,66417 ,,07:00 AM - 07:00 PM,6009665
Linn City Hall,104 5th St,,,Linn,KS,66953 ,,07:00 AM - 07:00 PM,60015387
Hoyt Community Bldg,,,,Hoyt,KS,66440 ,,07:00 AM - 07:00 PM,6005728
Tomahawk Creek Condos,11600 Tomahawk Creek Pkwy,,,Leawood,KS,66211 ,"Clubhouse Lobby
Main Entrance. ", - ,60025759
National American Univ,10310 Mastin,,,Overland Park,KS,66212 ,"Classroom 109
Main Front Entrance. ", - ,60031629
Spring Hill Civic Center,401 N Madison St,,,Spring Hill,KS,66083 ,"Large Elections - Gymnasium
Small Elections - Room 10
Main Entrance. ", - ,60025866
Stilwell Methodist Church,19335 Metcalf Ave,,,Stilwell,KS,66085 ,"Fellowship Hall
Lower Level. ", - ,60031680
Holy Cross Lutheran Church,7851 W 119th St,,,Overland Park,KS,66213 ,West Fellowship Hall. , - ,60031695
Bethany Lutheran Church,9101 Lamar Ave,,,Overland Park,KS,66207 ,"Lower Hall 
South Side
Elevator Available from Upper Level. ", - ,60025829
Prairie Baptist Church,7416 Roe Ave,,,Prairie Village,KS,66208 ,"Founder's Room
Upper Level. ", - ,60025730
Central Church Nazarene,12600 W 87th St Pkwy,,,Lenexa,KS,66215 ,"Lower Level
North Entrance. ", - ,60031663
Cedar Creek Swim/Rac Club,25775 W 103rd St,,,Olathe,KS,66061 ,"Main Lounge
Front Entrance. ", - ,60031664
Holy Trinity Orthodox Ch,11901 Pflumm Rd,,,Overland Park,KS,66213 ,"Social Hall
Lower Level
Lower Level Entrance South Side of Building. ", - ,60025840
Community Center Ward 2,619 N Main,,,Pratt,KS,67124 ,,07:00 AM - 07:00 PM,60064176
De Soto Methodist Church,8760 Kill Creek Rd,,,De Soto,KS,66018 ,"Upstairs Narthex
Main Front Entrance. ", - ,60025650
St. Aloysius Parish Center,219 N Elm Street,,,Osborne,KS,67473 ,,07:00 AM - 07:00 PM,60065001
Hope Lutheran Church,6308 Quivira Rd,,,Shawnee,KS,66216 ,"Narthex 
Main Entrance. ", - ,60025855
First Baptist Ch Olathe,2024 E 151st St,,,Olathe,KS,66062 ,"Fellowship Hall
East Entrance. ", - ,60025810
Legacy Christian Church OP,10150 Antioch Rd,,,Overland Park,KS,66212 ,"Formerly Johnson County Christian Church
Room #202 &amp; #203. ", - ,60025617
St Luke's Episcopal Church,5325 Nieman Rd,,,Shawnee,KS,66203 ,"Parish Hall Across From Offices
Front South Entrance. ", - ,60025772
Faith Chapel Assmbly God,15000 Newton St,,,Overland Park,KS,66223 ,"Main front entrance
Lobby area. ", - ,60025776
Four Colonies Clubhouse 3,8100 Monrovia St,,,Lenexa,KS,66215 ,"Clubhouse #3
Front Entrance. ", - ,60025786
Atriums Retirement Apts,7300 W 107th St,,,Overland Park,KS,66212 ,"The Pub Room
Main  Front Entrance
Rear of Lobby. ", - ,60025587
Chapel Oaks SDA Church,6245 Monticello Rd,,,Shawnee,KS,66226 ,"Activity Center
Main Front Entrance. ", - ,60064194
Trinity Methodist Church,430 Eunice,,,El Dorado,KS,67042 ,Pick up key day before election. ,06:00 AM - 07:00 PM,60027418
Augusta Senior Center,640 Osage,,,Augusta,KS,67010 ,pick key up day before election. ,06:00 AM - 07:00 PM,60027419
Augusta First Christian,1600 State ,,,Augusta,KS,67010 ,Secretary will unlock doors. ,06:00 AM - 07:00 PM,60027420
Sedan Community Building,1960 Kansas Road,,,Sedan,,67361 ,, - ,6001224
Waverly Commun. Bldg. 2,408 Pearson St.,,,Waverly,KS,,,07:00 AM - 07:00 PM,60027698
Long Island Community Center,,,,,,,,07:00 AM - 07:00 PM,60011161
Courthouse Lobby-Ctr 1- 05.01/05.06,,,,,KS,,,07:00 AM - 07:00 PM,60065018
Kensington American Legion,114 S Main,,,Kensington,KS,66951 ,,07:00 AM - 07:00 PM,60013888
Msvle American Legion Post #163 Oketo,310 Veterans Memorial Drive N.,,,Marysville,KS,66508 ,,07:00 AM - 07:00 PM,60064798
Valley Heights High School - B.R.,2274 6th Rd,,,Blue Rapids,KS,66411 ,,07:00 AM - 07:00 PM,60064803
Church Of The Resurrection,5001 W 137th St.,,,Leawood,KS,66224 ,"Voting in Narthex
East Entrance. ", - ,60064913
Simpson Senior Citizens Center,Simpson,,,,,,, - ,6009345
Elwood Community Center,(Elwood Precinct),207 North 6th St,,Elwood,KS,66024 ,,07:00 AM - 07:00 PM,6002730
Milford City Building,202 12th St.,,,,,,,07:00 AM - 07:00 PM,6004541
Welda Community Buildi,,,,,,,,07:00 AM - 07:00 PM,60021
Redfield City Hall,"Redfield, Ks 66769",,,,,,, - ,600623
First Baptist Church,1621 Main,,,Parsons,KS,67357 ,Parsons City 1st Ward. ,07:00 AM - 07:00 PM,60030402
Oswego Community Bldg.,5th &amp; Merchant,,,Oswego,KS,67356 ,Oswego City/Oswego Twp. ,07:00 AM - 07:00 PM,60030406
Immanuel Church Hall,673 W. 680th Ave. ,,,Hepler,KS,66746 ,,07:00 AM - 07:00 PM,60064985
McCune Community Center,410 5th St.,,,Mccune,KS,66753 ,,07:00 AM - 07:00 PM,60064988
Franklin Community Center,701 S. Broadway St. ,P.O. Box 43,,Franklin,KS,66735 ,,07:00 AM - 07:00 PM,60064990
Bible Christian Church,1404 E. Mary,,,Garden City,KS,67846 ,,07:00 AM - 07:00 PM,60064321
Crystalbrook Church Indep. City 1st Pct 2nd Ward,801 W. Chestnut,,,Independence,KS,67301 ,,07:00 AM - 07:00 PM,60064388
McCracken Community Building - M City - Hf Twp,400 West 1st,,,McCracken,KS,67556 ,, - ,60012359
Dodge City Civic Center,2100 First Ave,,,Dodge City,KS,67801 ,,07:00 AM - 07:00 PM,60064500
Senior Citizen - Cvale Building,207 E. Main,,,Cherryvale,KS,67335 ,,07:00 AM - 07:00 PM,60028915
Wm Carpenter Building 6,608 Fairground Rd,,,Scott City,KS,67871 ,,07:00 AM - 07:00 PM,60064308
Wm Carpenter Building 9,608 Fairground Rd,,,Scott City,KS,67871 ,,07:00 AM - 07:00 PM,60064311
Wm Carpenter Building 10,608 Fairground Rd,,,Scott City,KS,67871 ,William Carpenter Foundation. ,07:00 AM - 07:00 PM,60064312
Moscow Methodist Fellowship Hall 02,,,,,KS,,, - ,60064315
Sabetha City Hall - Berwick,805 Main,,,Sabetha,KS,66534 ,,07:00 AM - 07:00 PM,60064544
First Baptist Church,902 Fifth St - Fellowship Hall,"Clay Center, KS 67432",,Clay Center,KS,67432 ,,07:00 AM - 07:00 PM,60064580
09 Jewish Community Center,917 Highland Dr.,,,Lawrence,KS,66044 ,,07:00 AM - 07:00 PM,60065010
Courthouse Lobby-Belle Plain-10.01/10.02,,,,,KS,,,07:00 AM - 07:00 PM,60065022
Bentley City Hall,"150 S Wichita, Bentley",,,Bentley,KS,67016 ,SE corner of Wichita and Midland. ,06:00 AM - 07:00 PM,60064532
Viola Community Hall,100 N Grice,,,Viola,KS,67149 ,"E side of Grice (263rd St W) S of K-42 Hwy
Highway 49. ",06:00 AM - 07:00 PM,60064541
Memorial Hall - Center 1,,,,,KS,,, - ,60065390
Memorial Hall - Center 6,,,,,KS,,, - ,60065395
Memorial Hall 1st Pct 6th Ward,Penn &amp; Locust (North Door),,,Independence,KS,67301 ,,07:00 AM - 07:00 PM,60065293
Gridley Community Bldg,,,,,KS,,,07:00 AM - 07:00 PM,60065326
Nortonville Senior Center,107 Taggart St,,,Nortonville,KS,66060 ,One Story Structure used for Senior Citizen meals and Community Events. ,07:00 AM - 07:00 PM,60065515
American Legion Hall,"313 S. Main, Erie",,,Erie,KS,66733 ,,07:00 AM - 07:00 PM,60065765
Central Park Pavilion,"101 S Forest, Chanute",,,Chanute,KS,66720 ,,07:00 AM - 07:00 PM,60065769
Hillcrest Community Building,"8075 160th Rd, Chanute",,,,KS,,,07:00 AM - 07:00 PM,60065770
New Life Community Church,17935 S Moonlight Rd,,,Gardner,KS,66030 ,"Multi Purpose Room
West Entrance. ", - ,60065942
Chase Senior Center,,,,,KS,,,07:00 AM - 07:00 PM,60065582
West Evangelical Free Church,"1161 N Maize Rd, Wichita",,,Wichita,KS,67212 ,W Side of Maize Rd S of 13th St N. Use W carport entry.. ,06:00 AM - 07:00 PM,60017029
Congregation Emanu-El,"7011 E Central Ave, Wichita",,,Wichita,KS,67206 ,South side of Central Ave between Woodlawn and Armour. ,06:00 AM - 07:00 PM,60064978
54 Eudora Rec. Center,1638 Elm Street,,,Eudora,KS,66025 ,,07:00 AM - 07:00 PM,60065927
Memorial Hall West Center,,,,,KS,,, - ,60066251
Northridge Community Ctr*,"612 N. Christian, Moundridge",,,Moundridge,KS,67107 ,, - ,60066011
41 Lawrence Union Pacific Depot (Visitor Center),402 N 2nd St.,,,Lawrence,KS,66044 ,,07:00 AM - 07:00 PM,60066112
Louisburg United Methodist Church,249 N Metcalf,Photo ID required when voting,,Louisburg,KS,66053 ,,07:00 AM - 07:00 PM,60066066
Grace Baptist Church,650 E Madison,,,Gardner,KS,66030 ,, - ,60066998
Oskaloosa Methodist Church,402 Liberty St,PO Box 38,,Oskaloosa,KS,66066 ,West side of Courthouse Square 1/2 block north. ,07:00 AM - 07:00 PM,60066992
Heritage Center Two,,,,,KS,,, - ,60066963
Scammon City Hall,202 E 3rd St,,,Scammon,KS,66773 ,,07:00 AM - 07:00 PM,60066375
First Baptist Church,1640 Riley,,,Atchison,KS,66002 ,,07:00 AM - 07:00 PM,60066451
Bolton Township Building,6789 322nd Road,,,Arkansas City,KS,67005 ,South on US 77 turn left at Church of Latter Day Saints about 1/4 of mile on south side of road across road from IXL Elementary School.. , - ,60066798
Memorial Hall-Center 7,,,,,KS,,, - ,60066935
Wesleyan Church,Belleville Wesleyan Church,909 Wesleyan Drive ,,Belleville,KS,66935 ,,07:00 AM - 07:00 PM,60066689
Iowa Twp #352,Emergency Services Building,1006 Center Avenue,,Goodland,KS,67735 ,, - ,60066755
Iowa Twp #314,Emergency services Building,1006 Center Avenue,,Goodland,KS,67735 ,, - ,60066756
Itasca Twp,Emergency Services Building,1006 Center Avenue,,Goodland,KS,67735 ,, - ,60066757
Shermanville Twp,Emergency Services Building,1006 Center Avenue,,Goodland,KS,67735 ,, - ,60066764
Lorraine City Office,239 S. Main,,,Lorraine,KS,67459 ,,07:00 AM - 07:00 PM,60066400
Cornerstone Church - Ward 1 Pct 1,900 S Ridgeway,,,Caney,KS,67333 ,,07:00 AM - 07:00 PM,60067103
Oak Ridge Missionary Baptist Church,9301 Parallel Parkway,,,Kansas City,KS,66112 ,, - ,60067235
45 Golf Course Superintendents Assoc. Hq,1421 Research Park Dr.,,,Lawrence,KS,66049 ,,07:00 AM - 07:00 PM,60067114
Auburn Hills Golf Course Clubhouse,443 S 135th St W,,sappelhanz@wichita.gov,Wichita,KS,67235 ,Between Highway 54 and Maple St on 135th st. ,06:00 AM - 07:00 PM,60067091
Cornerstone Church - W 1 P2 Exc A,,,,,KS,,,07:00 AM - 07:00 PM,60067205
Senior Citizen - Cofv Building - Pct 9,,,,,KS,,,07:00 AM - 07:00 PM,60067214
No Registered Voters,2101 E Kansas City Rd,,,Olathe,KS,66061 ,All precincts with zero registered voters will be assigned to this polling location.. , - ,60067105
60 Lumberyard Arts Center,718 High St.,,,Baldwin City,KS,66006 ,,07:00 AM - 07:00 PM,60067159
Smoky Hill Country Club,3303 Hall St,,,Hays,KS,67601 ,,07:00 AM - 07:00 PM,60064948
Community Center,"613 S Race, Spring Hill",Photo ID required when voting,,Spring Hill,KS,66083 ,,07:00 AM - 07:00 PM,60018679
Sternberg Museum,3000 Sternberg Dr,,,Hays      ,KS,,,07:00 AM - 07:00 PM,60017781
Grace Presbyterian Church,"5002 E Douglas Ave, Wichita",,,Wichita,KS,67218 ,NE corner of Bleckley and Douglas Ave just east of Oliver. ,06:00 AM - 07:00 PM,60016934
Bern Comm Bldg - Washington,416 Main,,,Bern,KS,66408 ,,07:00 AM - 07:00 PM,60064865
Corning Comm Bldg - Illinois,6221 5th St,,,Corning,KS,66417 ,,07:00 AM - 07:00 PM,60064869
Corning Comm Bldg- Red Vermillion,6221 5th St,,,Corning,KS,66417 ,,07:00 AM - 07:00 PM,60064870
Independent Living Center,"3033 W 2nd St N, Wichita",,,Wichita,KS,67203 ,S side of 2nd St N between St Paul and Sheridan. ,06:00 AM - 07:00 PM,60016947
Maranatha Worship Center,"888 S Webb Rd, Wichita",,,Wichita,KS,67207 ,"E side of Webb Rd S of Turnpike
ADVANCE: Post accessible entry sign on W voter entry to encourage voters with disabilites to use E entry so they do not have to go into traffic behind parke cars to get to ramp.. ",06:00 AM - 07:00 PM,60016960
Nemaha Co Comm Bldg - Mitchell,1500 Community Drive,,,Seneca,KS,66538 ,,07:00 AM - 07:00 PM,60064874
Nemaha Co Comm Bldg - Seneca City Ward 1,1500 Community Drive,,,Seneca,KS,66538 ,,07:00 AM - 07:00 PM,60064876
Sabetha City Hall - Capioma,805 Main,,,Sabetha,KS,66534 ,,07:00 AM - 07:00 PM,60064880
Wetmore American Legion - Granada,329 2nd Street,,,Wetmore,KS,66550 ,,07:00 AM - 07:00 PM,60064884
Sterling Methodist Church,,,,,KS,,,07:00 AM - 07:00 PM,60064664
Memorial Hall 1st Pct 5th Ward,Penn &amp; Locust,,,Independence,KS,67301 ,,07:00 AM - 07:00 PM,60065290
Woodlawn Methodist Church,"431 S Woodlawn Blvd, Derby",,,Derby,KS,67037 ,SW corner of Woodlawn Blvd and Kay. ,06:00 AM - 07:00 PM,60017047
Grace Baptist Church,2901 Dickens Ave,,,Manhattan,KS,66503 ,,07:00 AM - 07:00 PM,60017192
34 Trinity United Meth Ch,901 E Neal Avenue,,,Salina,KS,67401 ,"Southeast Doors

Key for SJ. ",07:00 AM - 07:00 PM,60017501
Argentine Community Center,2810 Metropolitan Ave,,,Kansas City,KS,66106 ,, - ,60018066
Mount Zion Baptist Church,417 Richmond Ave,,,Kansas City,KS,66101 ,, - ,60018104
Oak Grove Baptist Church,5500 Woodend,,,Kansas City,KS,66106 ,, - ,60018111
Church of Christ - Twp #7,320 Country Club Road,,,Pratt,KS,67124 ,,07:00 AM - 07:00 PM,60065126
Lewis City Hall,219 S. Main,,,Lewis,KS,67552 ,,07:00 AM - 07:00 PM,60065193
Hoisington Activity Center - Arts &amp; Crafts Room,1200 Susank Rd,,,Hoisington,KS,67544 ,,07:00 AM - 07:00 PM,60019566
Immaculate Conception Parish Hall,110 E Williamson,,,Claflin,KS,67525 ,,07:00 AM - 07:00 PM,60019569
Barton County Historical Society Building,85 S Hwy 281,PO Box 1091,,Great Bend,KS,67530 ,,07:00 AM - 07:00 PM,60019577
Prince of Peace - St Patrick's Parish Center,4100 Broadway,,,Great Bend,KS,67530 ,,07:00 AM - 07:00 PM,60019587
Knights of Columbus Hall,209 Main,,,Olmitz,KS,67564 ,,07:00 AM - 07:00 PM,60019606
Dearing Christian Ch. Fc Twp-Dearing Pct,302 Indep. Ave,,,Dearing,KS,67340 ,,07:00 AM - 07:00 PM,60065273
Gateway,1 Morgan Drive,,,Oberlin,KS,67749 ,,07:00 AM - 05:00 PM,60065172
Ingalls 4-H Bldg,"17002 US Hwy 50, Cimarron",,,Cimarron,KS,67835 ,,07:00 AM - 07:00 PM,60064839
Hillcrest Community Center  4/02,1800 SE 21st St,,Front Door,Topeka,KS,66605 ,FRONT DOOR. , - ,60021171
Brown V Board of Education N H S 4/04,1515 SE Monroe St,,North Door,Topeka,KS,66612 ,NORTH DOOR. , - ,60021219
Ks Discovery Center 7/09,4400 SW 10th Ave,,North Door,Topeka,KS,66604 ,NORTH DOOR. , - ,60021095
Christ Lutheran Church  9/11,3509 SW Burlingame Rd,,Front Door,Topeka,KS,66611 ,FRONT DOOR. , - ,60021099
Rochester Comm Church  29,3201 NW Rochester Rd,,South Lower Entrance,Topeka,KS,66617 ,SOUTH LOWER ENTRANCE. , - ,60021102
Town &amp; Country Christian Ch  11/09,4925 SW 29th St,,West Side - South Door,Topeka,KS,66614 ,WEST SIDE - SOUTH DOOR. , - ,60021105
Brookwood Covenant Church  9/08,3601 SW 33rd St,,West Side North Door,Topeka,KS,66614 ,WEST SIDE NORTH DOOR. , - ,60021293
Citizen Potawatomi Nation  01,806 Nishnabe Trail,,South Door,Rossville,KS,66533 ,SOUTH DOOR. , - ,60021238
Oakland Community Center  2/01,801 NE Poplar St,,Front Door,Topeka,KS,66616 ,FRONT DOOR. , - ,60021195
McCrite Plaza Retirement Apts. 6/05,1608 SW 37th St,,1608 E North Door,Topeka,KS,66611 ,1608 E NORTH DOOR. , - ,60021201
Covenant Baptist Church  12/16,5440 SW 37th St,,Front Door South Side,Topeka,KS,66614 ,FRONT DOOR SOUTH SIDE. , - ,60021109
61 Baldwin Jr. High,400 Eisenhower St,,,Baldwin City,KS,66006 ,,07:00 AM - 07:00 PM,60020477
05 Deerfield Elementary,101 Lawrence Ave,,,Lawrence,KS,66049 ,"Needs Temporary Disabled Parking sign and Orange cones. 
deliver sign and cones - custodian will place",07:00 AM - 07:00 PM,60020491
Reno County Museum,100 South Walnut,,,Hutchinson,KS,67501 ,conference room - second floor. , - ,60011758
Medora Community Bible Church,8311 Medora Rd.,,,Hutchinson,KS,67502 ,West Entrance in Lobby. , - ,60011805
St Matthew's Church,2001 Windsor Dr,,,Newton,KS,67114 ,,07:00 AM - 07:00 PM,6005433
V F W Building  8/05,3110 SW Huntoon St,,Front Door,Topeka,KS,66604 ,FRONT DOOR. , - ,60021300
01 Pinckney School,810 W 6th St,,,Lawrence,KS,66044 ,Park to Vote Signs,07:00 AM - 07:00 PM,60020518
67 Willow Springs Twp Hall,303 E 1100 Rd,,,Baldwin City,KS,66006 ,,07:00 AM - 07:00 PM,60020535
Leav. Public Library,417 Spruce St,,,Leavenworth,KS,66048 ,, - ,6007245
Fairmount Twp Fire Stat.,2620 N 155th St,,,Basehor,KS,66007 ,, - ,6007276
Fairview Fire Station,7424 Ferguson Rd,,,Ozawkie,KS,66070 ,,07:00 AM - 07:00 PM,6006031
Villa Ro Community Rm,"421 E. Saline, Lindsborg",,,Lindsborg,KS,67456 ,, - ,6008734
Galva Community Center,"200 S. Main, Galva",,,Galva,KS,67443 ,, - ,6008749
Northridge Community Ctr,"612 N. Christian, Moundridge",,,Moundridge,KS,67107 ,, - ,6008761
Windom Fire Station,"700 N. Main, Windom",,,Windom,KS,67491 ,, - ,6008747
White City Community Bldg - Twp 5,118 W Mackenzie,,,White City,KS,66872 ,, - ,60064062
Montezuma/GY Amb Bldg,"507 W Cortez St, Montezuma",,,Montezuma,KS,67867 ,,07:00 AM - 07:00 PM,6004831
Bern Comm Bldg - Bern City,416 Main,,,Bern,KS,66408 ,,07:00 AM - 07:00 PM,6009666
Goff Comm Center - Goff City,1723 State Highway 9,,,Goff,KS,66428 ,,07:00 AM - 07:00 PM,6009664
Fisher Center,201 E Iowa St,,,Hiawatha,KS,66434 ,,07:00 AM - 07:00 PM,60064556
Kloppenberg Center,512 E. North Street,,,Hanover,KS,66945 ,,07:00 AM - 07:00 PM,60015377
Denison Community Bldg,203 Central Ave,,,Denison,KS,66419 ,,07:00 AM - 07:00 PM,6005731
Msvle American Legion Post 163,310 Veterans Memorial Drive N.,,,Marysville,KS,66508 ,,07:00 AM - 07:00 PM,6008473
Annunciation Cigna Center,402 N Maple,,,Frankfort,KS,66427 ,,07:00 AM - 07:00 PM,6008469
Atchison Library,"401 Kansas Ave,",,,Atchison,KS,66002 ,,07:00 AM - 07:00 PM,600303
Christ Comm Ch Leawood,14200 Kenneth Rd,,,Leawood,KS,66224 ,"Lobby
Main Front Entrance. ", - ,60031611
Lake Quivira City Hall,10 Crescent Dr,,,Lake Quivira,KS,66217 ,"Conference Room
Northwest Entrance. ", - ,60025814
Irene B French Comm Ctr,5701 Merriam Dr,,,Merriam,KS,66203 ,"Formerly Known as the Merriam Community Center
The Campbell Room
First Floor. ", - ,60025818
Merriam Park Elementary,6100 Mastin,,,Merriam,KS,66203 ,Kindergarten Hallway. , - ,60025824
Rolling Hills Presbyterian,9300 Nall Ave,,,Overland Park,KS,66207 ,"Narthex
Main Church Entrance Off Rear Parking Lot. ", - ,60031647
Jo Co Library Blue Valley,9000 W 151st St,,,Overland Park,KS,66221 ,"Meeting Room
Main Entrance. ", - ,60031649
Lord Of Life Lutheran Ch,3105 W 135th St,,,Leawood,KS,66224 ,"Lobby
Main Entrance. ", - ,60025834
Pleasant Valley Twp Hall,22277 71st Rd,,,Winfield,KS,67156 ,, - ,6001853
Asbury Methodist Church,5400 W 75th St,,,Prairie Village,KS,66208 ,"Hager Hall
Rear Lower Level. ", - ,60025743
Toronto Township Comm. Bldg.,200 S. Broad,,,Toronto,KS,66777 ,,07:00 AM - 07:00 PM,60016265
Oak Park Library,9500 Bluejacket St,,,Overland Park,KS,66214 ,"West Programming Room
South Entrance. ", - ,60025629
OP Retirement Place,6555 W 75th St,,,Overland Park,KS,66204 ,"Library
Main Entrance. ", - ,60025630
Redeemer Lutheran Church,920 Alta Ln,,,Olathe,KS,66061 ,"Fellowship Hall
Main Entrance Off Parking Lot. ", - ,60031624
Shawnee Town Hall,11600 Johnson Dr,,,Shawnee,KS,66203 ,"Town Hall
Main Entrance. ", - ,60025861
Sacred Heart Parish Ctr,130 E Warren St,,,Gardner,KS,66030 ,Main Front Entrance. , - ,60025843
Potwin Community Bldg,207 N. Randall,,,Potwin,KS,67123 ,Key can be picked up on Monday at Potwin office.. ,06:00 AM - 07:00 PM,60027424
Edna Community Senior Center,,,,Edna,KS,67342 ,Edna City/Elm Grove Twp. ,07:00 AM - 07:00 PM,60064441
Andover St. Vincent's,123 N. Andover Rd,,,Andover,KS,67002 ,Doors Exit/Enter Social Space Area (Bell Tower Doors). ,06:00 AM - 07:00 PM,60027462
Huck Boyd Center,,,,,,,,07:00 AM - 07:00 PM,60011144
Prairie View Community Center,,,,,,,,07:00 AM - 07:00 PM,60011166
Palco Township Hall,,,,Palco,KS,67657 ,, - ,60012069
Veterans Bldg,,,,,,,,07:00 AM - 07:00 AM,6001510
Murdock Methodist Church,Murdock Methodist Church,2455 SE Murdock Ave,,Murdock,KS,67111 ,,07:00 AM - 07:00 PM,60025887
Kingman Activity Center South Room,110 W First Ave,,,Kingman,KS,67068 ,Kingman County Fair Grounds Building. Parking is available on the East side of the building and it is handicap accessible.,07:00 AM - 07:00 PM,60025892
Andover Faith Baptist,417 W Central,,,Andover,KS,67002 ,,06:00 AM - 07:00 PM,60027524
Conway Sprgs City Bldg,208 W Spring,,,Conway Springs,KS,67031 ,,07:00 AM - 07:00 PM,60014176
Mulvane Emergency Services Bldg,910 E Main,,,Mulvane,KS,67110 ,,07:00 AM - 07:00 PM,60014182
Wathena Community Center,(Wathena Precinct),303 E St. Joseph St,,Wathena,KS,66090 ,,07:00 AM - 07:00 PM,6002732
Colony City Hall,,,,,,,,07:00 AM - 07:00 PM,60016
"St. Johns Hall, Greeley",,,,,,,,07:00 AM - 07:00 PM,60020
Selma/Kincaid United Methodist,"Church, Kincaid",,,,,,,07:00 AM - 07:00 PM,60019
Bronson Community Bldg.,Bronson KS 66716,,,,,,, - ,600617
First Christian Church,1500 S 29th,,,Parsons,KS,67357 ,Parsons City 3rd Ward. ,07:00 AM - 07:00 PM,60030403
Centerville Comm. Bldg.,211 East Market St,,,Centerville,KS,66014 ,, - ,6007537
Pershing Manor,606 Pershing,,,Garden City,KS,67846 ,,07:00 AM - 07:00 PM,60064319
Pleasanton City Hall,1700 Laurel St,,,Pleasanton,KS,66075 ,, - ,60064325
Independence Community College - Indep Twp Pct 1,Cessna Building,"2560 Brookside DR., Driveway F",,Independence,KS,67301 ,,07:00 AM - 07:00 PM,60028917
Montgomery Co Extension Council - Indep Twp Pct 2,410 Peter Pan Road,,,Independence,KS,67301 ,,07:00 AM - 07:00 PM,60028937
Troy Community Building-WY,1225 Last Chance Road,,,Troy,KS,66087 ,,07:00 AM - 07:00 PM,60064431
Community Building,,,,,,,, - ,60015657
Finney County Library,605 E Walnut,,,Garden City,KS,67846 ,,07:00 AM - 07:00 PM,60029801
Pierceville Gym,,,,Pierceville,KS,67868 ,,07:00 AM - 07:00 PM,60029804
Ward Three,Emergency Services Building,1006 Center Avenue,,Goodland,KS,67735 ,, - ,60064756
American Legion-Sandcreek-10.4/10.06,,,,,KS,,,07:00 AM - 07:00 PM,60065026
First Baptist - Mulvane,"1020 N 2nd Ave, Mulvane",,,Mulvane,KS,67110 ,E side of 2nd St (Rock Rd) S of Louis (K-15 Hwy). ,06:00 AM - 07:00 PM,60064668
Kelley Hall Ward 1,,,,,KS,,,07:00 AM - 07:00 PM,60065302
Grace Community Church,1600 S Anderson,,,Newton,KS,67114 ,,07:00 AM - 07:00 PM,60065505
VFW 846 Of Overland Park,8804 Grant,,,Overland Park,KS,,"North Hall
West Entrance. ", - ,60065954
La Cygne Comm Bldg (s),204 N Commercial,,,La Cygne,KS,66040 ,, - ,60065772
"Attica Memorial Bldg.(Attica, Twp1)",,,,,KS,,, - ,60065712
"Ward Four, Comm 2",Emergency Services Building,1006 Center Avenue,,Goodland,KS,67735 ,, - ,60065773
Eastborough City Hall,"1 Douglas Ave, Eastborough",,,Eastborough,KS,67207 ,SE corner of Douglas Ave and Woodlawn. ,06:00 AM - 07:00 PM,60016912
Bel Aire City Building,"7651 E Central Park, Bel Aire",,,Bel Aire,KS,67226 ,Near SW corner of 53rd St N and Rock Rd. ,06:00 AM - 07:00 PM,60064746
Christian Church 1,402 W. 6th,,,Concordia,KS,66901 ,North and east side,07:00 AM - 07:00 PM,60065985
Prairie Wind Apartments,201 N Cedar ,,,Eskridge,KS,66423 ,,07:00 AM - 07:00 PM,60066136
Buck Creek School,15456 13th St,,,Perry,KS,66073 ,Old School House east of Williamstown just off 24 Hwy on 13th Street.  Located on the north side of the road.  . ,07:00 AM - 07:00 PM,60066208
American Legion Hall-Sylvan Grove,,,,,KS,,,07:00 AM - 07:00 PM,60066238
Harper Senior Center (Twp 5 West),,,,Harper,KS,67058 ,, - ,60066122
St. John's Parish Center Sc,204 N Main,,,Spearville,KS,67876 ,,07:00 AM - 07:00 PM,60066095
New Life Family Church,4835 Shawnee Dr.,,,Kansas City,KS,,, - ,60066877
Grace United Methodist Church,2 Neosho Street,,,Emporia,KS,66801 ,,07:00 AM - 07:00 PM,60066416
4 Fairgrounds - Pct. 8,Meadowlark Building,2000 N. Poplar,,Hutchinson,KS,67502 ,, - ,60066915
18 Fairgrounds - Pct. 29,Meadowlark,2000 N. Poplar,,Hutchinson,KS,67502 ,, - ,60066929
Walton United Methodist,201 Blaine,,,Walton,KS,67151 ,Outside elevator entrance for handicap accessability. ,07:00 AM - 07:00 PM,60066589
The Branches Church,13020 S Black Bob Rd,,,Olathe,KS,66062 ,Fellowship Hall. , - ,60066957
23 Fairgrounds - Pct. 7,Meadowlark Building,2000 N. Poplar,,Hutchinson,KS,67502 ,, - ,60066994
Otis City Hall - Pl Twp,,,,,KS,,, - ,60066545
Fire District #2 Building - G Twp,208 S. Main,,,Timken,KS,67575 ,, - ,60066546
Harvest Bible Chapel,16000 S Black Bob Rd,,,Olathe,KS,66062 ,"Former Berean Church
North Lobby. ", - ,60066566
Norwich Senior Center,Norwich Senior Center,Attn: Kendra,226 N Main St,Norwich,KS,67118 ,,07:00 AM - 07:00 PM,60067028
ITT at Rosana Square,7600 W 119 ST,,,Overland Park,KS,66213 ,, - ,60066821
Grant Twp,Emergency services Building,1006 Center Avenue,,Goodland,KS,67735 ,, - ,60066754
Lincoln Twp,Emergency Services Building,1006 Center Avenue,,Goodland,KS,67735 ,, - ,60066758
Smoky Twp,Emergency Services Building,1006 Center Avenue,,Goodland,KS,67735 ,, - ,60066765
Cummings Christian Church,2583 McPherson Road,,,Cummings,KS,66016 ,,07:00 AM - 07:00 PM,60066452
Fellowship Bible Church,16900 S Waverly Rd,,,Gardner,KS,66030 ,, - ,60066382
Bethany Church of the Nazarene,Fellowship Hall,408 N. Kent Rd.,,Hutchinson,KS,67501 ,, - ,60067164
Valley Rental Center 2,803 Valley ,,,Concordia,KS,66901 ,Old Lincoln School. ,07:00 AM - 07:00 PM,60067124
39 Cider Gallery,810 Pennsylvania St.,,,Lawrence,KS,66044 ,,07:00 AM - 07:00 PM,60067117
Senior Citizens - Cofv Building- Pct 2,601 S Walnut St,,,Coffeyville,KS,67337 ,Activity Center. ,07:00 AM - 07:00 PM,60067155
Cornerstone Church - Ward 4 Pct 1,,,,,KS,,,07:00 AM - 07:00 PM,60067200
Cornerstone Church - Ward 3 Pct 2,,,,,KS,,,07:00 AM - 07:00 PM,60067203
11 Christ Covenant Reformed Presbyterian Church,2312 Harvard Rd.,,,Lawrence,KS,66049 ,,07:00 AM - 07:00 PM,60067150
Church of the Holy Spirit,18218 W Hwy 54,,,Goddard,KS,67052 ,NW corner of Kellogg (US 54 Hwy) and 183rd St W. ,06:00 AM - 07:00 PM,60016885
Eastminster Presbyterian,"1958 N Webb Rd, Wichita",,,Wichita,KS,67206 ,SE corner of Webb Rd and 19th St N; use entrance E of bell tower. ,06:00 AM - 07:00 PM,60016913
Hartford Community Hall,101 E. Exchange Street,,,Hartford,KS,66854 ,,07:00 AM - 07:00 PM,60016558
Girl Scout of the Ks Heartland,1200 Burlingame Road,,,Emporia,KS,66801 ,,07:00 AM - 07:00 PM,60016566
Greenwich Rd Ch of Christ,"1746 S Greenwich Rd, Wichita",,,Wichita,KS,67207 ,E side of Greenwich Rd S of Harry. ,06:00 AM - 07:00 PM,60016935
Knights of Columbus Hall,212 Iowa St.,,,Olpe,KS,66865 ,,07:00 AM - 07:00 PM,60016569
LI/SV Assaria Lutheran Ch,124 W 1st Street,,,Assaria,KS,67416 ,Enter East Door to fellowship room on right. ,07:00 AM - 07:00 PM,60017459
15/16 Carver Center,315 North 2nd St,,,Salina,KS,67401 ,"South Doors

Keys for R&amp;B and SJ. ",07:00 AM - 07:00 PM,60017462
Nemaha Co Comm Bldg - Seneca City Ward 3,1500 Community Drive,,,Seneca,KS,66538 ,,07:00 AM - 07:00 PM,60064878
Holyrood Lutheran Parish Hall,209 S County Rd,,,Holyrood,KS,67450 ,,07:00 AM - 07:00 PM,60065094
Park City Senior Center,"6100 N Hydraulic, Park City",,,Park City,KS,67219 ,South of 61st St N on Hydraulic next to City Hall. ,06:00 AM - 07:00 PM,60016984
Reformation Lutheran,"7601 E 13th St N, Wichita",,,Wichita,KS,67206 ,"SE corner of 13th St N and Broadmoor, just west of Rock Rd. ",06:00 AM - 07:00 PM,60016994
West Side Church of God,"1900 McCormick, Wichita",,,Wichita,KS,67213 ,NW corner of McCormick and Glenn.  Vote in gym behind Church building.. ,06:00 AM - 07:00 PM,60017031
Pathway Church,"2001 N Maize Rd, Wichita",,,Wichita,KS,67212 ,W side of Maize Rd S of 21st St N. ,06:00 AM - 07:00 PM,60017034
Kismet Pavilion,Main Street,,,Kismet,KS,67859 ,, - ,60065240
Center Hill School,8370 Swede Creek Rd,,,Randolph,KS,66554 ,,07:00 AM - 07:00 PM,60017206
Via Christi Village,2800 Willow Grove Rd,,,Manhattan,KS,66502 ,,07:00 AM - 07:00 PM,60017176
Vineyard Comm Church,2400 Casement Rd.,,,Manhattan,KS,66502 ,,07:00 AM - 07:00 PM,60017180
Manhattan Arts Center,1520 Poyntz Ave.,,,Manhattan,KS,66502 ,,07:00 AM - 07:00 PM,60017190
Trinity Presbyterian,1110 College Ave,,,Manhattan,KS,66502 ,,07:00 AM - 07:00 PM,60017191
02 Memorial Hall,9th &amp; Ash Street,,,Salina,KS,67401 ,"South entry or West doors has Ramp Entry

Have Keys for R&amp;B and SJ. ",07:00 AM - 07:00 PM,60017483
22/20 First Covenant Ch,2625 E Magnolia Rd,,,Salina,KS,67401 ,,07:00 AM - 07:00 PM,60017484
CA/DA Peace Luth Parsh Hl,,,,New Cambria,KS,67470 ,Enter North Door of the Parish Hall. ,07:00 AM - 07:00 PM,60017487
Ward One,Emergency Services Building,1006 Center Avenue,,Goodland,KS,67735 ,, - ,60013563
Eisenhower Recreation Center,2901 N 72nd St,,,Kansas City,KS,66109 ,, - ,60018084
Risen Lamb Church of Nazarene,5301 Metropolitan Ave,,,Kansas City,KS,66106 ,, - ,60018116
Paola American Legion,5 Delaware,Photo ID required when voting,,Paola,KS,66071 ,,07:00 AM - 07:00 PM,60063819
Prince Of Peace Church,16000 W 143 St,,,Olathe,KS,66062 ,"Gathering Area Front Lobby
Main Entrance. ", - ,60064906
Fire District #2 Building -T City - B Twp,208 S. Main,,,Timken,KS,67575 ,, - ,60065199
Church of Christ - Twp #6,320 Country Club Rd,,,Pratt,KS,67124 ,,07:00 AM - 07:00 PM,60065260
Church of Christ - Twp #9,320 Country Club Rd,,,Pratt,KS,67124 ,,07:00 AM - 07:00 PM,60065262
Church of Christ - Twp #12,320 Country Club Rd,,,Pratt,KS,67124 ,,07:00 AM - 07:00 PM,60065265
Cimarron 2 4-H Bldg,"17002 US Hwy 50, Cimarron",,,Cimarron,KS,67835 ,,07:00 AM - 07:00 PM,60064833
Antioch Family Life Center 4/07,1921 SE Indiana Ave,,Front Door,Topeka,KS,66607 ,FRONT DOOR. , - ,60021160
Metropolitan Community Church  10/09,4425 SW 19th St,,Main Door-Back of Building,Topeka,KS,66604 ,MAIN DOOR BACK OF BLDG. , - ,60021165
Community Christian Church - Twp 2,18 McCardell St,,,Council Grove,KS,66846 ,, - ,60065114
Sunrise Optimist Club  24,720 NW 50th St,,Front Door,Topeka,KS,66617 ,FRONT DOOR. , - ,60021223
Geneseo Senior Center,,,,,KS,,,07:00 AM - 07:00 PM,60064676
Capitol City Comm Ch of God  5/07,1191 SE 37th St,,East Side South Door,Topeka,KS,66605 ,EAST SIDE SOUTH DOOR. , - ,60021093
Heritage Hall - Ks Expocentre  3/08,One Expocentre Dr,,West Side Center Door,Topeka,KS,66612 ,WEST SIDE CENTER DOOR. , - ,60021097
49 Corpus Christi Catholic Church,6001 Bob Billings Way,,,Lawrence,KS,66049 ,Park to Vote Signs,07:00 AM - 07:00 PM,60020490
Woman's Club of Topeka  10/04,5221 SW West Drive,,West Side Door,Topeka,KS,66606 ,WEST SIDE DOOR. , - ,60021186
Prairie Home Cemetery Bldg  14,3430 NW Menoken Rd,,Back Door,Topeka,KS,66618 ,BACK DOOR. , - ,60021227
USD 501 Administration Bldg 4/10,624 SW 24th St,,Front Door,Topeka,KS,66611 ,FRONT DOOR. , - ,60021231
Church of Jesus Christ LDS  12/13,2401 SW Kingsrow Rd,,East Main Door,Topeka,KS,66614 ,EAST MAIN DOOR. , - ,60021246
Lowman United Methodist Ch 10/05,4000 SW Drury Ln,,Main Door,Topeka,KS,66604 ,MAIN DOOR. , - ,60021193
Martin Creek Place  10/03,4950 SW Huntoon St,,Front Door,Topeka,KS,66604 ,FRONT DOOR. , - ,60021196
VisionBank  12/20  ,3031 SW Wanamaker Rd,,Front Door,Topeka,KS,66614 ,FRONT DOOR. , - ,60021208
29 Checkers Food Store,2300 Louisiana St,,,Lawrence,KS,66046 ,Park to Vote signs,07:00 AM - 07:00 PM,60020482
43 Free State High School,4700 Overland Dr,,,Lawrence,KS,66049 ,Park to Vote signs,07:00 AM - 07:00 PM,60020501
Buhler City Rooms,219 N. Main St,,,Buhler,KS,67522 ,, - ,60011803
Mitchell United Methodist,5512 N Pennington Rd,,,Hutchinson,KS,67502 ,, - ,60011816
25 Fairgrounds- Pct. 21,Meadowlark Building,2000 N. Poplar,,Hutchinson,KS,67502 ,, - ,60011777
USD 309 Administration,"4501 West 4 Ave,",,,Hutchinson,KS,67501 ,, - ,60011819
"Celebration Centre, Lyons",,,,,,,,07:00 AM - 07:00 PM,60023180
56 Lincoln Twp Building,,,,,KS,,, - ,60022893
Burrton City Meeting Hall,118 N Burrton Ave,,,Burrton,KS,67020 ,,07:00 AM - 07:00 PM,6005449
Halstead HS New Gym,520 W 6th St,,,Halstead,KS,67056 ,,07:00 AM - 07:00 PM,6005450
Salem United Methodist,115 Old Main,,,Newton,KS,67114 ,Southwest corner of 1st and Old Main. Parking on west &amp; south sides of building,07:00 AM - 07:00 PM,6005428
Jennings Sr Center,133 S Kansas,,,Jennings,KS,67643 ,,07:00 AM - 05:00 PM,6002133
Dresden Methodist Church,Kansas Avenue ,,,Dresden,KS,67635 ,,07:00 AM - 05:00 PM,6002127
56 Kanwaka Twp Hall,776 Highway 40,,,Lawrence,KS,66049 ,,07:00 AM - 07:00 PM,60020507
44 Lawrence Heights Church,2321 Peterson Rd,,,Lawrence,KS,66049 ,Park to Vote signs,07:00 AM - 07:00 PM,60020511
63 Vinland United Methodist Church,1724 N 692 Rd,,,Baldwin City,KS,66006 ,,07:00 AM - 07:00 PM,60020532
Planters II,200 Shawnee St,,,Leavenworth,KS,66048 ,, - ,6007231
St. Francis De Sales,900 Ida St,,,Lansing,KS,66043 ,, - ,6007259
St Aloysius Church,615 E Wyandotte St,,,Meriden,KS,66512 ,"From K4 turn east on Wyandotte street, travel approximately 1/2 mile, church is on the south side of Wyandotte. paved parking lot",07:00 AM - 07:00 PM,6006039
Winchester Library,203 Fourth St,,,Winchester,KS,66097 ,"Winchester Library on the corner of 2nd and 4th streets, red brick building with paved parking lot. Paved Parking Lot",07:00 AM - 07:00 PM,6006033
American Legion Building,"502 Missouri St, Alma",,,Alma,KS,66401 ,,07:00 AM - 08:00 AM,60014773
Cornerstone Community Church  13/02,7620 SW 21st St,,West Front Door,Topeka,KS,66615 ,WEST FRONT DOOR. , - ,60064163
Finch Theatre,122 E Lincoln Ave,,,Lincoln,KS,67455 ,,07:00 AM - 07:00 PM,60064078
Prince of Peace Lutheran Ch 13/06,3625 SW Wanamaker Rd,,East Side North Door,Topeka,KS,66614 ,EAST SIDE NORTH DOOR. , - ,60064152
Burns Community Center,301 N Washington,,,Burns,KS,66840 ,,07:00 AM - 07:00 PM,6008168
Hillsboro City Bldg,118 E Grand,,,Hillsboro,KS,67063 ,,07:00 AM - 07:00 PM,6008167
Hope City Bldg,113 N Main St,,,Hope,KS,67451 ,, - ,6002443
Blue Ridge School,1539 highway 18,,,Abilene,KS,67410 ,, - ,6002444
Calvary Baptist Church,"1200 E. Avenue A, McPherson",,,McPherson,KS,67460 ,, - ,6008762
White City Community Bldg - Twp 6,118 W Mackenzie,,,White City,KS,66872 ,, - ,60064063
Sublette High School,Ellis St. ,,,Sublette,KS,67877 ,,07:00 AM - 07:00 PM,60024683
HCC Western Center Commons - Center,313 Nemaha,,,Baileyville,KS,66404 ,,07:00 AM - 07:00 PM,6009658
Onaga Community Center,S Leonard,,,Onaga,KS,66521 ,,07:00 AM - 07:00 PM,60025287
Olsburg Legion Building,316 N 2nd,,,Olsburg,KS,66520 ,GOOD,07:00 AM - 07:00 PM,60025289
Horton Blue Building,Horton,,,,,,716 1st Avenue West. ,07:00 AM - 07:00 PM,600927
Whiting Community Building,608 5th St,,,Whiting,KS,66552 ,,07:00 AM - 07:00 PM,6005745
St. Malachy's Church Hall,311 Williams,,,Beattie,KS,66406 ,,07:00 AM - 07:00 PM,6008459
Axtell American Legion,207 5th St.,,,Axtell,KS,66403 ,,07:00 AM - 07:00 PM,6008450
St. Mark'S Lutheran Church,"400 South 6th, Atchison Ks",,,,,,,07:00 AM - 07:00 PM,600302
Monticello Methodist Ch,23860 W 75th St,,,Shawnee,KS,66227 ,"Fellowship Hall
Southwest Entrance. ", - ,60025795
St Aidan's Episcopal Church,14301 S Black Bob Rd,,,Olathe,KS,66062 ,"Parish Hall
Main Entrance. ", - ,60025806
Comm Of Christ Ch Olathe,15520 S Ridgeview Rd,,,Olathe,KS,66062 ,"Multi Purpose Room
Enter Through Double Doors From Parking Lot to Gym. ", - ,60025862
Leawood City Hall,4800 Town Center Dr,,,Leawood,KS,66211 ,"Oak Room for November 2008
Lower Level Community Center North Side of City Hall
Community Center Lobby Entrance. ", - ,60025835
First Lutheran Church,6400 State Line Rd,,,Mission Hills,KS,66208 ,"Fellowship Hall. Rear Lower Level Parking Lot.
Disabled Entrance Use Front of Church and Take Elevator to Fellowship Hall on Lower Level.. ", - ,60031630
Harvest Ridge Covenant Ch,22015 Midland Dr,,,Shawnee,KS,66226 ,"Gathering Room
Main Front Entrance. ", - ,60031614
Oak Park Carpenter School,10000 Nieman Rd,,,Overland Park,KS,66214 ,"Gymnasium for November 2008
Parking available in front, side and back lots
Use side entrance to gymnasium. ", - ,60025860
Crescent Apartment Homes,8500 Maurer Rd,,,Lenexa,KS,66219 ,Clubhouse Lobby. , - ,60025597
Hope Alive Christian Ctr,9675 W 159th St,,,Overland Park,KS,66221 ,"Foyer
Main Front Entrance. ", - ,60031644
Community Center Ward 3,619 N Main,,,Pratt,KS,67124 ,,07:00 AM - 07:00 PM,60064177
Community Center Ward 5,619 N Main,,,Pratt,KS,67124 ,,07:00 AM - 07:00 PM,60064179
Dexter City Building,113 S Main,,,Dexter,KS,67038 ,, - ,6001840
VFW 6654 Of De Soto,33725 W 84th St,,,De Soto,KS,66018 ,"Main Reception Hall
Front Entrance
Disabled Entrance. ", - ,60025671
Calvary Baptist Church,8130 Lackman Rd,,,Lenexa,KS,66219 ,"Main Entrance
Senior Adult Classroom. ", - ,60025678
Bennington City Hall,104 N Nelson,,,Bennington,KS,67422 ,,07:00 AM - 07:00 PM,60064199
Grace Methodist Church,11485 S Ridgeview Rd,,,Olathe,KS,66061 ,Main Entrance on Upper Level Parking Lot. , - ,60025586
Overland Park City Hall,8500 Santa Fe Dr,,,Overland Park,KS,66212 ,"Main Entrance
Conference Room # One. ", - ,60031704
Edgerton Community Hall,404 E Nelson St,,,Edgerton,KS,66021 ,"Large Meeting Room
South Entrance
. ", - ,60025680
Knox Presbyterian Church,9595 W 95th St,,,Overland Park,KS,66212 ,"Fellowship Hall
Southeast Entrance. ", - ,60025656
Covenant Chapel Church,13300 Kenneth Rd,,,Leawood,KS,66209 ,"Lobby 
Main Entrance. ", - ,60025669
Lenexa Community Center,13420 Oak St,,,Lenexa,KS,66215 ,"Main Front Entrance
Vicinity of 94th and Pflumm Rd. ", - ,60025720
Grace Comm Ch Nazarene,19300 S 169 Hwy,,,Spring Hill,KS,66083 ,"Foyer or Mutli-Purpose Room
Main Front Entrance. ", - ,60025762
Gardner American Legion,315  Meadowbrook Cir,,,Gardner,KS,66030 ,"American Legion Hall
North Building
. ", - ,60031699
KS National Guard Armory,18200 W 87th St Pkwy,,,Lenexa,KS,66215 ,"A/B Room or Gymnasium
Main Front Entrance. ", - ,60031701
Scandia Comm. Center,Scandia Community Center,406 4th Street,,Scandia,KS,66966 ,,07:00 AM - 07:00 PM,60027099
Vista Baptist Church,901 N Parker St,,,Olathe,KS,66061 ,"Worship Center
North Entrance. ", - ,60025648
Center Bethel Church,1699 18000 Rd,,,Parsons,KS,67357 ,Labette City/Liberty Twp. ,07:00 AM - 07:00 PM,60064443
Elbing City Building,215 N. Main,,,Elbing,KS,67041 ,Peggy is Judge and has key.. ,06:00 AM - 07:00 PM,60027441
Seward County Activity Center,8th and Stadium,,,Liberal,KS,67901 ,, - ,60064458
Lebo American Legion 2,7 East Broadway,,,Lebo,KS,,,07:00 AM - 07:00 PM,60027696
Agra Community Center,,,,,,,,07:00 AM - 07:00 PM,60011169
Logan City Office,,,,,,,,07:00 AM - 07:00 PM,60011170
"Almena City-Harrison-04.10,04.11",,,,,KS,,,07:00 AM - 07:00 PM,60065017
Downs Memorial Hall,500 Morgan Avenue,,,Downs,KS,67437 ,,07:00 AM - 07:00 PM,60010244
Codell High School Building,304 4th,,,Codell,KS,67663 ,, - ,60012064
Gaylord Community Center,,,,Gaylord,KS,67638 ,,07:00 AM - 07:00 PM,60013873
Mission Rd Comm Of Christ,7842 Mission Rd,,,Prairie Village,KS,66208 ,"Fellowship Hall
West Entrance. ", - ,60031708
Msvle American Legion Post #163 Ward 1 &amp; 2,310 Veterans Memorial Drive N.,,,Marysville,KS,66508 ,,07:00 AM - 07:00 PM,60064796
Simpson Senior Citizens Cente,Simpson,,,,,,, - ,6009354
Augusta First Baptist,1501 State,,,Augusta,KS,67010 ,ramp door on west side of church for delivery. ,06:00 AM - 07:00 PM,60027525
Peck Community Bldg,706 E 119th St.,,,Peck,KS,67120 ,,07:00 AM - 07:00 PM,60014188
Haverhill Christian,10275 SW Haverhill Rd,,,Augusta,KS,67010 ,Ron &amp; Karen Agee are working the election again we can arrange to provide them a key. ,06:00 AM - 07:00 PM,60027508
Dwest South Gym-De,(Denton Precinct),642 E Hwy 20,,Denton,KS,66017 ,,07:00 AM - 07:00 PM,6002710
Highland Community Center,(Highland Precinct),407 West Ave,,Highland,KS,66035 ,,07:00 AM - 07:00 PM,6002733
Golden Age Club Buildi,(White Cloud Precinct),100 Main Street,,White Cloud,KS,66094 ,,07:00 AM - 07:00 PM,6002727
Rozel Community Center,"105 Main,  Rozel, KS 67574",,,,,,,07:00 AM - 07:00 PM,60010851
Junction City Municipal Building,7th &amp; Jefferson,,,,,,,07:00 AM - 07:00 PM,6004523
Belpre Community Bldg,502 Dudley St,,,Belpre,KS,67519 ,,07:00 AM - 07:00 PM,60064245
Fulton Community Bldg,408 W Osage St,,,Fulton,KS,66738 ,, - ,600615
Mapleton Community Bldg,"Mapleton, Ks 66754",,,,,,, - ,600627
First United Methodist Church,"202 S.  Lincoln, Chanute",,,Chanute,KS,,,07:00 AM - 07:00 PM,60029499
Sacred Heart Hall,102 S. Cherokee St. ,,,Frontenac,KS,66763 ,,07:00 AM - 07:00 PM,60064992
Bison Community Center - B City - Ls Twp,202 Main Street,,,Bison,KS,67520 ,, - ,60012363
Cherokee Twp Hall (formally Clymore School),5174 CR 2400,,,Coffeyville,KS,67337 ,,07:00 AM - 07:00 PM,60028907
Wayside Christian Church,106 W. Main,,,Wayside,KS,67366 ,,07:00 AM - 07:00 PM,60028922
Parker Township Hall Cedar Bluff School,2294 CR 4550,,,Coffeyville,KS,67337 ,,07:00 AM - 07:00 PM,60028932
Wm Carpenter Building 3,608 Fairground Rd,,,Scott City,KS,67871 ,,07:00 AM - 07:00 PM,60064305
Roseland City Hall,Ross Tshp/Roseland,105 W Roseland Blvd,,Scammon,KS,66773 ,,07:00 AM - 07:00 PM,60031326
Highland Community Center-Le,(Leona Precinct),407 West Ave,,Highland,KS,66035 ,,07:00 AM - 07:00 PM,60064430
Lane County 4-h Building Dighton Twp,,,,,,,,07:00 AM - 07:00 AM,6006933
Senior Center,907 N 10th St.,,,Garden City,KS,67846 ,,07:00 AM - 07:00 PM,60029800
Umc Fellowship Hall,201 N Minnesota Ave,,,Tescott,KS,67484 ,,07:00 AM - 07:00 PM,60064334
Culver United Methodist Church,401 Main St,,,Culver,KS,67484 ,,07:00 AM - 07:00 PM,60064339
Courthouse Lobby-Highland 3-09.01/09.02,,,,,KS,,,07:00 AM - 07:00 PM,60065021
American Legion-Solomon 1-10.3/10.7,,,,,KS,,,07:00 AM - 07:00 PM,60065024
Bucklin Library,120 S. Main,,,Bucklin,KS,67834 ,,07:00 AM - 07:00 PM,60064509
Kelley Hall Ward 2,,,,,KS,,,07:00 AM - 07:00 PM,60065303
Jo Co Sunset Office Bldg,11811 S Sunset Dr,,,Olathe,KS,66061 ,Room 1070/1075. , - ,60065407
Lane County 4-H Building (Dighton City 2),,,,,KS,,,07:00 AM - 07:00 PM,60065338
Indian Creek Community Ch,12480 S Blackbob Rd,,,Olathe,KS,66062 ,"Lobby Atrium
Main Entrance
Disabled Entrance. ", - ,60065409
First Methodist Church-VC,"560 N Park Ave, Valley Center",,,Valley Center,KS,67147 ,SE corner of Park and 5th St. Park in E lot and use entry with awning. ,06:00 AM - 07:00 PM,60065414
Christ Comm Ch Olathe,20600 W. 119th St.,,,Olathe,KS,66061 ,Lower Level Activity Area. , - ,60065478
Haysville Activity Center,"7106 S Broadway, Haysville",,,Haysville,KS,67060 ,E side of Broadway N of Grand Ave (71st St S). ,06:00 AM - 07:00 PM,60064942
Schuyler Museum Annex (South),218 W. Fremont,,,Burlingame,KS,66413 ,,07:00 AM - 07:00 PM,60065623
Memorial Hall Banner,,,,,KS,,, - ,60066249
Grace Fellowship Church-Pct 6,,,,,KS,,,07:00 AM - 07:00 PM,60066139
Grace Fellowship Church-Pct 4,2455 Woodland,,,Coffeyville,KS,67337 ,,07:00 AM - 07:00 PM,60066107
08 Trinity Lutheran Church,1245 New Hampshire St,,,Lawrence,KS,66044 ,,07:00 AM - 07:00 PM,60066113
Harper Senior Center (TWP 6 West),Harper Senior Center (TWP 6 West),,,Harper,KS,67058 ,, - ,60066121
Christian Church 5,402 W. 6th,,,Concordia,KS,66901 ,North and east side,07:00 AM - 07:00 PM,60066037
El Dorado Civic Center,201 E. Central,,,El Dorado,KS,67042 ,"Key must be rented out before given entrance
. ",06:00 AM - 07:00 PM,60065997
"Municipal Hall ( Waldron, Twp 2)",130 E Main,,,Anthony,KS,67003 ,, - ,60066058
Municipal Hall ( Twp 3 East),130 E Main,,,Anthony,KS,67003 ,, - ,60066060
Kingdom Life Church,505 S. Ridge Rd,,,Hesston,KS,67062 ,,07:00 AM - 07:00 PM,60066062
Moscow Methodist Fellowship Hall 01,Moscow Methodist Fellowship Hall 01,,,,KS,,, - ,60066248
Blue Valley Academy,7500 W. 149th Terr,,,Overland Park,KS,66223 ,, - ,60066843
Bible Temple Baptist Church,2804 Hiawatha,,,Kansas City,KS,,, - ,60066876
2 Fairgrounds - Pct. 5,Meadowlark Building,2000 N. Poplar,,Hutchinson,KS,67502 ,, - ,60066913
10 Fairgrounds - Pct. 15,Meadowlark Building,2000 N. Poplar,,Hutchinson,KS,67502 ,, - ,60066921
13 Fairgrounds - Pct. 18,Meadowlark Building,2000 N. Poplar,,Hutchinson,KS,67502 ,, - ,60066924
19 Fairgrounds - Pct. 30,Meadowlark Building,2000 N. Poplar,,Hutchinson,KS,67502 ,, - ,60066930
George J. Perry Armory,110 S 5th St,,,St Marys,KS,66536 ,,07:00 AM - 07:00 PM,60066789
Greeley Co Courthouse,Greeley Co Courthouse,616 2nd Street,,Tribune,KS,67879 ,, - ,60066380
Meneilly Center for Mission,9900 Mission Rd,,,Overland Park,KS,66207 ,"Formerly known as Village Presbyterian Outreach Center
Assembly Hall
East Entrance. ", - ,60066565
73 Martin Park,,,,,KS,,,07:00 AM - 07:00 PM,60066788
Goessel City Building,101 S Cedar,,,Goessel,KS,67053 ,,07:00 AM - 07:00 PM,60066888
Community Building,810 S. Broadway St,,,Herington,KS,67449 ,, - ,60066693
First Christian Church - Sedgwick,514 N Franklin,,,Sedgwick,KS,67135 ,,06:00 AM - 07:00 PM,60066967
27 Centennial Adult Education,2145 Louisiana St.,,,Lawrence,KS,66046 ,,07:00 AM - 07:00 PM,60066833
03 Carnegie Building,200 W 9th St,,,Lawrence,KS,66044 ,,07:00 AM - 07:00 PM,60066837
Fire District #1 Fire Station,2509 Hwy 73,,,Atchison,KS,66002 ,,07:00 AM - 07:00 PM,60066453
Westbrooke Church Of OP,9777 Antioch Rd,,,Overland Park,KS,66212 ,"North side of building.
West single door is main entrance.
East double doors is disabled entrance ONLY.. ", - ,60066384
Natoma Community Center,709 N Second St,,,Natoma,KS,67651 ,,07:00 AM - 07:00 PM,60066712
20 Lawrence Bible Chapel,505 Monterey Way,,,Lawrence,KS,66049 ,,07:00 AM - 07:00 PM,60066974
Bartlett Methodist Church,Main,,,Bartlett,KS,67332 ,,07:00 AM - 07:00 PM,60067174
UUFT Church 11/05,4775 SW 21st Street,,West Door,Topeka,KS,66604 ,, - ,60067145
Maize City Building,10100 W Grady Ave,,,Maize,KS,67101 ,On the corner of Reed Ave and Grady Ave. ,06:00 AM - 07:00 PM,60067084
Church of Jesus Christ of LDS,2313 Graphic Arts Road,,,Emporia,KS,66801 ,,07:00 AM - 07:00 PM,60067066
United Methodist Church Rm 1,,,,,KS,,, - ,60067185
Haddam City Hall,610 Main St.,,,Haddam,KS,66944 ,,07:00 AM - 07:00 PM,60067109
Marion Community Center Bllrm,203 N. Third,,,Marion,KS,66861 ,,07:00 AM - 07:00 PM,60067076
Cornerstone Church - Ward 3 Pct 1,,,,,KS,,,07:00 AM - 07:00 PM,60067199
Senior Citizen - Cofv Building - Pct 1,,,,,KS,,,07:00 AM - 07:00 PM,60067210
Wea Catholic School,22705 Metcalf,Photo ID required when voting,,Bucyrus,KS,,,07:00 AM - 07:00 PM,60018680
601 Main St Mtg Room,601 Main St-Northwest Door,,,Hays      ,KS,,,07:00 AM - 07:00 PM,60017764
VFW (Victoria),204 E Main St,,,Victoria,KS,67671 ,,07:00 AM - 07:00 PM,60017782
HCC Western Center Commons - Marion,313 Nemaha,,,Baileyville,KS,66404 ,,07:00 AM - 07:00 PM,60064861
Bern Comm Bldg - Gilman,416 Main,,,Bern,KS,66408 ,,07:00 AM - 07:00 PM,60064862
Goff Comm Center - Harrison-Kelly,1723 State Highway 9,,,Goff,KS,66428 ,,07:00 AM - 07:00 PM,60064872
Stanton County 4-H Building,702 S. Knox ,,,Johnson,KS,67855 ,,07:00 AM - 07:00 PM,60018362
17/18/19 4H Building,900 Greeley Ave,,,Salina,KS,67401 ,Light Blue metal building.  Use the SE parking lot and East Entrance. ,07:00 AM - 07:00 PM,60017468
Northside Church Christ,4545 N Meridian Ave.,,,Wichita,KS,67204 ,West side of Meridian Ave just south of The Moorings.. ,06:00 AM - 07:00 PM,60016974
Olivet Baptist Church,"3440 W 13th St N, Wichita",,,Wichita,KS,67203 ,"NE corner of 13th St N and High, just W of Sheridan. ",06:00 AM - 07:00 PM,60016978
UMC Education Building- Burdett City,"502 Elm, Burdett, KS  67523",,,Burdett,KS,67523 ,,07:00 AM - 07:00 PM,60065030
Memorial Hall 2nd Pct 1st Ward,Penn &amp; Locust (North Door),,,Independence,KS,67301 ,,07:00 AM - 07:00 PM,60065285
Unitarian Universalist Fellowship,481 Zeandale Rd,,,Manhattan,KS,66502 ,,07:00 AM - 07:00 PM,60017199
Alert Covenant Church,15820 Green-Randolph Rd,,,Leonardville,KS,66449 ,,07:00 AM - 07:00 PM,60017162
05 First Presbyterian Ch,308 S 8th - South Entrance,,,Salina,KS,67401 ,Enter on South Doors - Classroom on the left. ,07:00 AM - 07:00 PM,60017473
06/11 Friendship Center,746 Commanche Avenue,,,Salina,KS,67401 ,"On Commanche Avenue - Use ramp at lower level - South side

Key for R&amp;B and SJ. ",07:00 AM - 07:00 PM,60017474
SO Kipp Community Bldg,261 N Hugh Street,,,Kipp,KS,67401 ,Enter East Door. ,07:00 AM - 07:00 PM,60017480
FA/WS(400) Luth Parish Hl,317 E 3rd Street,,,Falun,KS,67442 ,South Door of Parish Hall. ,07:00 AM - 07:00 PM,60017481
33 Ray Avenue Baptist Ch,2801 Ray Avenue,,,Salina,KS,67401 ,"South Doors

Key for SJ. ",07:00 AM - 07:00 PM,60017489
09 Smoky Hl Learning Ctr,830 S 9th Street,,,Salina,KS,67401 ,Enter at South Door- 1st Classroom on the right. ,07:00 AM - 07:00 PM,60017493
03/04 St Johns Msn Bapt Ch,215 S Chicago St,,,Salina,KS,67401 ,West doors - Voting in foyer. ,07:00 AM - 07:00 PM,60017497
08 Trinity Lutheran Ch Hl,9th St &amp; Crawford Street,,,Salina,KS,67401 ,"South Doors off the parking lot

Keys for R&amp;B and SJ. ",07:00 AM - 07:00 PM,60017500
07 VFW Building,1108 W Crawford Street,,,Salina,KS,67401 ,East Doors off the parking lot. ,07:00 AM - 07:00 PM,60017504
University Christian Church,2800 Claflin Rd,,,Manhattan,KS,66502 ,,07:00 AM - 07:00 PM,60017194
Sunset Hills Christian Church,6347 Leavenworth Rd,,,Kansas City,KS,66104 ,, - ,60018121
Albert City Building,2006 Main Street,,,Albert,KS,67511 ,,07:00 AM - 07:00 PM,60019570
Trinity Lutheran Church,2701 24th Street,Jefferson Street Entrance - South Side,,Great Bend,KS,67530 ,,07:00 AM - 07:00 PM,60019579
First Congregational United Church of Christ,3400 21st Street,,,Great Bend,KS,67530 ,,07:00 AM - 07:00 PM,60019583
Church of Christ - Twp #8,320 Country Club Rd,,,Pratt,KS,67124 ,,07:00 AM - 07:00 PM,60065261
Church of Christ - Twp #11,320 Country Club Rd,,,Pratt,KS,67124 ,,07:00 AM - 07:00 PM,60065264
Jamestown Activity Center,311C  Walnut,,,Jamestown,KS,,,07:00 AM - 07:00 PM,60019269
Knights Of Columbus Hall,Main St,,,Aurora,KS,,,07:00 AM - 07:00 PM,60019270
Logan 4-H Bldg,"17002 US Hwy 50, Cimarron",,,Cimarron,KS,67835 ,,07:00 AM - 07:00 PM,60064840
Bethel Baptist Church  34,4011 N Kansas Ave,,Front Door,Topeka,KS,66617 ,FRONT DOOR. , - ,60065034
"Community Christian Church - Twp 1, Pct 1",18 McCardell St,,,Council Grove,KS,66846 ,, - ,60065112
Delavan Community Bldg - Twp 7,,,,,KS,,, - ,60065115
Greenbush,947 W. 47 Hwy,P.O. Box 189,,Girard,KS,66743 ,,07:00 AM - 07:00 PM,60019905
American Legion  5/08,3800 SE Michigan Ave,,Front Door,Topeka,KS,66609 ,FRONT DOOR. , - ,60021077
Auburn Presbyterian Church  73,1151 Washington,,"Manse Hall, South Door",Auburn,KS,66402 ,"MANSE HALL, SOUTH DOOR. ", - ,60021082
American Legion Ward 3.2,,,,,KS,,,07:00 AM - 07:00 PM,60064886
Air Terminal Bldg 53,740 SE Airport Dr,,Front Door,Topeka,KS,66619 ,FRONT DOOR. , - ,60021073
Community of Christ  11/01,5252 SW 19th St,,Front South Door,Topeka,KS,66604 ,FRONT SOUTH DOOR. , - ,60021107
Silver Lake United Methodist  09,204 Madore St,,Front Door,Silver Lake,KS,66539 ,FRONT DOOR. , - ,60021257
South Village Mobile Home Park  6/09,4637 SE Village Pkwy,,Front Door Clubhouse,Topeka,KS,66609 ,FRONT DOOR CLUBHOUSE. , - ,60021263
Cypress Ridge Golf Course  12/15,2533 SW Urish Rd,,North Main Door,Topeka,KS,66614 ,NORTH MAIN DOOR. , - ,60021289
Delavan Community Bldg - Twp 8,,,,,KS,,, - ,60065116
Delavan Community Bldg - Twp 9,,,,,KS,,, - ,60065117
Shelterhouse #3 Shawnee Lake  15/01,3916 SE Memory Point,,Front Door,Topeka,KS,66605 ,FRONT DOOR. , - ,60021269
22 Free Methodist Church,3001 Lawrence Ave,,,Lawrence,KS,66047 ,"Park to Vote signs
Need Temporary Disabled Parking sign
  May just need an upright sign 

Need sign directing Parking to the west lot.",07:00 AM - 07:00 PM,60020500
58 Big Springs United Methodist,96 Hwy 40,,,Lecompton,KS,66050 ,,07:00 AM - 07:00 PM,60020478
Abbyville Community Center,19605 W. Trail West Rd,,,Abbyville,KS,67510 ,, - ,60011833
Turon Community Center,"c/o  City Office, ",Box 366,,Turon,KS,67583 ,Dining Room. , - ,60011829
Haven Senior Citizens Center,106 Kansas Ave.,,,Haven,KS,67543 ,, - ,60011798
Partridge Public Library,"23 South Main St,",,,Partridge,KS,67566 ,Public Library in the childrens section.. , - ,60011812
"Community Building, Bushton",,,,,,,,07:00 AM - 07:00 PM,60023183
Bunker Hill Fire Dept,,,,,KS,,, - ,60022877
Luray Community Center,,,,,KS,,, - ,60022881
55 4-H Building,,,,,KS,,, - ,60022892
Wilson Senior Center.,511 25th Street,,,Wilson,KS,67490 ,,07:00 AM - 07:00 PM,6003641
North Newton City Building,2601 N Main,,,North Newton,KS,67117 ,,07:00 AM - 07:00 PM,6005436
Christian Church (Sedgwick),6th &amp; Franklin,,,Sedgwick,KS,67135 ,,07:00 AM - 07:00 PM,6005451
Meadows Elementary School  3/02,201 SW Clay St,,Main Door,Topeka,KS,66606 ,MAIN DOOR. , - ,60021310
Norcatur City Hall,107 N Decatur Ave ,,,Norcatur,KS,67653 ,,07:00 AM - 05:00 PM,6002128
Almena City,,,,,,,,07:00 AM - 07:00 PM,60021674
15 Immanuel Lutheran Church,2104 W 15th St,,,Lawrence,KS,66049 ,"Park to Vote Signs

Park on East side of building

Need Temporary Disabled Parking Sign and orange cones",07:00 AM - 07:00 PM,60020506
59 Marion Twp Hall,501 E 300 Rd,,,Overbrook,KS,66524 ,,07:00 AM - 07:00 PM,60020514
46 SW Middle School,2511 Inverness Dr,,,Lawrence,KS,66047 ,"Park to Vote Signs
Need Temporary Disabled Parking Signs and Orange cones
deliver sign and cones-custodian will place
",07:00 AM - 07:00 PM,60020523
30 Schwegler Elementary,2201 Ousdahl Rd,,,Lawrence,KS,66046 ,"Park to Vote Signs
Need Temporary Disabled Parking sign and Orange cones
deliver sign and cones - custodian will place",07:00 AM - 07:00 PM,60020524
31 Southside Church of Christ,1105 W 25th St,,,Lawrence,KS,66046 ,"Park to Vote Signs
Need Temporary Disabled Parking Signs and Orange cones",07:00 AM - 07:00 PM,60020527
Basehor-Linwood Middle School,15900 Conley Rd,,,Bonner Springs,KS,66012 ,, - ,6007269
Mclouth Fire Station,104 Lucy St,,,Mclouth,KS,66054 ,,07:00 AM - 07:00 PM,6006043
Scranton Comm Bldg,,,,,,,,07:00 AM - 07:00 PM,6009965
Highland Heights Christian Church  44,2930 SE Tecumseh Rd,,Front Door,Tecumseh,KS,66542 ,FRONT DOOR. , - ,60064160
Topeka Bible Church  8/01,1101 SW Mulvane Ave,,Front Door,Topeka,KS,66604 ,FRONT DOOR. , - ,60064162
Washburn Rural High School  87,5900 SW 61st St,,NW Door to Media Room,Topeka,KS,66610 ,NW DOOR TO MEDIA ROOM. , - ,60064168
Sacred Heart Church  2/05,312 NE Freeman,,East Door on Rowley Ln,Topeka,KS,66616 ,EAST DOOR ON ROWLEY LN. , - ,60064145
Civic Center W2,201 NW 2nd St,,,Abilene,KS,67410 ,, - ,6002410
Canton Community Center,100 W. McPherson,,,Canton,KS,67428 ,, - ,6008765
Civic Connection,130 N Main,,,Minneola,KS,67865 ,,07:00 AM - 07:00 PM,60024081
Faith United Church,200 West St,,,Clifton,KS,66937 ,,07:00 AM - 07:00 PM,60015368
Summerfield Community Ctr,211 Main ,,,Summerfield,KS,66541 ,,07:00 AM - 07:00 PM,6008461
Muscotah City Hall,604 Kansas,,,Muscotah,KS,66058 ,,07:00 AM - 07:00 PM,600318
Effingham Municipal Buliding..,407 Main,,,Effingham,KS,66023 ,,07:00 AM - 07:00 PM,600316
First Southern Baptist Ch,8600 W 91st Ter,,,Overland Park,KS,66212 ,Fellowship Hall. , - ,60025852
Bishop Miege North Campus,4901 Reinhardt St,,,Roeland Park,KS,66205 ,"North Campus Two Blocks North of the Main Bishop Miege Campus
Multi Purpose Room Main Front Entrance. ", - ,60025873
Crossroads Church RCA,10551 Quivira Rd,,,Overland Park,KS,66215 ,"Lobby Area
Main Front Entrance. ", - ,60031721
Christ Comm Ch Nazarene,21385 College Blvd,,,Olathe,KS,66061 ,"Meeting Room 120
Main Front Entrance. ", - ,60031608
Gardner Library,137 E Shawnee St,,,Gardner,KS,66030 ,Meeting Room on Main Level Off Parking Lot. , - ,60025756
Cure Of Ars Church,9401 Mission Rd,,,Leawood,KS,66206 ,"Father Burak Hall
East Entrance. ", - ,60031686
Burden City Bldg,401 N Main,,,Burden,KS,67019 ,, - ,6001861
Sacred Heart Parish Tong.,1100 West St,,,Tonganoxie,KS,66086 ,, - ,60064982
Kellogg Twp Hall,3391 152nd Rd,,,Winfield,KS,67156 ,, - ,6001871
Eureka Activity Center,815 N. Jefferson St,,,Eureka,,67045 ,,07:00 AM - 07:00 PM,6005141
Hamilton Senior Center,Hamilton,,,,,,,07:00 AM - 07:00 PM,6005131
Colby Community Building,285 E. 5th St.,,,Colby,KS,67701 ,, - ,60064225
Antioch Church,5201 Antioch Rd,,,Overland Park,KS,66203 ,"Lobby Foyer
Main Entrance. ", - ,60025747
Faith Lutheran Church,4805 W 67th St,,,Prairie Village,KS,66208 ,"Narthex.
Upper West parking lot.
67th Street entrance.. ", - ,60025651
Rural Water District No 7,534 W Main St,,,Gardner,KS,66030 ,"Conference Room 
Main Entrance Vestibule
. ", - ,60025683
West Lenexa SDA Church,24450 W 83rd St,,,Lenexa,KS,66227 ,"Fellowship Hall
Front Entrance. ", - ,60025781
Church Of The Harvest,14841 S Black Bob Rd,,,Olathe,KS,66062 ,"Kingdom Kids Room
Northwest Entrance. ", - ,60031612
OP Fire Dept Training Ctr,12401 Hemlock St,,,Overland Park,KS,66213 ,"Classroom # 202
Main Front Entrance. ", - ,60025703
OP Church Of The Nazarene,9030 Lamar Ave,,,Overland Park,KS,66207 ,"Activity Center 
. ", - ,60025729
Shawnee Civic Centre,13817 Johnson Dr,,,Shawnee,KS,66203 ,"Little Theater
Front Entrance. ", - ,60025738
1st Baptist Church,400 Wabash,,,Altamont,KS,67330 ,Mount Pleasant Twp. ,07:00 AM - 07:00 PM,60064446
Heritage Methodist Church,12850 Quivira Rd,,,Overland Park,KS,66213 ,"Fellowship Hall
. ", - ,60025653
Douglass Community Bldg,206 S. Forrest,,,Douglass,KS,67039 ,Election Office has key as well as Phil Anderson.. ,06:00 AM - 07:00 PM,60027466
Zurich City Building,,,,Zurich,KS,67663 ,, - ,60012075
Roger &amp; Sandy Hoffman's Residence,,,,,,,,07:00 AM - 07:00 AM,6001509
Lebanon Community Center,,,,Lebanon,KS,66952 ,,07:00 AM - 07:00 PM,60013891
Hunter Community Building,Hunter,,,,,,, - ,6009361
Kingman County Courthouse,130 North Spruce St,,,Kingman,KS,67068 ,Is available on the South Side of the Courthouse.,07:00 AM - 07:00 PM,60025893
Beloit Municipal Building - Township 1,119 N Hersey,,,Beloit,KS,67420 ,"Basement
. ", - ,6009346
Andover United Methodist,1429 N. Andover Rd,,,Andover,KS,67002 ," Please come to office first------Can pick key up prior to date needed
Delivery doors on west side.. ",06:00 AM - 07:00 PM,60027523
Argonia City Bldg,210 S Main,,,Argonia,KS,67004 ,,07:00 AM - 07:00 PM,60014189
Belle Plaine High School 1,820 N Merchant,,,Belle Plaine,KS,67013 ,,07:00 AM - 07:00 PM,60014192
Oxford Lions Club Bldg,116 N Sumner,,,Oxford,KS,67119 ,,07:00 AM - 07:00 PM,60014198
Nall Ave Church Nazarene,6301 Nall Ave,,,Prairie Village,KS,66202 ,"Room 101 Small Fellowship Hall
Lower Level East Entrance. ", - ,60025758
Community Covenant Church,15700 W. 87th St. Pkwy,,,Lenexa,KS,66219 ,Narthex. , - ,60025784
Grace Covenant Presb Ch,11100 College Blvd,,,Overland Park,KS,66210 ,"Northex Lobby Area
Main Front Entrance. ", - ,60031692
Kinsley-Offerle Elementary School,325 S. Elm,,,Offerle,KS,67563 ,,07:00 AM - 07:00 PM,6003029
Hamilton County Courthouse,219 N. Main,,,Syracuse,KS,67878 ,, - ,60028596
Fair Building,1305 Niles Ave,,,Kinsley,KS,67547 ,,07:00 AM - 07:00 PM,60064248
Sabetha City Hall - Sabetha City Ward 4,805 Main,,,Sabetha,KS,66534 ,,07:00 AM - 07:00 PM,60064297
Baptist Church,"7th &amp; Osage, Humboldt KS",,,Humboldt,KS,,,07:00 AM - 07:00 PM,60029198
Gas City Hall,"230 N Taylor, Gas KS",,,Gas,KS,,,07:00 AM - 07:00 PM,60029201
Shawnee Co Fire Dist #4  82,315 SW Valencia Rd,,Front Door,Topeka,KS,66615 ,FRONT DOOR. , - ,60065043
Western Plains High School,100  School St,"Ransom, KS 67572",,Ransom,KS,67572 ,,07:00 AM - 07:00 PM,60030713
Courthouse Basement,202 W. Sycamore,"Ness City, KS 67560",,Ness City,KS,67560 ,,07:00 AM - 07:00 PM,60030703
Homestead of Auburn  72,280 E Valley Springs Dr,,Front Door,Auburn,KS,66402 ,FRONT DOOR. , - ,60064936
Blue Mound Sr. Center,214 W Main,PO Box 04,,Blue Mound,KS,66010 ,,07:00 AM - 07:00 PM,60064326
Farlinville Comm. Bldg.,14027 KS Hwy 7,,,Mound City,KS,66056 ,, - ,60064329
Havana City Hall,404 Mary Street,,,Havana,KS,67347 ,,07:00 AM - 07:00 PM,60028900
Sycamore Township Hall,101 N Brick Ave,,,Sycamore,KS,67363 ,,07:00 AM - 07:00 PM,60028909
Wm Carpenter Building 4,608 Fairground Rd,,,Scott City,KS,67871 ,,07:00 AM - 07:00 PM,60064306
County Extension Office,124 W Country Rd,,,Columbus,KS,66725 ,,07:00 AM - 07:00 PM,60031310
Gove,Gove County Office Building,,520 Washington St,Gove,KS,67736 ,, - ,60031004
Healy United Methodist Church,,,,,,,,07:00 AM - 07:00 PM,6006928
Wm Carpenter Building 1,608 Fairground Rd,,,Scott City,KS,67871 ,,07:00 AM - 07:00 PM,60012653
Holcomb Recreation Center,106 Wiley Ave,,,Holcomb,KS,67851 ,,07:00 AM - 07:00 PM,60029806
Oakley City 1st Precinct #274,Logan County EMS Building #1,703 W. 3rd,,Oakley,KS,67748 ,,07:00 AM - 07:00 PM,6007828
Winona City #275,Winona Fire Station,308 Bellview,,Winona,KS,67764 ,,07:00 AM - 07:00 PM,6007830
Ward Two,Emergency Services Building,1006 Center Avenue,,Goodland,KS,67735 ,, - ,60064755
Topeka Baptist Church  14/02,4500 SW Gage Blvd,,Front Door,Topeka,KS,66610 ,FRONT DOOR. , - ,60064911
United Methodist Church,130 N 1st St,,,Clearwater,KS,67026 ,NE corner of 1st St and Ross (103rd St S). ,06:00 AM - 07:00 PM,60064533
St Anthony's Parish Hall,"635 N Main, Garden Plain",,,Garden Plain,KS,67050 ,W side of Main between B St and Abel. ,06:00 AM - 07:00 PM,60064537
Sdg Co Zoo Cargill Ctr,"5555 Zoo Blvd, Wichita",,,Wichita,KS,67212 ,Corner of Zoo Blvd and Windmill Rd. ,06:00 AM - 07:00 PM,60064540
Memorial Hall - Center 2,,,,,KS,,, - ,60065391
Memorial Hall - Center 4,,,,,KS,,, - ,60065393
Lane County 4-H Building (Dighton City 1 &amp; 3),,,,,KS,,,07:00 AM - 07:00 PM,60065339
10 Burge Union,1601 Irving Hill Rd,,,Lawrence,KS,66044 ,,07:00 AM - 07:00 PM,60065420
Western Plains Elem South,310 W. Burgess,"Bazine, KS 67516",,Bazine,KS,67516 ,,07:00 AM - 07:00 PM,60065503
Big Creek Methodist Chapel,"22965 Lyon Rd, Chanute",,,Chanute,KS,,,07:00 AM - 07:00 PM,60065768
151st St Church Of Christ,13875 W 151st St,,,Olathe,KS,,"Fellowship Hall
Entrance on South side of building. ", - ,60065931
Bank Blue Valley Leawood,13401 Mission Rd,,,Leawood,KS,,"Enter through single door to the right of Main Lobby doors.
Take elevator to second floor.. ", - ,60065933
Matt Ross Community Ctr,8101 Marty,,,Overland Park,KS,,Crown Room . , - ,60065939
Kechi City Building,"220 W Kechi Rd, Kechi",,,Kechi,KS,67067 ,NW corner of Kechi Rd (61st St N) and Sioux - 1 block west of Oliver. ,06:00 AM - 07:00 PM,60016950
12/13/14 Church of the Cross,Pastor ,1600 Rush St.,,Salina,KS,67401 ,East Door - Rooms A5 &amp; A6. ,07:00 AM - 07:00 PM,60017464
Heritage Tours Meeting Room,9809 S. Main St.,Po Box 77,,Yoder,KS,67585 ,Behind Heritage Tours. , - ,60065701
Columbian Hall 1,,,,,KS,,, - ,60065598
Memorial Hall Voorhees,,,,,KS,,, - ,60066250
St Aloysius Church - WFV,615 E Wyandotte St,,,Meriden,KS,66512 ,"From K4 turn east on Wyandotte St, travel approximately 1/2 mile, church is on the south side of Wyandotte.. ",07:00 AM - 07:00 PM,60066102
Lutheran Church Wano II,,,,,KS,,, - ,60066231
Zenda Community Center,,,,,KS,,,07:00 AM - 07:00 PM,60066214
Lutheran Church Benkelman,,,,,KS,,, - ,60066183
3 Fairgrounds - Pct. 6,Meadowlark Building,2000 N. Poplar,,Hutchinson,KS,67502 ,, - ,60066914
16 Fairgrounds - Pct. 24,Meadowlark Building,2000 N. Poplar,,Hutchinson,KS,67502 ,, - ,60066927
Emporia Public Library,110 E. 6th Avenue,,,Emporia,KS,66801 ,,07:00 AM - 07:00 PM,60066261
First Lutheran Church,930 Poyntz Ave,,,Manhattan,KS,66502 ,,07:00 AM - 07:00 PM,60066783
Mill Creek Comm Ch Admin Office,8151 McCoy,,,Shawnee,KS,66227 ,, - ,60066683
McCracken Community Building - A City - Ab Twp,400 West 1st,,,McCracken,KS,67556 ,, - ,60066540
Memorial Hall - Drum Ck - USD 446,Penn &amp; Locust (North Door),,,Independence,KS,67301 ,,07:00 AM - 07:00 PM,60066723
Logan Twp,Emergency Services Building,1006 Center Avenue,,Goodland,KS,67735 ,, - ,60066763
Washington Twp,Emergency Services Building,1006 Center Avenue,,Goodland,KS,67735 ,, - ,60066770
Mae Lessley Community Center,22 Maple,,,Chetopa,KS,67336 ,,07:00 AM - 07:00 PM,60066732
Udall Community Building,102 E 1st,,,Udall,KS,67146 ,, - ,60066432
Columbus Community Bldg,320 E Maple St,,,Columbus,KS,66725 ,,07:00 AM - 07:00 PM,60066398
Providence Community Ch,10113 Lenexa Dr,,,Lenexa,KS,66215 ,"Activity Center
Gymnasium
Rear of parking lot. ", - ,60066386
Municipal Center,400 E. Kansas Ave,,,McPherson,KS,67460 ,, - ,60066502
Admire Community Center,Admire Community Center,100 E. 3rd Street,,Admire,KS,66830 ,,07:00 AM - 07:00 PM,60067234
Burr Oak Community Center,,,,Burr Oak,KS,66936 ,,07:00 AM - 07:00 PM,60067229
Wamego E M S Training Building (b),406 Miller Dr.  Wamego KS,,,Wamego,KS,66547 ,, - ,60067224
United Methodist Church Rm 3,,,,,KS,,, - ,60067187
Barnes School Gym,217 N. Main St.,,,Barnes,KS,66933 ,,07:00 AM - 07:00 PM,60067110
Cornerstone Church - Ward 2 Pct 1,900 S. Ridgeway,,,,KS,,,07:00 AM - 07:00 PM,60067198
Senior Citizen - Cofv Building - Pct 3,,,,,KS,,,07:00 AM - 07:00 PM,60067211
Glenn Park Christian,"2757 S Glenn, Wichita",,,Wichita,KS,67217 ,N side of 27th St S W of Glenn. ,06:00 AM - 07:00 PM,60016931
Bern Comm Bldg - Nemaha,416 Main,,,Bern,KS,66408 ,,07:00 AM - 07:00 PM,60064863
Usd 251 Meeting Room,616 Main Street,,,Americus,KS,,,07:00 AM - 07:00 PM,60016579
SC/WS(307) Br City Hall,301 N Perry Street,,,Brookville,KS,67425 ,"Brookville City Hall, enter West Door. ",07:00 AM - 07:00 PM,60017461
29 Arbor Court - N Entry,1000 Schippel Drive,,,Salina,KS,67401 ,North Entrance - hallway. ,07:00 AM - 07:00 PM,60017466
EC/SH Ell-Saline Elem Sch,1757 N Halstead Road,,,Salina,KS,67401 ,Enter East Door off parking lot. ,07:00 AM - 07:00 PM,60017467
Sharon Baptist Church,"2221 S Oliver, Wichita",,,Wichita,KS,67218 ,W side of Oliver N of Pawnee. ,06:00 AM - 07:00 PM,60017008
Westlink Church of Christ,"10025 W Central Ave, Wichita",,,Wichita,KS,67212 ,SW corner of Central Ave and Valleyview. ,06:00 AM - 07:00 PM,60017035
Zeandale Comm Center,901 Tabor Valley Rd,,,Manhattan,KS,66502 ,,07:00 AM - 07:00 PM,60017208
Riley Centre,902 W. Walnut St,,,Riley,KS,66531 ,,07:00 AM - 07:00 PM,60017165
First Assembly of God,2310 Candlewood Dr,,,Manhattan,KS,66503 ,,07:00 AM - 07:00 PM,60017168
Manhattan Public Library,629 Poyntz Avenue,,,Manhattan,KS,66502 ,,07:00 AM - 07:00 PM,60017177
24/26 First Baptist Church,843 Lewis Ave,,,Salina,KS,67401 ,"South parking lot and enter farthest West door - Classroom just inside to the left

Ke;y for SJ. ",07:00 AM - 07:00 PM,60017470
23 First Ch of the Nazarene,1425 S Ohio Street,,,Salina,KS,67401 ,Park in East parking lot and enter at East Door. ,07:00 AM - 07:00 PM,60017472
01 Grand Ave Un Meth Ch,304 W Grand Avenue,,,Salina,KS,67401 ,Enter on the East Doors. ,07:00 AM - 07:00 PM,60017476
Trinity Community Church,5010 Parallel Pkwy,,,Kansas City,KS,66104 ,, - ,60018124
New Life SDA Church,18475 W 159 St,,,Olathe,KS,66062 ,"Fellowship Hall
Main Entrance. ", - ,60064908
Beaver Fire Station,588 1st Ave,,,Claflin,KS,67525 ,,07:00 AM - 07:00 PM,60019567
Barton County Community College,Science &amp; Math Building,245 NE 30 Rd,,Great Bend,KS,67530 ,,07:00 AM - 07:00 PM,60019576
Barton County Courthouse - Conference Room,1400 Main Street - Room 101,,,Great Bend,KS,67530 ,,07:00 AM - 07:00 PM,60019578
First Presbyterian Church,Washington &amp; 24th Street,Northwest Entrance,,Great Bend,KS,67530 ,,07:00 AM - 07:00 PM,60019582
Hoisington Activity Center - Meeting Rm 1,1200 Susank Rd,,,Hoisington,KS,67544 ,,07:00 AM - 07:00 PM,60019590
Copeland/GY Amb Bldg,"507 W Cortez St, Montezuma",,,Montezuma,KS,67867 ,,07:00 AM - 07:00 PM,60064835
Foote 4-H Bldg,"17002 US Hwy 50, Cimarron",,,Cimarron,KS,67835 ,,07:00 AM - 07:00 PM,60064838
Hearthstone Retirement Comm 7/04,3515 SW 6th Ave,,Front Door,Topeka,KS,66606 ,FRONT DOOR. , - ,60021155
Arcadia Community Center,103 E. Race St.,,,Arcadia,KS,66711 ,,07:00 AM - 07:00 PM,60019870
Farlington Town Hall,308 N. Neill St.,,,Farlington,KS,66734 ,,07:00 AM - 07:00 PM,60019883
Community Christian Church - Ward 2,,,,,KS,,, - ,60065110
Reynolds' Lodge  42,3315 SE Tinman Cir,,Front North Door,Topeka,KS,66605 ,FRONT NORTH DOOR. , - ,60021277
STFD Station 72  32,8232 NW Topeka Blvd,,Front Door,Topeka,KS,66618 ,FRONT DOOR. , - ,60021262
Dwight Community Bldg - Twp 3,,,,,KS,,, - ,60065118
Salvation Army  2/07,1320 SE 6th Ave,,Front Door,Topeka,KS,66607 ,FRONT DOOR. , - ,60021241
14 First Presbyterian Church,2415 Clinton Pkwy,,,Lawrence,KS,66047 ,Park to Vote Signs,07:00 AM - 07:00 PM,60020499
35 E. Lawrence Rec Center,1245 E 15th St,,,Lawrence,KS,66044 ,Park to Vote signs,07:00 AM - 07:00 PM,60020493
Castleton Township Hall,2104 W. Main St.,,,Hutchinson,KS,67501 ,, - ,60011746
Sterling Evangelical Church,3017 N Sterling Road,,,Sterling,KS,67579 ,Fellowship Hall. , - ,60011796
Wesley Towers,3709 Asbury Place,,,Hutchinson,KS,67502 ,"Chapel/Social Center
Code must be entered to exit and button must be pushed to enter.. ", - ,60011765
South Hutch United Methodist,206 East Avenue E,,,South Hutchinson,KS,67505 ,South Entrance Hallway. , - ,60011821
Lucas Fire Dept,,,,,KS,,, - ,60022880
Paradise Gymnasium,,,,,KS,,, - ,60022882
Wakarusa Presbyterian Church  65,10135 SW Jordan,,South Side Door,Wakarusa,KS,66546 ,SOUTH SIDE DOOR. , - ,60021302
Wanamaker Woods Ch of Nazarene  12/05,3501 SW Wanamaker Rd,,Front Door,Topeka,KS,66614 ,FRONT DOOR. , - ,60021304
First Christian Church  8/10,1880 SW Gage Blvd,,North Door,Topeka,KS,66604 ,NORTH DOOR. , - ,60021315
Lenora Community Building,,,,,,,,07:00 AM - 07:00 PM,60021676
23 Presbyterian Manor,1429 Kasold Dr,,,Lawrence,KS,66049 ,Park to Vote Signs,07:00 AM - 07:00 PM,60020522
Sacred Heart Parish Ctr,1405 2nd Ave,,,Leavenworth,KS,66048 ,, - ,6007264
Wallula Christian Church,23785 139th St,,,Leavenworth,KS,66048 ,, - ,6007267
Admin Bldg Fair Grounds,,,,Tonganoxie,KS,66086 ,Tonganoxie Fair Grounds. , - ,6007275
Kentucky Township Bldg,604 E Front St,,,Perry,KS,66073 ,,07:00 AM - 07:00 PM,6006035
I.o.o.f. Hall Wabaunsee,135 W Oak,,,Harveyville,KS,66431 ,,07:00 AM - 07:00 PM,60014768
Lyndon Comm Bldg,,,,,,,,07:00 AM - 07:00 PM,6009969
Courthouse-Mankato,307 N Commercial,,,Mankato,KS,66956 ,,07:00 AM - 07:00 PM,60064038
Susanna Wesley UMC  91,7433 SW 29th St,,West Side Door,Topeka,KS,66614 ,WEST SIDE DOOR. , - ,60064159
Civic Center W4-1,201 NW 2nd St,,,Abilene,KS,67410 ,, - ,6002412
Enterprise Library Meeting Room,206 S Factory,,,Enterprise,KS,67441 ,, - ,6002438
Bethany Cottages,"402 W. State, Lindsborg",,,Lindsborg,KS,67456 ,, - ,6008735
Roxbury United Parish,"108 W. South, Roxbury",,,Roxbury,KS,67476 ,, - ,6008751
Fowler City Building,508 Main,,,,,,, - ,6009041
Centralia Area Comm Bldg - Centralia-Home,106 John Riggins Ave,,,Centralia,KS,66415 ,,07:00 AM - 07:00 PM,6009661
Sabetha City Hall - Sabetha City Ward 1,805 Main,,,Sabetha,KS,66534 ,,07:00 AM - 07:00 PM,6009662
Nemaha Co Comm Bldg - Adams,1500 Community Drive,,,Seneca,KS,66538 ,,07:00 AM - 07:00 PM,6009659
County Courthouse,214 C St,,,Washington,KS,66968 ,,07:00 AM - 07:00 PM,60015389
Valley Heights High School - Wtvl,2274 6th Rd,,,Blue Rapids,KS,66411 ,,07:00 AM - 07:00 PM,6008468
First Ch Christ Scientist,6401 W 87th St,,,Overland Park,KS,66212 ,"Child Care Area
Main Entrance. ", - ,60031691
Southwoods Christian Ch,16110 Metcalf Ave,,,Overland Park,KS,66283 ,"West End Multi-Purpose Room
North Parking Lot Entrance
Disabled Entrance on Corner of Building.. ", - ,60031643
Olathe City Hall,100 E Santa Fe St,,,Olathe,KS,66061 ,"Community Meeting Rooms on First Floor
Main Entrance off Parking Lot on North Side of Building. ", - ,60031631
Indian Heights Methodist,10211 Nall Ave,,,Overland Park,KS,66207 ,"Narthex
Main Entrance. ", - ,60025793
Hillcrest Covenant Church,8801 Nall Ave,,,Prairie Village,KS,66207 ,"Northwest Foyer
North Entrance. ", - ,60025878
Leawood Methodist Church,2915 W 95th St,,,Leawood,KS,66206 ,"Lower Level Lane Hall
Disabled Entrance on West Side of Building. ", - ,60031667
Jo Co Central Resource Lib,9875 W 87th St,,,Overland Park,KS,66212 ,"CormackMeeting Room 
Left of Reception Desk
Main Front Entrance. ", - ,60031700
St Thomas Episcopal Church,12251 Antioch Rd,,,Overland Park,KS,66213 ,Assembly Room. , - ,60025709
Salvation Army,420 E Santa Fe St,,,Olathe,KS,66061 ,Main Front Entrance Southwest Side of Building. , - ,60025708
Advent Lutheran Church,11800 W 151st St,,,Olathe,KS,66062 ,Front Entrance..Narthex. , - ,60025715
Kiowa Community Building,,,,,KS,,, - ,60064774
Blue Valley West HS,16200 Antioch Rd,,,Stilwell,KS,66085 ,, - ,60025736
Brighton Gardens,7105 Mission Rd,,,Prairie Village,KS,66208 ,"Living Room
Main Front Entrance. ", - ,60025610
Woodson County Ambulance Bldg,114 N. Main,,,Yates Center,KS,66783 ,,07:00 AM - 07:00 PM,60016258
Village Shalom,5500 W 123rd St,,,Overland Park,KS,66209 ,"Social Hall
Main Front Entrance. ", - ,60025607
Heritage Presbyterian Ch,15550 S Lackman Rd,,,Olathe,KS,66062 ,"Northex Lobby
Front Entrance. ", - ,60025701
VFW 7397 Of Lenexa,9550 Pflumm Rd,,,Lenexa,KS,66215 ,"Main Hall
Front Entrance. ", - ,60025779
Knights Of Columbus,11211 Johnson Dr,PO Box 3115,,Shawnee,KS,66203 ,"Main Hall
South Entrance. ", - ,60025689
St Pius X Church,5500 Woodson Rd,,,Mission,KS,66202 ,"Classroom
Entrance on 55th Street. ", - ,60025697
Forum At Overland Park,3501 W 95th St,,,Overland Park,KS,66206 ,"Third Floor Multi-Purpose Room
Main Front Entrance.
Take Elevator to Third Floor. ", - ,60025710
Gardner Church Nazarene,16640 Moonlight,,,Gardner,KS,66030 ,"Rear of Sanctuary
Main Entrance. ", - ,60025768
Grace Fellowship Evan Free,10201 W 127th St,,,Overland Park,KS,66213 ,"Auditorium Rooms 2 &amp; 3
Main Front Entrance. ", - ,60031689
Merriam City Hall,9000 W 62nd Ter,,,Merriam,KS,66202 ,"Community Room Main Level
Front Main Level Entrance or Rear Lower Level Entrance and Take Elevator to Upper Level 
. ", - ,60025593
Munden Comm. Hall,Munden Community Hall,202 S Main Street,,Munden,KS,66959 ,,07:00 AM - 07:00 PM,60027095
Walnut Township Hall,16231 SW Hunter,,,Augusta,KS,67010 ,"Election Office has key as well as Twp Clerk.
. ",06:00 AM - 07:00 PM,60027428
First Christian Church,204 N Chautauqua,,,Sedan,KS,67361 ,, - ,6001223
Blue Valley Rec Center,6545 W 151st St,,,Overland Park,KS,66223 ,"Classrooms 1 &amp; 2
Main Front Entrance. ", - ,60031613
Wilmore Community Center,,,,,,,,07:00 AM - 07:00 AM,6001511
Community Center Ward 1,619 N Main St,,,Pratt,KS,67124 ,,07:00 AM - 07:00 PM,60011443
Cawker City Clerk's Office,Cawker City,,,,,,, - ,6009350
Senior Citizen's Center,Simpson,,,,,,, - ,6009357
Kingman Activity Center North Room,110 W First Ave,,,Kingman,KS,67068 ,North Room of the Activity Center.. ,07:00 AM - 07:00 PM,60025891
Msvle American Legion Post #163 Ward 3 &amp; 4,310 Veterans Memorial Drive N.,,,Marysville,KS,66508 ,,07:00 AM - 07:00 PM,60064797
"City Hall, Tipton",Tipton,,,,,,, - ,6009359
Aug. 1st United Methodist,2420 Ohio,,,Augusta,KS,67010 ,"Office closes @ 4, but doors are open until 6. ",06:00 AM - 07:00 PM,60027526
Whitewater American Legion,108 E. Topeka,,,Whitewater,KS,67154 ,Call to arrange. ,06:00 AM - 07:00 PM,60027531
GS Community Activity Bldg,206 S 2nd,,,Geuda Springs,KS,67051 ,,07:00 AM - 07:00 PM,60014199
CS Methodist Fellowship Hall,411 S 8th,,,Conway Springs,KS,67031 ,,07:00 AM - 07:00 PM,60014196
De Soto Community Center,32905 W 84th St,,,De Soto,KS,66018 ,"Senior Center 
Lower Level
Rear of Building. ", - ,60025716
Westside Nazarene Church,1700 W Santa Fe St,,,Olathe,KS,66061 ,"Main Foyer.
Front Entrance. ", - ,60025713
Grandview Plaza Community Center,406 State Avenue,,,,,,,07:00 AM - 07:00 PM,6004536
Sabetha City Hall - Sabetha City Ward 2,805 Main,,,Sabetha,KS,66534 ,,07:00 AM - 07:00 PM,60064295
Moran Senior Center,"407 N Cedar, Moran KS",,,Moran,KS,66755 ,,07:00 AM - 07:00 PM,60029204
Cherokee Snr Ctr,208 S. Vine St.,,,Cherokee,KS,66724 ,,07:00 AM - 07:00 PM,60064989
1st Southern Baptist,2708 N. 3rd,,,Garden City,KS,67846 ,,07:00 AM - 07:00 PM,60064324
Crystalbrook Church Indep. City 2nd Pct 4th Ward,Crystalbrook Church,801 W. Chestnut,,Independence,KS,67301 ,,07:00 AM - 07:00 PM,60064395
LaCrosse City Auditorium - L City 1 - Lb 1 Twp,417 Main Street,,,LaCrosse,KS,67548 ,, - ,60012362
Methodist Church Annex,"117 E. Main, Stark",,,Stark,KS,66775 ,,07:00 AM - 07:00 PM,60029508
Liberty Township Hall,420 W. Elm,,,Liberty,KS,67351 ,,07:00 AM - 07:00 PM,60028904
Logan Park Building,501 S. Park Street,,,Cherryvale,KS,67335 ,,07:00 AM - 07:00 PM,60028918
Wm Carpenter Building 7,608 Fairground Rd,,,Scott City,KS,67871 ,,07:00 AM - 07:00 PM,60064309
Jerome,Jerome Township Hall,c/o William Briggs,810 County Road 50,Gove,KS,67736 ,, - ,60031007
Gaeland,Grinnell VFW,,92 S Oak,Grinnell,KS,67738 ,, - ,60031008
4-H Building,Fairgrounds,,,Garden City,KS,67846 ,,07:00 AM - 07:00 PM,60029807
Courthouse Bsemnt Meeting,307 N Concord St,,,Minneapolis,KS,67467 ,,07:00 AM - 07:00 PM,60064337
Stafford Senior Center,"130 S Main - Stafford, KS  67578",,,Stafford,KS,67578 ,only location that bills; all others are paid an equal amount as this as donation. ,07:00 AM - 07:00 PM,60064585
American Legion-Highland 2-08.01/08.05,,,,,KS,,,07:00 AM - 07:00 PM,60065023
Linwood Recreation Center,"1901 S Kansas, Wichita",,,Wichita,KS,67211 ,Kansas is between Hydraulic and I135; turn N off of Mt Vernon. ,06:00 AM - 07:00 PM,60064530
Oakley Township 2nd Precinct #274,Logan County EMS Building #2,703 W. 3rd,,Oakley,KS,67748 ,,07:00 AM - 07:00 PM,60064800
Memorial Hall - Center 3,,,,,KS,,, - ,60065392
Harper Senior Center(Twp 6 East),,,,,KS,,, - ,60065361
Waverly Commun. Bldg. 1,,,,,KS,,,07:00 AM - 07:00 PM,60065335
Senior Citizens Center,"204 Main, Galesburg",,,,KS,,,07:00 AM - 07:00 PM,60065763
Edgerton Methodist Church,300 E 4th St,,,Edgerton,KS,66021 ,Fellowship Hall. , - ,60065936
Westwood Presbyterian,8007 W Maple,,,Wichita,KS,67209 ,SW corner of Maple and Woodchuck between Ridge Rd and Tyler Rd. ,06:00 AM - 07:00 PM,60017040
Country Acres Baptist,"8810 W 10th St N, Wichita",,,Wichita,KS,67212 ,NW corner of 10 St N and Tyler Rd. ,06:00 AM - 07:00 PM,60016897
Deerfield Community Center,,,,,KS,,,07:00 AM - 07:00 PM,60065641
Veteran's Memorial Building,,,,,KS,,,07:00 AM - 07:00 PM,60065642
Youth Activity Center Cfy City 1st,502 Walnut,,,Coffeyville,KS,67337 ,,07:00 AM - 07:00 PM,60066045
Municipal Hall ( Twp 3 West),,,,,KS,,, - ,60066123
Lutheran Church Calhoun,,,,,KS,,, - ,60066233
Lutheran Church Cleveland Run,,,,,KS,,, - ,60066234
Christian Church 4,402 W. 6th,,,Concordia,KS,66901 ,North and east side,07:00 AM - 07:00 PM,60066035
Rainbow Mennonite Church,1444 Southwest Blvd,,,Kansas City,KS,,, - ,60066878
6 Fairgrounds - Pct. 11,Meadowlark Building,2000 N. Poplar,,Hutchinson,KS,67502 ,, - ,60066917
20 Fairgrounds - Pct. 31,Meadowlark Building,2000 N. Poplar,,Hutchinson,KS,67502 ,, - ,60066931
21 Fairgrounds - Pct. 32 &amp; 33,Meadowlark Building,2000 N. Poplar,,Hutchinson,KS,67502 ,, - ,60066932
22 Fairgrounds - Pct. 35,Meadowlark Building,2000 N. Poplar,,Hutchinson,KS,67502 ,, - ,60066933
Kanorado,Emergency Services Building,1006 Center Avenue,,Goodland,KS,67735 ,, - ,60066718
St. Andrews Episcopal Church,828 Commercial Street,,,Emporia,KS,66801 ,,07:00 AM - 07:00 PM,60066258
Emporia Presbyterian Church,1702 W. 15th Avenue,,,Emporia,KS,66801 ,,07:00 AM - 07:00 PM,60066264
Weir Civic Club Bldg.,108 W Main St,,,Weir,KS,66781 ,,07:00 AM - 07:00 PM,60066376
Impact Fellowship Church,12011 W 127 St,,,Overland Park,KS,66213 ,"Former Heartland Christian Fellowship.
Multi-purpose Room.
Main entrance.
Disabled entrance on east side of building. ", - ,60066642
Memorial Hall-Center 8,,,,,KS,,, - ,60066936
Memorial Hall-Center 9,,,,,KS,,, - ,60066937
New Strawn Community Center 1,319 Getz,,,New Strawn,KS,66839 ,,07:00 AM - 07:00 PM,60066477
Hardman Hall Alton,Hardman Hall,Mill Street,,Alton,KS,67623 ,,07:00 AM - 07:00 PM,60066464
Civic Center,Grant County Civic Center,1000 W. Patterson,,Ulysses,KS,67880 ,,07:00 AM - 07:00 PM,60066939
Llanos Twp #314,Emergency Services Building,1006 Center Avenue,,Goodland,KS,67735 ,, - ,60066759
Union Twp #314,Emergency Services Building,1006 Center Avenue,,Goodland,KS,67735 ,, - ,60066767
Courthouse Annex,"210 E 3rd Avenue - St John, KS 67576",,,St John,KS,67576 ,,07:00 AM - 07:00 PM,60066773
36 Douglas County Fairgrounds Building 21,2110 Harper St,,,Lawrence,KS,66046 ,,07:00 AM - 07:00 PM,60066838
Immanuel United Methodist Church,116 East Bressler Avenue,,,Bird City,KS,67731 ,, - ,60066902
HOA Reg. Volleyball Facility,548 S. Coy St.,,,Kansas City,KS,66105 ,, - ,60066393
Greatlife Golf 80,8533 SW 21st Street,,Fitness Center - Lower Door,Topeka,KS,66615 ,, - ,60067135
Church of the Magdalen,12626 E 21st St N,,,Wichita,KS,67206 ,On the NW corner of 21st St N and 127th St. ,06:00 AM - 07:00 PM,60067081
Leroy Community Building,713 California,,,Le Roy,KS,66857 ,,07:00 AM - 07:00 PM,60067125
East Evangelical Free Church,14725 E Harry,,,Wichita,KS,67230 ,East of 143rd St E on Southside of Harry St. ,06:00 AM - 07:00 PM,60067080
Cornerstone Church - Ward 1 Pct 2,,,,,KS,,,07:00 AM - 07:00 PM,60067201
Cornerstone Church - Ward 2 Pct 2,,,,,KS,,,07:00 AM - 07:00 PM,60067202
Senior Citizen - Cofv Building - Pct 8,,,,,KS,,,07:00 AM - 07:00 PM,60067213
