"address_location_name","address_line1","address_line2","address_line3","address_city","address_state","address_zip","directions","polling_hours","photo_url","id"
"# 01  CENTRAL CITY SCHOOL  (MULTIPURPOSE ROOM)","2100 WASHINGTON AVENUE","","","HUNTINGTON","WV","25704","","","","54888000"
"# 02  CENTRAL CITY SCHOOL  (MULTIPURPOSE ROOM)","2100 WASHINGTON AVENUE","","","HUNTINGTON","WV","25704","","","","54888001"
"# 03  DEPT. OF TRANS. (DMV LOBBY)","801 MADISON AVENUE","","","HUNTINGTON","WV","25704","","","","54888002"
"# 04  MUSEUM OF RADIO/TECH","1640 FLORENCE AVENUE","","","HUNTINGTON","WV","25704","","","","54888003"
"# 05  DEPT. OF TRANS. (DMV LOBBY)","801 MADISON AVENUE","","","HUNTINGTON","WV","25704","","","","54888004"
"# 06 HUNTINGTON MIDDLE SCHOOL","925 3RD ST","","","HUNTINGTON","","25701","","","","54888005"
"# 09 HUNTINGTON CITY HALL  (LOBBY)","800 5TH AVENUE","","","HUNTINGTON","WV","25701","","","","54888006"
"# 10 HUNTINGTON MIDDLE SCHOOL","925 3RD ST","","","HUNTINGTON","","25701","","","","54888007"
"# 11  FIRST PRES CHURCH","1015 5TH AVENUE","","","HUNTINGTON","WV","25701","","","","54888008"
"# 12  A.D. LEWIS COMM CENTER","","","","","","","","","","54888009"
"# 13 BARNETT CENTER","1524 10TH AVE","","","HUNTINGTON","","25701","","","","54888010"
"# 14  MEADOWS SCHOOL  (GYM)","1601 WASHINGTON BLVD","","","HUNTINGTON","WV","25705","","","","54888011"
"# 16  SENIOR LIFE ENRICH CENTER","1750 9TH AVENUE","","","HUNTINGTON","WV","25703","","","","54888012"
"# 17  SPRING HILL SCHOOL (LOBBY)","1901 HALL AVENUE","","","HUNTINGTON","WV","25701","","","","54888013"
"# 18  MEADOWS SCHOOL  (GYM)","1601 WASHINGTON BLVD","","","HUNTINGTON","WV","25705","","","","54888014"
"# 19  HIGHLAWN SCHOOL (GYM)","2549 1ST AVENUE","","","HUNTINGTON","WV","25701","","","","54888015"
"# 20 COMMUNITY OF GRACE CHURCH","225  28TH ST","","","HUNTINGTON","WV","25701","","","","54888016"
"# 21 FAIRFIELD EAST COMM BLDG","2711 8TH AVENUE","","","HUNTINGTON","WV","25703","","","","54888017"
"# 22 HUNTINGTON HIGH SCHOOL","1 HIGHLANDER WAY","","","HUNTINGTON","WV","25701","","","","54888018"
"# 23 FAIRFIELD EAST COMM BLDG","2711 8TH AVENUE","","","HUNTINGTON","WV","25703","","","","54888019"
"# 24 LIGHTHOUSE BAPT CHURCH","2650 NORTH TERRACE","","","HUNTINGTON","","25705","","","","54888020"
"# 25  BEVERLY HILLS METH CHUR (YOUTH RM)","2600 WASHINGTON BLVD","","","HUNTINGTON","WV","25705","","","","54888021"
"# 26 HIGHLAWN SCHOOL (LOBBY)","2549 1ST AVENUE","","","HUNTINGTON","WV","25701","","","","54888022"
"# 27 COMMUNITY OF GRACE CHURCH","225  28TH ST","","","HUNTINGTON","WV","25701","","","","54888023"
"# 28  PEYTON SCHOOL (GYM)","199 ROTARY ROAD","","","HUNTINGTON","WV","25705","","","","54888024"
"# 29 HTGN EAST MIDDLE SCHOOL","1 CAMPBELL DR","","","HUNTINGTON","WV","25705","","","","54888025"
"# 30  HTGN EAST MIDDLE SCHOOL","1 CAMPBELL DR","","","HUNTINGTON","WV","25705","","","","54888026"
"# 31 GENEVA KENT SCHOOL  (ROOM 9)","68 HOLLEY AVE","","","HUNTINGTON","WV","25701","","","","54888027"
"# 32 GUYANDOTTE SCHOOL (GYM)","607 5TH AVE","","","HUNTINGTON","WV","25702","","","","54888028"
"# 33 GUYANDOTTE SCHOOL (GYM)","607 5TH AVE","","","HUNTINGTON","WV","25702","","","","54888029"
"# 35 HUNTINGTON HIGH SCHOOL (GYM CONC)","#1 HIGHLANDER WAY","","","HUNTINGTON","WV","25701","","","","54888030"
"# 36 HITE SAUNDERS SCHOOL (GYM)","3708 GREEN VALLEY ROAD","","","HUNTINGTON","WV","25701","","","","54888031"
"# 37 HITE SAUNDERS SCHOOL (GYM)","3708 GREEN VALLEY RD","","","HUNTINGTON","WV","25701","","","","54888032"
"# 38 GENEVA KENT SCHOOL (GYM)"," HOLLEY AVENUE & NORWOOD ROAD","","","","WV","","","","","54888033"
"# 39 CAREER TECH CENTER (VO-TECH)","1035 NORWAY AVE","","","HUNTINGTON","","25705","","","","54888034"
"# 40 CAREER TECH CENTER (VO-TECH)","1035 NORWAY AVE","","","HUNTINGTON","","25705","","","","54888035"
"# 42  BARBOURSVILLE COMM BLDG","721 CENTRAL AVENUE","","","BARBOURSVILLE","WV","25504","","","","54888036"
"# 43 BARBOURSVILLE MIDDLE SCHOOL  (CAFETERIA)","1400 CENTRAL AVENUE","","","BARBOURSVILLE","WV","25504","","","","54888037"
"# 44 BARBOURSVILLE ELEM SCHOOL (GYM)","718 CENTRAL AVENUE","","","BARBOURSVILLE","WV","25504","","","","54888038"
"# 45 BARBOURSVILLE ELEM SCHOOL (GYM)","718 CENTRAL AVENUE","","","BARBOURSVILLE","WV","25504","","","","54888039"
"# 46 BARBOURSVILLE MIDDLE SCHOOL (CAFETERIA)","1400 CENTRAL AVENUE","","","BARBOURSVILLE","WV","25504","","","","54888040"
"# 47 DAVIS CREEK SCHOOL (GYM)","6330 DAVIS CREEK ROAD","","","BARBOURSVILLE","WV","25504","","","","54888041"
"# 48 DAVIS CREEK SCHOOL (GYM)","6330 DAVIS CREEK ROAD","","","BARBOURSVILLE","WV","25504","","","","54888042"
"# 49 MARTHA SCHOOL  (GYM)","3065 MARTHA ROAD","","","BARBOURSVILLE","WV","25504","","","","54888043"
"# 51  MARTHA SCHOOL (GYM)","3065 MARTHA ROAD","","","BARBOURSVILLE","WV","25504","","","","54888044"
"# 52 NICHOLS SCHOOL (GYM)","3505 ERWIN ROAD","","","ONA","WV","25545","","","","54888045"
"# 53 NICHOLS SCHOOL (RM 9-ART RM)","3505 ERWIN ROAD","","","ONA","WV","25545","","","","54888046"
"# 54 YMCA KENNEDY CENTER","5800 OHIO RIVER ROAD","","","HUNTINGTON","WV","25702","","","","54888047"
"# 55 COX LANDING SCHOOL (RM 218)","6358 COX'S LANDING LANE","","","LESAGE","WV","25537","","","","54888048"
"# 56 GREENBOTTOM COMM CENTER","7830 OHIO RIVER ROAD","","","LESAGE","WV","25537","","","","54888049"
"# 57 PLEASANT VIEW FELLOWSHIP HALL"," BARKER RIDGE ROAD","","","","WV","","","","","54888050"
"# 58 CABELL MIDLAND HS (MAIN GYM)","2300 RT 60","","","ONA","WV","25545","","","","54888051"
"# 62 CULLODEN ELEM SCHOOL","2100  US HIGHWAY 60","","","CULLODEN","WV","25510","","","","54888052"
"# 63 MILTON BAPTIST CHURCH","2100 RT 60","","","CULLODEN","WV","","","","","54888053"
"# 64  MILTON BAPTIST CHURCH ","1123 CHURCH ST","","","MILTON","","25541","","","","54888054"
"# 65 MILTON MIDDLE SCHOOL","1  PANTHER TRL","","","MILTON","WV","25541","","","","54888055"
"# 66 CULLODEN ELEM SCHOOL","2100 US HIGHWAY 60","","","CULLODEN","WV","25510","","","","54888056"
"16TH ST FIRE STATION","500 16TH ST","","","PARKERSBURG","WV","26101","","","","54888057"
"1ST CHURCH OF THE NAZARENE - LIFE CENTER","607 JOHNSTOWN ROAD","","","BECKLEY","WV","25801","","","","54888058"
"AGRICULTURE BUILDING","60 MOOREFIELD INDUSTRIAL PARK RD","","","MOOREFIELD","WV","26836","","","","54888059"
"ALBRIGHT COMMUNITY CTR","2960 ST JOE RD","","","ALBRIGHT","WV","26519","","","","54888060"
"ALDERSON /ALDERSON COM. BUILDING"," VIRGINIA ST","","","ALDERSON","WV","","","","","54888061"
"ALLISON ELEM SCHOOL","600 RAILROAD ST-CHESTER","","","CHESTER","WV","26034","","","","54888062"
"ALUM BRIDGE SCHOOL","10949 US HIGHWAY 33 WEST","","","ALUM BRIDGE","WV","26321","","","","54888063"
"ALUM CREEK ELEMENTARY"," RT 7 BOX 279 A","","","SO CHARLESTON","WV","25309","","","","54888064"
"ALVON/ANTHONYS CREEK FIRE HOUSE"," RT 92 ALVON","","","","WV","","","","","54888065"
"ALVY COMMUNITY BUILDING"," Indian Creek Road","","","Alma","WV","26320","","","","54888066"
"AMERICAN LEGION BLD"," MAIN STREET","","","KEYSER","WV","26726","","","","54888067"
"AMMA SENIOR CITIZENS BLDG","3401 AMMA RD","","","AMMA","WV","25005","","","","54888068"
"ANAWALT FIRE DEPARTMENT","","","","","","","","","","54888069"
"ANDREW HGTS. ELEMENTARY"," P O BOX 340","","","TORNADO","WV","25202","","","","54888070"
"ANDREW HGTS. ELEMENTARY"," P O BOX 340","","","TORNADO","WV","25202","","","","54888071"
"ANDREW JACKSON MIDDLE SCHOOL","5445 BIG TYLER RD","","","CROSS LANES","WV","25313","","","","54888072"
"ANDREW JACKSON MIDDLE SCHOOL","5445 BIG TYLER RD","","","CROSS LANES","WV","25313","","","","54888073"
"ANNA JARVIS SCHOOL","650 N. Pike St.","","","Grafton","WV","26354","","","","54888074"
"ANNE BAILEY ELEMENTARY","405 WINFIELD RD","","","ST ALBANS","WV","25177","","","","54888075"
"ANNE BAILEY ELEMENTARY","405 WINFIELD RD","","","ST ALBANS","WV","25177","","","","54888076"
"ANSTED ELEMENTARY SCHOOL","27 SCHOOL ST","","","ANSTED","WV","25812","","","","54888077"
"ANSTED MIDDLE SCHOOL","47 CHURCH ST","","","ANSTED","WV","25812","","","","54888078"
"ANTIOCH COMMUNITY BUILDING"," KNOBLEY RD-ANTIOCH","","","NEW CREEK","WV","","","","","54888079"
"ARDEN CLEMTOWN AREA COMMUNITY CENTER","","","","","","","","","","54888080"
"ARKANSAW COMM CENTER","262 ARKANSAW RD","","","BAKER","WV","26801","","","","54888081"
"ARLINGTON COMMUNITY BLDG","15801 RT 20 South Rd","","","Rock Cave","WV","26234","","","","54888082"
"ARMSTRONG CREEK VOLUNTEER FIRE DEPT.","3319 ARMSTRONG CRK RD","","","POWELLTON","WV","25161","","","","54888083"
"ARNOLDSBURG SCHOOL","90 SPRING RUN RD","","","ARNOLDSBURG","WV","25234","","","","54888084"
"ARTHURDALE HERITAGE BLDG","18 Q RD","","","ARTHURDALE","WV","26520","","","","54888085"
"ARVILLA","4516 Arvilla Rd.","","","Friendly","WV","26146","","","","54888086"
"ASBURY COMMUNITY BUILDING"," RT 12","","","","WV","","","","","54888087"
"ASHFORD ELEMENTARY","1649 Ashford Nellis Rd","","","Ashford","WV","25009","","","","54888088"
"ASHTON ELEMENTARY SCHOOL","1226 BURDETTE STREET","","","leon ","WV","25123","","","","54888089"
"ATHENS MASONIC LODGE BLDG","       STATE STREET","","","ATHENS","WV","24712","","","","54888090"
"ATHENS MIDDLE SCHOOL GYM"," STATE ST","","","ATHENS","WV","24712","","","","54888091"
"AUBURN-BAPTIST CHURCH"," MAIN STREET","","","AUBURN","WV","26325","","","","54888092"
"AUGUSTA ELEMENTARY SCHOOL","","","","","","","","","","54888093"
"AUGUSTA FIRE COMPANY","","","","","","","","","","54888094"
"BACK CREEK VALLEY ELEMENTARY SCHOOL","1962 BACK CREEK VALLEY ROAD","","","HEDGESVILLE","WV","25427","","","","54888095"
"BAILEY METHODIST CHURCH"," PO Box 197","","","Rosemont","WV","26424","","","","54888096"
"BAKERTON METHODIST CHURCH","855 CARTER AVE","","","BAKERTON","WV","25410","","","","54888097"
"BANCROFT FIRE STATION","507 WASHINGTON STREET","","","BANCROFT","WV","25011","","","","54888098"
"BANDYTOWN/MARTHA FWB CHURCH","12165 Chap Road","","","Bandytown","WV","25505","","","","54888099"
"BAPTIST GROVE - ROANE- JACKSON TECH. CENTER","9450 SPENCER RD","","","LEROY","WV","25252","","","","54888100"
"BARBOUR COUNTY COURTHOUSE"," NESTORVILLE","","","","WV","","","","","54888101"
"BARBOUR COUNTY FAIRGROUNDS","","","","","","","","","","54888102"
"BARNES ELEMENTARY SCHOOL","100 NAOMI ST","","","FAIRMONT","WV","26554","","","","54888103"
"BARNES ELEMENTARY SCHOOL","100 NAOMI ST","","","FAIRMONT","WV","26554","","","","54888104"
"BARRACKVILLE MIDDLE SCHOOL"," MAIN ST","","","BARRACKVILLE","WV","26559","","","","54888105"
"BARRACKVILLE MIDDLE SCHOOL"," MAIN ST","","","BARRACKVILLE","WV","26559","","","","54888106"
"BARRACKVILLE SCHOOL, NORTH"," MAIN STREET","","","BARRACKVILLE","WV","26559","","","","54888107"
"BARRACKVILLE SCHOOL, SOUTH"," MAIN ST","","","BARRACKVILLE","WV","26559","","","","54888108"
"BAXTER COMMUNITY BUILDING"," p o box  55","","","BAXTER","WV","26560","","","","54888109"
"BAYARD FIRE HALL","100 POTOMAC AVE","","","BAYARD","WV","26707","","","","54888110"
"BEALE GRADE SCHOOL","7593 RIPLEY ROAD","","","POINT PLEASANT","WV","25550","","","","54888111"
"BEALE GRADE SCHOOL","7593 RIPLEY ROAD","","","POINT PLEASANT","WV","25550","","","","54888112"
"BEAN SETTLEMENT COMM BLDG","3031 SKAGGS RUN RD","","","BAKER","WV","26801","","","","54888113"
"BEAVER ELEMENTARY","16414 WEBSTER ROAD","","","CRAIGSVILLE","WV","26205","","","","54888114"
"BEAVER FIRST BAPTIST CHURCH","251 OXLEY CIRCLE","","","BEAVER","WV","25813","","","","54888115"
"BECKLEY CITY HALL","409 SOUTH KANAWHA STREET","","","BECKLEY","WV","25801","","","","54888116"
"BECKLEY-STRATTON MIDDLE SCHOOL","401 GRAY FLATS ROAD","","","BECKLEY ","WV","25801","","","","54888117"
"BEDINGTON ELEMENTARY SCHOOL","149 BEDINGTON ROAD","","","MARTINSBURG","WV","25404","","","","54888118"
"BEDINGTON ELEMENTARY SCHOOL","149 BEDINGTON ROAD","","","MARTINSBURG","WV","25404","","","","54888119"
"BEECH BOTTOM SCHOOL","0 HIGH STREET","","","BEECH BOTTOM","WV","26030","","","","54888120"
"BEECHWOOD PRESBYTERIAN CHURCH","703 30TH ST","","","PARKERSBURG","WV","26101","","","","54888121"
"BELGROVE/KENTUCK STAR-KENTUCK COMM. BLDG","5257 KENTUCK RD","","","KENNA","WV","25248","","","","54888122"
"BELINGTON ELEMENTARY SCHOOL","","","","","","","","","","54888123"
"BELINGTON FIRE DEPARTMENT","","","","","","","","","","54888124"
"BELLE ELEMENTARY","401 E 6TH ST","","","BELLE","WV","25015","","","","54888125"
"BELLE ELEMENTARY","401 E 6TH ST","","","BELLE","WV","25015","","","","54888126"
"BELLEPOINT -LIFELINE CHURCH","505 STOKES DRIVE","","","HINTON","WV","25951","","","","54888127"
"BELLEVILLE COMM CENTER","38 ROBINHOOD RD","","","BELLEVILLE","WV","26133","","","","54888128"
"BELLVIEW COMMUNITY CENTER","","","","","","","","","","54888129"
"BELMONT","318 Main Street","","","Belmont","WV","26134","","","","54888130"
"BERGOO COMMUNITY BUILDING","6 POST OFFICE LANE","","","WEBSTER SPRINGS","WV","26288","","","","54888131"
"BERKELEY HEIGHTS ELEMENTARY SCHOOL","726 HACK WILSON WAY","","","MARTINSBURG","WV","25401","","","","54888132"
"BERKELEY HEIGHTS ELEMENTARY SCHOOL","726 HACK WILSON WAY","","","MARTINSBURG","WV","25401","","","","54888133"
"BERKELEY SENIOR CENTER","217 N HIGH STREET","","","MARTINSBURG","WV","25404","","","","54888134"
"BERKELEY SPRINGS HIGH SCHOOL CAFETERIA","149 CONCORD AVENUE","","","BERKELEY SPRINGS","WV","25411","","","","54888135"
"BETHANY TOWN BUILDING"," CHURCH STREET","","","BETHANY","WV","","","","","54888136"
"BETHEL ASSEMBLY OF GOD CHURCH","2010 TAVERN ROAD","","","MARTINSBURG","WV","25401","","","","54888137"
"BETHEL BAPTIST CHURCH","895 HURRICANE CREEK ROAD","","","HURRICANE","WV","25526","","","","54888138"
"BIG OTTER COMM. CENTER","3433 big otter highway","","","ivYDALE","WV","25113","","","","54888139"
"BIG RUN COMMUNITY BUILDING"," BIG RUN","","","CAMERON","WV","26033","","","","54888140"
"BIRCH RIVER ELEMENTARY","1431 BIRCH RIVER RD","","","BIRCH RIVER","WV","","","","","54888141"
"BISON CENTER ","330 BUFFALO CREEK RD ","","","KENOVA","WV","25530","","","","54888142"
"BLACKSHERE ELEMENTARY SCHOOL","77 BLACKSHERE DR","","","MANNINGTON","WV","26582","","","","54888143"
"BLDG ADJ TO THOMAS GROCERY","2494 POCA RIVER ROAD S","","","POCA","WV","25159","","","","54888144"
"BLENNERHASSETT ELEM SCHOOL","444 JEWELL RD","","","PARKERSBURG","WV","","","","","54888145"
"BLENNERHASSETT ELEM SCHOOL","444 JEWELL RD","","","PARKERSBURG","WV","","","","","54888146"
"BLENNERHASSETT MIDDLE SCHOOL","444 JEWELL RD","","","PARKERSBURG","WV","26101","","","","54888147"
"BLENNERHASSETT MIDDLE SCHOOL","444 JEWELL RD","","","PARKERSBURG","WV","26101","","","","54888148"
"BLUE RIDGE ELEMENTARY SCHOOL","18866 CHARLES TOWN RD","","","HARPERS FERRY","WV","25425","","","","54888149"
"BLUE RIDGE ELEMENTARY SCHOOL","18866 CHARLES TOWN RD","","","HARPERS FERRY","WV","25425","","","","54888150"
"BLUE RIDGE MOUNTAIN FIRE HALL","181 KEYES GAP RD","","","HARPERS FERRY","WV","25425","","","","54888151"
"BLUEFIELD AUDITORIUM ","1780 STADIUM DRIVE","","","BLUEFIELD","","24701","","","","54888152"
"BLUEWELL SCHOOL","205 BLUEWELL SCHOOL RD","","","BLUEFIELD","WV","24701","","","","54888153"
"BLUEWELL SCHOOL","205 BLUEWELL SCHOOL RD","","","BLUEFIELD","WV","24701","","","","54888154"
"BOARD OF ED, CENTRAL OFFICE","105  ADAIR STREET","","","BECKLEY","WV","25801","","","","54888155"
"BOARD OF EDUCATION","501 CHESTNUT STREET","","","PARSONS","WV","26287","","","","54888156"
"BOARD OF EDUCATION","333 FOUNDRY ST","","","NEW MARTINSVILLE","WV","26155","","","","54888157"
"BOARD OF EDUCATION BLDG","200 ELIZABETH ST ","","","CHARLESTON","WV","25311","","","","54888158"
"BOARD OF EDUCATION BUILDING","1201 PLEASANT AVENUE","","","WELLSBURG","WV","26070","","","","54888159"
"BOARD OF EDUCATION BUILDING","1201 PLEASANT AVENUE","","","WELLSBURG","WV","26070","","","","54888160"
"BOARD OF EDUCATION OFFICE","239 COURT AVENUE","","","WESTON","WV","26452","","","","54888161"
"BOARD OF EDUCATION OFFICE","9875 WILLOW BEND ROAD","","","UNION","WV","24983","","","","54888162"
"BOAZ LIONS CLUB","315 VALLEY MANOR LN","","","WILLIAMSTOWN","WV","26187","","","","54888163"
"BOGGS RUN VFD","1519 BOGGS RUN RD","","","BENWOOD","","26031","","","","54888164"
"BOLAIR PUB. SER. DIST. BLDG.","2199 WEBSTER ROAD","","","WEBSTER SPRINGS","WV","26288","","","","54888165"
"BOLT CHURCH OF GOD","2073 BOLT ROAD","","","BOLT","WV","25817","","","","54888166"
"BOOMER FIRE DEPARTMENT","71 BOOMER BRANCH RD","","","BOOMER","WV","25031","","","","54888167"
"BOREMAN SCHOOL"," State Route 18","","","Middlebourne","WV","26149","","","","54888168"
"BOWMAN RIDGE COMM BLDG","1434 BOWMAN RIDGE RD","","","GLEN EASTON","","26039","","","","54888169"
"BRADLEY ELEMENTARY SCHOOL","210 BRADLEY SCHOOL ROAD","","","MT HOPE","WV","25880","","","","54888170"
"BRAMWELL TOWN HALL"," POST OFFICE BOX 338","","","BRAMWELL","WV","","","","","54888171"
"BRANDYWINE FIRE HOUSE"," RT. 33","","","ONEGO","WV","","","","","54888172"
"BRAXTON COUNTY JAMBOREE BUILDING","258 PARSONS DR","","","GASSAWAY","WV","26624","","","","54888173"
"BRIDGEVIEW ELEMENTARY","5100  OHIO ST","","","SO CHARLESTON","WV","25309","","","","54888174"
"BROAD ST UNITED METHODIST CHURCH-LEFT","210 BROAD STREET","","","WESTON","WV","26452","","","","54888175"
"BROAD ST UNITED METHODIST CHURCH-RIGHT","210 BROAD STREET","","","WESTON","WV","26452","","","","54888176"
"BROOKSVILLE BAPTIST CHURCH","6303 W LITTLE KANAWHA HWY","","","BIG BEND","WV","26136","","","","54888177"
"BROWN SCHOOL/PRE-KINDERGARTEN ACADEMY","  69 SMITH ST","","","MADISON","WV","25130","","","","54888178"
"BRUCETON MILLS FIRE HALL","142 UNION ST","","","BRUCETON MILLS","WV","26525","","","","54888179"
"BRUSHY FORK COMMUNITY BLDG","","","","","","","","","","54888180"
"BRUSHY FORK COMMUNITY BLDG","649 Brushy Fork Rd","","","Buckhannon","WV","26201","","","","54888181"
"BU MIDDLE SCHOOL"," RR 6 Box 303","","","Buckhannon","WV","26201","","","","54888182"
"BU MIDDLE SCHOOL"," RR 6 Box 303","","","Buckhannon","WV","26201","","","","54888183"
"BU MIDDLE SCHOOL"," RR 6 Box 303","","","Buckhannon","WV","26201","","","","54888184"
"BU MIDDLE SCHOOL"," RR 6 Box 303","","","Buckhannon","WV","26201","","","","54888185"
"BU MIDDLE SCHOOL"," RR 6 Box 303","","","Buckhannon","WV","26201","","","","54888186"
"BUCKHANNON ACADEMY SCHOOL","2 College Ave","","","Buckhannon","WV","26201","","","","54888187"
"BUCKHANNON ACADEMY SCHOOL","2 College Ave","","","Buckhannon","WV","26201","","","","54888188"
"BUCKHANNON ACADEMY SCHOOL","2 College Ave","","","Buckhannon","WV","26201","","","","54888189"
"BUFFALO ELEMENTARY ","331 BUFFALO CREEK RD ","","","KENOVA","WV","25530","","","","54888190"
"BUFFALO ELEMENTARY SCHOOL"," ROUTE 1 BOX 93","","","BUFFALO","WV","25033","","","","54888191"
"BUFFALO ELEMENTARY-N END ","331 BUFFALO CREEK RD ","","","KENOVA","WV","25530","","","","54888192"
"BUFFALO HIGH SCHOOL","3317 BUFFALO ROAD","","","BUFFALO","WV","25033","","","","54888193"
"BUNKER HILL ELEMENTARY SCHOOL","58 HAPPY SCHOOL AVENUE","","","BUNKER HILL","WV","25413","","","","54888194"
"BUNKER HILL UNITED METHODIST CHURCH","9863 WINCHESTER AVENUE","","","BUNKER HILL","WV","25413","","","","54888195"
"Bunners Ridge Fire Department"," RT 6 BOX 339A","","","FAIRMONT","WV","26554","","","","54888196"
"BURKE STREET SCHOOL","422 W BURKE STREET","","","MARTINSBURG","WV","25401","","","","54888197"
"BURLINGTON SCHOOL"," PATTERSON CREEK RD","","","BURLINGTON","WV","","","","","54888198"
"BURNING SPRINGS","","","","","","","","","","54888199"
"BURNSVILLE COMMUNITY CENTER","237A KANAWHA AVE","","","BURNSVILLE","WV","26335","","","","54888200"
"BURNSVILLE MAYORS OFFICE","106 MUNICIPAL ST","","","BURNSVILLE","WV","26335","","","","54888201"
"CABIN CREEK VOL. FIRE DEPT.","","","","","","","","","","54888202"
"CACAPON STATE PARK"," 522 SOUTH","","","BERKELEY SPRINGS","WV","25411","","","","54888203"
"CALCUTTA","2553 Kings Ridge Rd.","","","St. Marys","WV","26170","","","","54888204"
"CALHOUN MIDDLE HIGH SCHOOL","50 UNDERWOOD CIRCLE","","","MOUNT ZION","WV","26151","","","","54888205"
"CALVARY BAPTIST CHURCH"," US RT 119 SOUTH","","","GRAFTON","WV","26354","","","","54888206"
"CALVARY MEMORIAL CHURCH","607 WAYSIDE FARM RD","","","PARKERSBURG","WV","26101","","","","54888207"
"CALVARY METHODIST CHURCH","1601 FIRST STREET","","","MOUNDSVILLE","","26041","","","","54888208"
"CALVARY PENTECOSTAL SCHOOL"," CROSS","","","","","","","","","54888209"
"CALVARY U M CH-FELLOWSHIP HALL","1687 FAIRCHANCE ROAD","","","MORGANTOWN","WV","26508","","","","54888210"
"CAMDEN SENIOR CITIZENS BLDG.","9676 WEBSTER ROAD","","","CAMDEN ON GAULEY","WV","26208","","","","54888211"
"CAMERON GRADE SCHOOL","12 CHURCH ST","","","CAMERON","WV","26033","","","","54888212"
"CAMP HAPPY VALLEY","167 FLETCHER ROAD","","","SCOTT DEPOT","WV","25560","","","","54888213"
"CAMP HILL WESLEY UNITED METHOD","645 WASHINGTON ST","","","HARPERS FERRY","WV","25425","","","","54888214"
"CAMP MINCO"," REESES MILL","","","KEYSER","WV","26726","","","","54888215"
"CAMP SHEPPARD","249 CAMP SHEPPARD LANE","","","GANDEEVILLE","WV","25243","","","","54888216"
"CAMP VIRGIL TATE LODGE"," RT 4 BOX 141 B ","","","CHARLESTON","WV","25313","","","","54888217"
"CANAAN VALLEY FIRE HALL","6563 APPALACHIAN HIGHWAY","","","DAVIS","WV","26260","","","","54888218"
"CANFIELD PAUL DUNN'S HOUSE","7765 HEROLD RD","","","SUTTON","WV","26601","","","","54888219"
"CANVAS RURITAN CLUB BUILDING","17 CANVAS ROAD","","","CANVAS","WV","","","","","54888220"
"CAPON BRIDGE SCHOOL","","","","","","","","","","54888221"
"CAPON BRIDGE SENIOR CENTER","","","","","","","","","","54888222"
"CAPON VALLEY RURITAN CLUB","","","","","","","","","","54888223"
"CAREER CENTER"," RT 7","","","NEW MARTINSVILLE","WV","26155","","","","54888224"
"CARETTA COMMUNITY CENTER","","","","","","","","","","54888225"
"CAROLINA HEAD START"," P O BOX 190","","","CAROLINA","WV","26563","","","","54888226"
"CARROLL TERRACE","1546 KANAWHA BLVD","","","CHARLESTON","WV","25311","","","","54888227"
"CATO PARK","200 BAKER LN","","","CHARLESTON","WV","25302","","","","54888228"
"CAZY/VAN ELEMENTARY","338  Van High School Rd","","","Van","WV","25206","","","","54888229"
"CBC FIRE STATION","108 MCKEES CREEK ROAD","","","SUMMERSVILLE","WV","26651","","","","54888230"
"CEDAR GROVE COMM BLDG","3812 STAUNTON TPK","","","PARKERSBURG","WV","26101","","","","54888231"
"CEDAR GROVE UM CHURCH","168 OLD TURNPIKE RD","","","PARKERSBURG","WV","26101","","","","54888232"
"CEDARVILLE VOLUNTEER FIRE DEPARTMENT","49 LOWER LEVEL RUN","","","CEDARVILLE","WV","26611","","","","54888233"
"CENTER HILL","","","","","","","","","","54888234"
"CENTRAL SCHOOL"," CENTRAL SCHOOL","","","MOUNDSVILLE","WV","26041","","","","54888235"
"CENTRAL UNION COMM. CENTER"," BRUSH COUNTRY ROAD","","","MARLINTON","WV","24954","","","","54888236"
"CENTRAL UNITED METHODIST CHURC","315 FAIRMONT AVE","","","FAIRMONT","","26554","","","","54888237"
"CENTRALIA POPLAR RIDGE CHURCH","874 STONEY CREEK RD","","","SUTTON","WV","26601","","","","54888238"
"CEREDO ELEMENTARY "," CEREDO","","","CEREDO","WV","","","","","54888239"
"CEREDO ELEMENTARY CAFE ","484 MAIN STREET","","","CEREDO","WV","25507","","","","54888240"
"CERES SCHOOL","3716 MAPLE ACRES RD","","","BLUEFIELD","WV","24701","","","","54888241"
"CHANDLER ACADEMY","1900 SCHOOL STREET","","","CHARLESTON","WV","25312","","","","54888242"
"CHAPEL COMMUNITY BUILDING","4077 CHAPEL RD","","","GASSAWAY","WV","26624","","","","54888243"
"CHAPMANVILLE SCHOOL BUS GARAGE"," GARRETT'S FORK ROAD","","","CHAPMANVILLE","WV","","","","","54888244"
"CHARLES TOWN BAPTIST CHURCH","203 E CONGRESS ST","","","CHARLES TOWN","WV","25414","","","","54888245"
"CHARLES TOWN MIDDLE SCHOOL","2518 BERRYVILLE PIKE","","","RIPPON","WV","25441","","","","54888246"
"CHARMCO/GWHS"," PO BOX 325","","","CHARMCO","WV","25958","","","","54888247"
"CHESAPEAKE CITY HALL","12404 MACCORKLE AVE","","","CHESAPEAKE","WV","25315","","","","54888248"
"CHESAPEAKE CITY HALL","12404 MACCORKLE AVE","","","CHESAPEAKE","WV","25315","","","","54888249"
"CHESAPEAKE ELEMENTARY","13620 MACCORKLE AVE","","","CHESAPEAKE","WV","25315","","","","54888250"
"CHESTER VOL FIRE DEPT","371 CAROLINA AVE-CHESTER","","","CHESTER","WV","26034","","","","54888251"
"CHRIST UNITED METHODIST CHURCH","3598 PENNSYLVANIA AVE-WEIRTON","","","WEIRTON","WV","26062","","","","54888252"
"CHURCH LANDS","154 CRAB ORCHARD BAPTIST CAMP ROAD","","","SHADY SPRING","WV","25918","","","","54888253"
"CHURCH OF CHRIST (HOOV HTS)","102 CHURCH AVENUE","","","FOLLANSBEE","WV","26037","","","","54888254"
"CHURCH OF CHRIST PETTRY"," P O BOX 517","","","ATHENS","WV","24712","","","","54888255"
"CHURCH OF NAZARENE","210 MAR WIN DRIVE","","","WHEELING","","26003","","","","54888256"
"CHURCHVILLE METHODIST CHURCH","3736 CHURCHVILLE RD","","","CAMDEN","WV","26338","","","","54888257"
"CITY BUILDING","208 WEST MAIN ST","","","PADEN CITY","","26159","","","","54888258"
"CITY HALL - HINTON TECHNOLOGY CENTER","301 SUMMERS STREET","","","HINTON","WV","25951","","","","54888259"
"CLARY STREET LEARNING CENTER"," CLARY STREET","","","KEYSER","","","","","","54888260"
"CLAY ELEMENTARY GYM","144 HIGH STREET","","","CLAY","WV","25043","","","","54888261"
"CLAY MIDDLE SCHOOL","72 MUSTANG DRIVE","","","CLAY","WV","25043","","","","54888262"
"CLAY-BATTELLE SENIOR CENTER","264 WASHINGTON ST","","","BLACKSVILLE","WV","26521","","","","54888263"
"CLEAR FORK DISTRICT ELEMENTARY","4851 CLEAR FORK ROAD","","","CLEAR CREEK","WV","25044","","","","54888264"
"CLEARVIEW FIRE STATION","166 CLEARVIEW AVE","","","WHEELING","WV","26003","","","","54888265"
"CLINTON HEDRICK COMMUNITY CENTER"," SCHMUCKER ROAD","","","","WV","","","","","54888266"
"CLINTONVILLE COMMUNITY BUILDING"," HC 40 BOX 52","","","LEWISBURG","VT","24901","","","","54888267"
"CLOVER PSD BLDG","3369 CLAY RD","","","SPENCER","WV","25276","","","","54888268"
"COAL CITY ELEMENTARY SCHOOL","900 INDEPENDENCE ROAD","","","COAL CITY","WV","25823","","","","54888269"
"COALWOOD FIRE DEPT."," PO","","","","WV","","","","","54888270"
"COLFAX COMMUNITY CENTER","1731 COLFAX ROAD","","","FAIRMONT","WV","26554","","","","54888271"
"COLLIERS SCHOOL","270 PENN AVENUE","","","COLLIERS","WV","26035","","","","54888272"
"COLLINS MIDDLE SCHOOL","601 JONES AVE","","","OAK HILL ","WV","25901","","","","54888273"
"COMM.OF CHRIST CHURCH-26TH ST.","84 26TH STREET","","","WELLSBURG","WV","26070","","","","54888274"
"COMMISSION ON AGING BUILDING"," P O BOX 1507","","","PRINCETON","WV","24740","","","","54888275"
"COMMUNITY ARTS CENTER","1 PARK STREET","","","ELKINS","WV","26241","","","","54888276"
"COMMUNITY BLDING CASHMERE"," WOODSON ROAD","","","BALLARD","WV","24918","","","","54888277"
"COMMUNITY BLDING RED SULPHUR"," INDIAN CREEK ROAD","","","BALLARD","WV","24918","","","","54888278"
"COMMUNITY BLDING SWEET SPRINGS","19766 SWEET SPRINGS VALLEY ROAD","","","SWEET SPRINGS","WV","24941","","","","54888279"
"COMMUNITY CENTER,GREENVILLE","5478 GREENVILLE ROAD","","","GREENVILLE","WV","24945","","","","54888280"
"COMMUNITY SERVICE CENTER","187 SOUTH GREEN STREET","","","BERKELEY SPRINGS","WV","25411","","","","54888281"
"CONFIDENCE ELEMENTARY SCHOOL"," HC 63 BOX 163","","","RED HOUSE","WV","25168","","","","54888282"
"CONNER STREET ELEMENTARY","445  CONNER STREET","","","HURRICANE","WV","25526","","","","54888283"
"CONNER STREET ELEMENTARY","445  CONNER STREET","","","HURRICANE","WV","25526","","","","54888284"
"COPEN COMMUNITY BUILDING","24 WALKER FORK RD","","","COPEN","WV","26615","","","","54888285"
"CORE COMMUNITY CENTER INC","2193 MASON DIXON HIGHWAY","","","CORE","WV","26529","","","","54888286"
"CORLISS COMMUNITY CTR","1487 CORLISS  RD","","","RAINELLE","WV","25962","","","","54888287"
"CORNER CHURCH BUILDING","115 CORNER RD","","","CABINS","WV","26855","","","","54888288"
"COTTAGEVILLE-COTTAGEVILLE GRADE SCHOOL","270 2ND ST","","","COTTAGEVILLE","WV","25239","","","","54888289"
"COUNCIL CHMBR/DINING RM-COMM.BLDG-MULBERRY ST","300 HENRIETTA ST","","","RAVENSWOOD","WV","26164","","","","54888290"
"COURTHOUSE","363 MAIN STREET","","","GRANTSVILLE","WV","26147","","","","54888291"
"COURTHOUSE","200 NORTH COURT STREET","","","LEWISBURG","WV","24901","","","","54888292"
"COURTHOUSE","","","","","","","","","","54888293"
"COURTHOUSE","204 WASHINGTON ST","","","MOOREFIELD","WV","26836","","","","54888294"
"COURTHOUSE","204 WASHINGTON ST","","","MOOREFIELD","WV","26836","","","","54888295"
"COURTHOUSE","110 CENTER AVE","","","WESTON","WV","26452","","","","54888296"
"COURTHOUSE","700 MAIN STREET","","","SUMMERSVILLE","WV","26651","","","","54888297"
"COURTHOUSE","200 MAIN ST","","","SPENCER","WV","25276","","","","54888298"
"COURTHOUSE - NORTH","100 S. Main Street","","","Franklin","","","","","","54888299"
"COURTHOUSE - SOUTH","100 S. Main Street","","","Franklin","","","","","","54888300"
"COURTHOUSE ANNEX","4 RANDOLPH AVE","","","ELKINS","WV","26241","","","","54888301"
"COURTHOUSE ANNEX","38 West Main St","","","Buckhannon","WV","26201","","","","54888302"
"COURTHOUSE COURTROOM","5 HIGHLAND AVE","","","PETERSBURG","WV","26847","","","","54888303"
"COURTHOUSE-JACKSON COUNTY COURTHOUSE","100 COURT ST","","","RIPLEY","WV","25271","","","","54888304"
"COVENANT BAPTIST CHURCH","7485 SHEPHERDSTOWN PIKE","","","SHEPHERDSTOWN","WV","25443","","","","54888305"
"COX'S MILLS COMMUNITY        BUILDING","7797 WV HWY 47W","","","COXS MILLS","","26342","","","","54888306"
"CRAB ORCHARD BAPTIST","1501 ROBERT C BYRD DRIVE","","","CRAB ORCHARD","WV","25827","","","","54888307"
"CRAB ORCHARD ELEMENTARY SCHOOL","1404 ROBERT C BYRD DRIVE","","","CRAB ORCHARD","WV","25827","","","","54888308"
"CRANBERRY-PROSPERITY ELEMENTARY SCHOOL","4575 ROBERT C BYRD DRIVE","","","BECKLEY","WV","25801","","","","54888309"
"CRANECREEK PENTE HOLINESS CHUR"," RR 02 BOX 319","","","MCCOMAS","WV","","","","","54888310"
"CRAWLEY/WGMS","374 TIMBERWOLF DRIVE","","","CRAWLEY","WV","24931","","","","54888311"
"CRESCENT ELEMENTARY SCHOOL","205 CRESCENT ROAD","","","BECKLEY","WV","25801","","","","54888312"
"CRICHTON ELEMENTARY SCHOOL","","","","","","","","","","54888313"
"CRISS SCHOOL/GYM","2800 22ND ST","","","PARKERSBURG","WV","","","","","54888314"
"CRISS SCHOOL/GYM","2800 22ND ST","","","PARKERSBURG","WV","","","","","54888315"
"CROCKETT/BOOTEN FELLOWSHIP HALL "," MILLERS FORK RD ","","","WAYNE","WV","25570","","","","54888316"
"CROOKED CREEK SPC.ED.BLDG."," CROOKED CREEK ROAD","","","PEACH CREEK","WV","25639","","","","54888317"
"CROSS LANES ELEMENTARY","5525 BIG TYLER RD","","","CROSS LANES","WV","25313","","","","54888318"
"CROSS LANES ELEMENTARY","5525 BIG TYLER RD","","","CROSS LANES","WV","25313","","","","54888319"
"CROSS LANES ELEMENTARY","5525 BIG TYLER RD","","","CROSS LANES","WV","25313","","","","54888320"
"CROSS ROADS COMMUNITY CENTER","82 HARLEY BAR ROAD","","","FAIRVIEW","WV","26570","","","","54888321"
"CROSSROADS COMM NAZARENE CHURCH","400 N MAIN ST","","","NEW MARTINSVILLE","","26155","","","","54888322"
"CRUM MIDDLE SCHOOL ","150 SCHOOL STREET ","","","CRUM","WV","25669","","","","54888323"
"CW SHIPLEY ELEMENTARY SCHOOL","652 SHIPLEY SCHOOL RD","","","HARPERS FERRY","WV","25425","","","","54888324"
"DALLAS COMMUNITY BUILDING"," DALLAS","","","DALLAS","","26036","","","","54888325"
"DANESE COMMUNITY CTR","1493 STANAFORD RD","","","DANESE","WV","25831","","","","54888326"
"DANIELS BIBLE CHURCH","1351  RITTER DRIVE","","","DANIELS","WV","25832","","","","54888327"
"DANIELS ELEMENTARY SCHOOL","351 4-H LAKE ROAD","","","DANIELS","WV","25832","","","","54888328"
"DAVIS CITY HALL","505 WILLIAM AVE","","","DAVIS","WV","26260","","","","54888329"
"DAVY COMMUNITY CENTER","","","","","","","","","","54888330"
"DAYBROOK EARLY HEADSTART SCHOOL","2097 DAYBROOK ROAD","","","FAIRVIEW","WV","26570","","","","54888331"
"DEERWALK VOL FIRE DEPT","9382 DEERWALK HWY","","","WAVERLY","WV","","","","","54888332"
"DENVER HUNT'S OLD STORE BUILDING"," P.O. BOX","","","","WV","","","","","54888333"
"DEPT OF HEALTH & HUMAN SERVICE","433 MIDATLANTIC CENTER","","","MARTINSBURG","WV","25404","","","","54888334"
"DEPT. OF HEALTH & HUMAN RES.","4190 WASHINGTON ST W.","","","CHARLESTON","WV","25313","","","","54888335"
"DEPT. OF HEALTH & HUMAN RES.","4190 WASHINGTON ST W.","","","CHARLESTON","WV","25313","","","","54888336"
"DEPT. OF MOTOR VEHICLE BLDG.","","","","","","","","","","54888337"
"DEPT. OF NATURAL RESOURCES","","","","","","","","","","54888338"
"DIANA GRADE SCHOOL","90 EAGLE LANE","","","DIANA","WV","26217","","","","54888339"
"DIANA GRADE SCHOOL","90 EAGLE LANE","","","DIANA","WV","26217","","","","54888340"
"DISABLED AMERICAN VETS BLD"," MAIN STREET","","","KEYSER ","","","","","","54888341"
"DIXIE ELEMENTARY","1988 DIXIE HWY","","","DIXIE","WV","25059","","","","54888342"
"DIXIE ELEMENTARY SCHOOL","1988 DIXIE HWY","","","DIXIE","WV","25059","","","","54888343"
"DORCAS COMMUNITY CENTER","4055 S MILL CREEK RD","","","PETERSBURG","WV","26847","","","","54888344"
"DROOP MT. OLIVET CHURCH","374 SENECA TRAIL","","","HILLSBORO","WV","24946","","","","54888345"
"DUDEON/GOFF-PLEASANT VIEW CHURCH ACT. BLDG","3398 FISHER RIDGE RD","","","KENNA","WV","25248","","","","54888346"
"DUNBAR CITY HALL"," 12TH ST","","","DUNBAR","WV","25064","","","","54888347"
"DUNBAR MIDDLE SCHOOL","325 27TH ST","","","DUNBAR","WV","25064","","","","54888348"
"DUNMORE COMMUNITY CENTER"," DUNMORE","","","DUNMORE","WV","24934","","","","54888349"
"DUPONT MIDDLE SCHOOL","301 WEST 34TH ST","","","BELLE","WV","25015","","","","54888350"
"DURBIN FIRE STATION","40 FOURTH AVENUE","","","DURBIN","WV","26264","","","","54888351"
"E.E.C. BUILDING   (STATE 4-H CAMP)","2614 JACKSON MILL RD","","","JANE LEW","WV","26378","","","","54888352"
"EAGLE SCHOOL INTERMEDIATE","730 EAGLE SCHOOL ROAD","","","MARTINSBURG","WV","25404","","","","54888353"
"EAST BANK MIDDLE SCHOOL"," P O BOX 499","","","EAST BANK","WV","25067","","","","54888354"
"EAST DALE ELEMENTARY SCHOOL"," MEADOWDALE","","","FAIRMONT","WV","26554","","","","54888355"
"EAST DALE ELEMENTARY SCHOOL"," MEADOWDALE","","","FAIRMONT","WV","26554","","","","54888356"
"EAST DALE ELEMENTARY SCHOOL"," MEADOWDALE","","","FAIRMONT","WV","26554","","","","54888357"
"EAST FAIRMONT JR HIGH GYM","1 ORION LANE","","","FAIRMONT","WV","26554","","","","54888358"
"EAST FORK INDUSTRIAL PARK","116 INDUSTRIAL PARK ROAD","","","FRANK","WV","24920","","","","54888359"
"EAST LYNN ELEMENTARY "," RT 37","","","EAST LYNN","WV","25512","","","","54888360"
"EAST LYNN ELEMENTARY CAFE "," RT 37","","","EAST LYNN","WV","25512","","","","54888361"
"EAST PARK ELEMENTARY SCHOL","1025 FAIRFAX ST","","","FAIRMONT","WV","26554","","","","54888362"
"EAST PARK ELEMENTARY SCHOOL","1025 FAIRFAX ST","","","FAIRMONT","WV","26554","","","","54888363"
"EAST PARK SCHOOL, RIGHT","1025 FAIRFAX ST","","","FAIRMONT","WV","26554","","","","54888364"
"EAST RIVER RURITAN IN OAKVALE"," PO BOX 14","","","KELLYSVILLE","WV","24732","","","","54888365"
"EASTBROOK ELEMENTARY SCHOOL","1600 BILLS CREEK ROAD","","","WINFIELD","WV","25213","","","","54888366"
"EASTBROOK ELEMENTARY SCHOOL","1600 BILLS CREEK ROAD","","","WINFIELD","WV","25213","","","","54888367"
"EBENEZER METHODIST CHURCH","3009 ROBERT RIDGE ROAD","","","MOUNDSVILLE","","26041","","","","54888368"
"EDISON MIDDLE SCHOOL","1201 HILLCREST ST","","","PARKERSBURG","WV","26101","","","","54888369"
"ELDON PERRY STORE "," BEECH FORK RD ","","","EAST LYNN","WV","25512","","","","54888370"
"ELEMENTARY SCHOOL","","","","","","","","","","54888371"
"ELEMENTARY SCHOOL PETERSTOWN","150 College Drive","","","Peterstown","WV","24963","","","","54888372"
"ELINOR HURT HEALTH CENTER","1602 HARPER ROAD","","","BECKLEY","WV","25801","","","","54888373"
"ELIZABETH","","","","","","","","","","54888374"
"ELIZABETH MEM. METHODIST","108 OAKWOOD RD","","","CHARLESTON","WV","25314","","","","54888375"
"ELK ELEMENTARY CENTER","3320 PENNSYLVANIA AVE","","","CHARLESTON","WV","25302","","","","54888376"
"ELK ELEMENTARY CENTER","3320 PENNSYLVANIA AVE","","","CHARLESTON","WV","25302","","","","54888377"
"ELK GARDEN SCHOOL"," ELK GARDEN","","","","WV","","","","","54888378"
"ELKINS MIDDLE SCHOOL","308 ROBERT E LEE AVENUE","","","ELKINS","WV","26241","","","","54888379"
"ELKINS MIDDLE SCHOOL","308 ROBERT E LEE AVENUE","","","ELKINS","WV","26241","","","","54888380"
"ELKVIEW MIDDLE SCHOOL","5090 NORTH ELK RIVER RD","","","ELKVIEW","WV","25071","","","","54888381"
"ELKVIEW MIDDLE SCHOOL","5090 NORTH ELK RIVER RD","","","ELKVIEW","WV","25071","","","","54888382"
"ELLENBORO-FIRE DEPT BSMT","103 E WASHINGTON STREET","","","ELLENBORO","WV","26346","","","","54888383"
"ELLENBORO-FIRE DEPT MAIN FL","103 E WASHINGTON STREET","","","ELLENBORO","WV","26346","","","","54888384"
"ELM GROVE CIVIC ASSOCIATION","21 SYCAMORE AVE","","","WHEELING","WV","26003","","","","54888385"
"EMERGENCY SQUAD BUILDING","155 WEST SECOND ST","","","WESTON","WV","26452","","","","54888386"
"EMERSON SCHOOL/GYM","1605 36TH ST","","","PARKERSBURG","WV","","","","","54888387"
"EMMANUEL BAPTIST CHURCH","1710 23RD STREET","","","PARKERSBURG","WV","26101","","","","54888388"
"ERBACON COMMUNITY BUILDING","5686 ERBACON ROAD","","","ERBACON","WV","26203","","","","54888389"
"EUREKA","5140 S. Pleasants Hwy.","","","St. Marys","WV","26170","","","","54888390"
"EVANS - EVANS ELEMENTARY SCHOOL","205 SCHOOL HOUSE DR","","","EVANS","WV","25241","","","","54888391"
"EXCELSIOR COMMUNITY BLDG","2296 Vegan Rd","","","Buckhannon","WV","26201","","","","54888392"
"EXCHANGE-WADE BELKNAP'S SAW MILL OFFICE"," HC 36","","","EXCHANGE","WV","26619","","","","54888393"
"FAIRDALE ELEMENTARY SCHOOL","772 BOLT ROAD","","","FAIRDALE","WV","25839","","","","54888394"
"FAIRMONT SENIOR HIGH FRESHMAN BLDG"," LOOP PARK","","","FAIRMONT","WV","26554","","","","54888395"
"FAIRMONT SENIOR HIGH FRSH BLDG"," LOOP PARK","","","FAIRMONT","WV","26554","","","","54888396"
"FAIRMONT SENIOR HIGH FRSH BLDG"," LOOP PARK","","","FAIRMONT","WV","26554","","","","54888397"
"FAIRPLAIN - FAIRPLAIN ELEMENTARY SCHOOL","51 PANTHER DR","","","RIPLEY","WV","25271","","","","54888398"
"FAIRPLAINS SCHOOL","615 BROADWAY AVE","","","PARKERSBURG","WV","","","","","54888399"
"FAIRVIEW ELEMENTARY SCHOOL IN"," SCHOOL STREET","","","FAIRVIEW","WV","26570","","","","54888400"
"FAIRVIEW MIDDLE SCHOOL"," FAIRVIEW","","","FAIRVIEW","WV","26570","","","","54888401"
"FAITH BAPTIST CHURCH","1637 FILES CROSS ROAD","","","MARTINSBRUG","WV","25404","","","","54888402"
"FALLS MILL COMMUNITY BUILDING","16442 GAULEY TPKE","","","IRELAND","WV","26376","","","","54888403"
"FALLS VIEW COMMUNITY CENTER","5407 MIDLAND TRAIL","","","FALLS VIEW","WV","25040","","","","54888404"
"FAMILY WORSHIP CENTER"," P.O","","","","WV","","","","","54888405"
"FARMINGTON FIRE HALL"," p o box 520","","","FARMINGTON","WV","26571","","","","54888406"
"FAYETTEVILLE MIDDLE SCHOOL","129 HIGH ST","","","FAYETTEVILLE ","WV","25840","","","","54888407"
"FELLOWSHIP BAPTIST CHURCH","3300 ROSEMAR ROAD","","","VIENNA","WV","","","","","54888408"
"FELLOWSHIP BIBLE CHURCH","193 HIGH STREET","","","CHARLES TOWN","WV","25414","","","","54888409"
"FELLOWSHIP BIBLE CHURCH","193 HIGH STREET","","","CHARLES TOWN","WV","25414","","","","54888410"
"FELLOWSHIP BIBLE CHURCH","107 CHERRY STREET","","","BECKLEY","WV","25801","","","","54888411"
"FELLOWSVILLE V F D","18 FIRE LOOP RD","","","TUNNELTON","WV","26444","","","","54888412"
"FENWICK MT/NEW HOPE COMM. BLDG"," NETTIE FENWICK ROAD","","","FENWICK ","WV","26202","","","","54888413"
"FETTERMAN METHODIST CHURCH"," W. Main St.","","","Grafton","WV","26354","","","","54888414"
"FEZ ","15 ROSEWOOD ROAD","","","HARTS","WV","25524","","","","54888415"
"FIREMENS CLUB"," MAIN STREET","","","WINDSOR HEIGHTS","WV","26075","","","","54888416"
"FIRST BAPTIST CHURCH","614 LONE OAK RD","","","RANSON","WV","25438","","","","54888417"
"FIRST PRESBYTERIAN CHURCH","201 KANAWHA TERRACE","","","ST ALBANS","WV","25177","","","","54888418"
"FIRST UNITED METHODIST CHURCH","905 GLENDALE AVE","","","SO CHARLESTON","WV","25303","","","","54888419"
"FIRST UNITED METHODIST CHURCH (FAMILY MINISTERIES CENTER)","100 CENTER ST","","","PRINCETON","WV","24740","","","","54888420"
"FLANAGAN HILL","90 BUTCHERS RIDGE ROAD","","","RED CREEK","WV","26289","","","","54888421"
"FLAT TOP POST OFFICE BUILDING"," FLAT TOP RD","","","FLAT TOP","","","","","","54888422"
"FLATWOODS SCHOOL","142 FLATWOODS CORNER RD","","","FLATWOODS","WV","26621","","","","54888423"
"FLEMINGTON GRADE SCHOOL","","","","","","","","","","54888424"
"FLINN ELEMENTARY","2006 MCCLURE PARKWAY","","","SISSONVILLE","WV","25312","","","","54888425"
"FLINN ELEMENTARY","2006 MCCLURE PARKWAY","","","SISSONVILLE","WV","25312","","","","54888426"
"FOLL. MID. SCH. FIELD HOUSE"," MARK AVENUE","","","FOLLANSBEE","WV","26037","","","","54888427"
"FOLL. MID. SCH. FIELD HOUSE"," MARK AVENUE","","","FOLLANSBEE","WV","26037","","","","54888428"
"FOLLANSBEE CITY BUILDING"," MAIN STREET","","","FOLLANSBEE","WV","26037","","","","54888429"
"FOLSOM FIRE DEPARTMENT"," RT 20","","","FOLSOM","","26348","","","","54888430"
"FOREST HILL VFD","16166 SR 12","","","FOREST HILL","WV","24935","","","","54888431"
"FORMAN SCHOOL","6973 PATTERSON CREEK RD","","","LAHMANSVILLE","WV","26731","","","","54888432"
"FORMER DOOLIN CREEK ANTIQUES"," DOOLIN","","","NEW MARTINSVILLE","","26155","","","","54888433"
"FORT ASHBY PRIMARY SCHOOL"," FORT ASHBY","","","","","","","","","54888434"
"FORT ASHBY PRIMARY SCHOOL"," FORT ASHBY","","","","","","","","","54888435"
"FORT GAY PRE-K - 8"," PARK STREET","","","FORT GAY","WV","25514","","","","54888436"
"FORT GAY PRE-K - 8"," PARK STREET","","","FORT GAY","WV","25514","","","","54888437"
"FRAMETOWN SCHOOL","96 JEANIE ELLIS DR","","","FRAMETOWN","WV","26623","","","","54888438"
"FRAMETOWN SCHOOL","96 JEANIE ELLIS DR","","","FRAMETOWN","WV","26623","","","","54888439"
"FRANKFORD ELEM. SCHOOL"," MAIN STREET","","","FRANKFORD","WV","","","","","54888440"
"FRANKFORT HIGH SCHOOL"," PATTERSON CREEK","","","PATTERSON CREEK","","","","","","54888441"
"FRANKFORT HIGH SCHOOL"," PATTERSON CREEK","","","PATTERSON CREEK","","","","","","54888442"
"FRANKFORT HIGH SCHOOL"," PATTERSON CREEK","","","PATTERSON CREEK","","","","","","54888443"
"FRANKLIN FIRE DEPARTMENT"," WASHINGTON PIKE","","","WELLSBURG","WV","26070","","","","54888444"
"FRANKLIN SCHOOL","1305 WASHINGTON PIKE","","","WELLSBURG","WV","26070","","","","54888445"
"FRAZIERS BOTTOM FIRE STATION","2051 US ROUTE 35","","","FRAZIERS BOTTOM","WV","25082","","","","54888446"
"FREEDOM PLACE 2","3720 MAIN STREET","","","WEIRTON","WV","","","","","54888447"
"FREEDOM PLACE 2","3720 MAIN STREET","","","WEIRTON","WV","","","","","54888448"
"FREEWILL BAPTIST CHURCH","","","","","","","","","","54888449"
"FRENCH CREEK SCHOOL"," RR 2 BOX 305","","","FRENCH CREEK","WV","26218","","","","54888450"
"FRENCH CREEK SCHOOL"," RR 2 BOX 305","","","FRENCH CREEK","WV","26218","","","","54888451"
"FRENCH CREEK SCHOOL"," RR 2 BOX 305","","","FRENCH CREEK","WV","26218","","","","54888452"
"FRIENDLY BAPTIST CHURCH"," State Route 2","","","Friendly","WV","26146","","","","54888453"
"FROST FIRE STATION","217 POCAHONTAS HIGHWAY","","","DUNMORE","WV","24934","","","","54888454"
"G W ELEMENTARY SCHOOL"," ELEANOR CIRCLE","","","ELEANOR","WV","25070","","","","54888455"
"G W MIDDLE SCHOOL"," RT 62 N ROOSEVELT BLVD","","","ELEANOR","WV","25070","","","","54888456"
"GAP MILLS SUBSTATION BLDG","56 Substation Road","","","Gap Mills","WV","24941","","","","54888457"
"GARNET ADULT CENTER","203 BRADFORD ST","","","CHARLESTON","WV","25301","","","","54888458"
"GARNET ADULT CENTER","203 BRADFORD ST","","","CHARLESTON","WV","25301","","","","54888459"
"GARRETTSBEND COMMUNITY CENTER","81 LINCOLN PANTHER WAY","","","HAMLIN","WV","25523","","","","54888460"
"GARY COMMUNITY ROOM"," PO BOX","","","","WV","","","","","54888461"
"GASSAWAY FIREHOUSE","105 5TH ST","","","GASSAWAY","WV","26624","","","","54888462"
"GASSAWAY MAYOR'S OFFICE","416 ELK ST","","","GASSAWAY","WV","26624","","","","54888463"
"GATEWOOD ELEMENTARY SCHOOL","5094 GATEWOOD RD","","","FAYETTEVILLE","WV","25840","","","","54888464"
"GAULEY BRIDGE ELEMENTARY"," RAILROAD ST","","","GAULEY BRIDGE","WV","","","","","54888465"
"GAULEY RIVER ELEMENTARY","100 SCHOOL STREET","","","CRAIGSVILLE","WV","26205","","","","54888466"
"GAULEY RIVER ELEMENTARY","100 SCHOOL STREET","","","CRAIGSVILLE","WV","26205","","","","54888467"
"GAULEY RIVER FIRE DEPARTMENT","215 GAULEY RIVER RD","","","GAULEY BRIDGE","WV","25085","","","","54888468"
"GAY - COMMUNITY CENTER OF GAY","1082 FAIRVIEW RD","","","GAY","WV","25244","","","","54888469"
"GEARY ELEMENTARY SCHOOL","9538 CLAY RD","","","LEFTHAND","WV","25251","","","","54888470"
"GENOA ELEMENTARY"," RT 152 ","","","GENOA","WV","25517","","","","54888471"
"GEORGE WASHINGTON HIGH","1522 TENNIS CLUB RD","","","CHARLESTON","WV","25314","","","","54888472"
"GEORGE WASHINGTON HIGH","1522 TENNIS CLUB RD","","","CHARLESTON","WV","25314","","","","54888473"
"GERRARDSTOWN ELEMENTARY SCHOOL","15 DOMINION ROAD","","","GERRARDSTOWN","WV","25420","","","","54888474"
"GET TOGETHER PICNIC GROUNDS","3934 KINGS CREEK ROAD-WEIRTON","","","WEIRTON","WV","26062","","","","54888475"
"GHENT ELEMENTARY SCHOOL","2750 FLAT TOP ROAD","","","GHENT","WV","25843","","","","54888476"
"GIHON SCHOOL/BACK HALL","2300 BELMONT RD","","","PARKERSBURG","WV","","","","","54888477"
"GIHON SCHOOL/MAIN HALL","2300 BELMONT RD","","","PARKERSBURG","WV","","","","","54888478"
"GILMER COUNTY HIGH SCHOOL COMMONS AREA","300 PINE STREET","","","GLENVILLE","","26351","","","","54888479"
"GILMER COUNTY HIGH SCHOOL LIBRARY","300 PINE STREET","","","GLENVILLE","WV","26351","","","","54888480"
"GIVEN/ROCKCASTLE/FAIRPLAIN ELEMENTARY ","51 PANTHER DR","","","RIPLEY","WV","25271","","","","54888481"
"GLADE CREEK ELEMENTARY","7950 WEBSTER ROAD","","","SUMMERSVILLE","WV","26651","","","","54888482"
"GLADE ELEMENTARY SCHOOL","25 MILL STREET","","","COWEN","WV","26206","","","","54888483"
"GLADE ELEMENTARY SCHOOL","25 MILL STREET","","","COWEN","WV","26206","","","","54888484"
"GLADESVILLE COMMUNITY BLDG","2929 GLADESVILLE RD","","","INDEPENDENCE","WV","26374","","","","54888485"
"GLASGOW CITY HALL","129 4TH AVE","","","GLASGOW","WV","25086","","","","54888486"
"GLEN DALE FIREMENS HALL"," SEVENTH ST","","","GLEN DALE","","26038","","","","54888487"
"GLEN DALE GRADE SCHOOL","407 SEVENTH ST","","","GLEN DALE","","26038","","","","54888488"
"GLENDALE-COMMUNITY BLDG"," OLD ROUTE 50","","","GLENDALE","WV","26337","","","","54888489"
"GLENVILLE    ELEMENTARY            SCHOOL CAFETERIA","454 VANHORN DRIVE","","","GLENVILLE","","26351","","","","54888490"
"GLENWOOD SCHOOL","1734 GLENWOOD PARK RD","","","PRINCETON","WV","24740","","","","54888491"
"GLENWOOD SCHOOL","1734 GLENWOOD PARK RD","","","PRINCETON","WV","24740","","","","54888492"
"GLENWOOD SCHOOL","1734 GLENWOOD PARK RD","","","PRINCETON","WV","24740","","","","54888493"
"GOOD SHEPHERD CHURCH","903 CHARLES ST","","","PARKERSBURG","WV","","","","","54888494"
"GRACE GOSPEL CHURCH","6239 PIKE ST","","","PARKERSBURG","WV","","","","","54888495"
"GRACEPOINTE FELLOWSHIP CHURCH","3662 HARPER ROAD","","","ECCLES","WV","","","","","54888496"
"GRADE SCHOOL","317 Washington St.","","","St. Marys","WV","26170","","","","54888497"
"GRAFTON HIGH SCHOOL ","400 Riverside Drive","","","grafton","WV","26354","","","","54888498"
"GRAFTON MOTEL","300 Moritz Ave.","","","Grafton","WV","26354","","","","54888499"
"GRAND VUE PARK - EVENTS BUILDING","250 TRAIL DR","","","MOUNDSVILLE","","26041","","","","54888500"
"GRANDVIEW DOOLIN PSD OFFICE"," RT 2","","","PROCTOR","","26055","","","","54888501"
"GRANDVIEW ELEMENTARY","959 WOODWARD DR","","","CHARLESTON","WV","25312","","","","54888502"
"GRANDVIEW ELEMENTARY","959 WOODWARD DR","","","CHARLESTON","WV","25312","","","","54888503"
"GRANDVIEW FIRE DEPARTMENT"," RT 89","","","GRANDVIEW","","","","","","54888504"
"GRANGEVILLE COMMUNITY BUILDING","30 glade fork road","","","WALLACE","WV","","","","","54888505"
"GRANT TOWN COMMUNITY BLD IN"," FLOYD ST","","","GRANT TOWN","WV","26574","","","","54888506"
"GRANT TOWN COMMUNITY BUILDING"," FLOYD ST","","","GRANT TOWN","WV","26574","","","","54888507"
"GRANTSVILLE VFD","341 S. CALHOUN HWY","","","GRANTSVILLE","WV","26147","","","","54888508"
"GRANVILLE VFD","305 MAIN STREET","","","GRANVILLE","WV","26534","","","","54888509"
"GRASSY LICK-KIRBY COMM. CENTER"," GRASSY LICK RD","","","KIRBY","WV","26729","","","","54888510"
"GRAYSVILLE COMMUNITY BLDG"," GRAYSVILLE RD","","","PROCTOR","WV","26055","","","","54888511"
"GREAT CACAPON ELEMENTARY"," SPRING STREET","","","GREAT CACAPON","WV","25422","","","","54888512"
"GREATER MT ZION PENTECOSTAL CHUR","104 PARK AVE","","","BLUEFIELD","WV","","","","","54888513"
"GREEN SPRING PARK","99 GREEN PARK ST","","","","WV","","","","","54888514"
"GREEN SULPHUR DIST. VFD","63 RIVER ROAD","","","SANDSTONE","WV","25985","","","","54888515"
"GREENMONT SCHOOL/RIVER ENT","209 58TH ST","","","VIENNA","WV","","","","","54888516"
"GREENMONT SCHOOL/RIVER ENT","209 58TH ST","","","VIENNA","WV","","","","","54888517"
"GREENVIEW/RAMAGE ELEMENTARY","15908 Spruce River Rd","","","Danville","WV","25053","","","","54888518"
"GREENWOOD ELEMENTARY SCHOOL","8989 WINCHESTER GRADE RD","","","BERKELEY SPRINGS","WV","25411","","","","54888519"
"GREENWOOD FIRE DEPARTMENT"," RT 1","","","GREENWOOD","WV","26456","","","","54888520"
"GUYAN VALLEY MIDDLE SCHOOL","2508 STRAIGHT FORK","","","ALKOL","WV","25501","","","","54888521"
"H.E. WHITE SCHOOL","501 BOMONT ROAD","","","BOMONT","WV","25030","","","","54888522"
"HACKER VALLEY GRADE SCHOOL","60 SCHOOL LOOP ROAD","","","HACKER VALLEY","WV","26222","","","","54888523"
"HACKERS CK PIONEER DESCENDANTS BLDG","45 ABBOTTS RUN ROAD","","","HORNER","WV","26372","","","","54888524"
"HAGANS CHRISTIAN CHURCH","1638 HAGANS ROAD","","","CORE","WV","26529","","","","54888525"
"HAMBLETON CITY HALL","105 FIFTH STREET","","","HAMBLETON","WV","26269","","","","54888526"
"HAMILTON MIDDLE SCHOOL/GYM","3501 CADILLAC DR","","","PARKERSBURG","WV","","","","","54888527"
"HAMILTON MIDDLE SCHOOL/GYM","3501 CADILLAC DR","","","PARKERSBURG","WV","","","","","54888528"
"HAMP. CO. HEALTH DEPT. BLDG.","","","","","","","","","","54888529"
"HAMPSHIRE HIGH SCHOOL","","","","","","","","","","54888530"
"HAMRICK PSD","70 SECOND STREET","","","HENDRICKS","WV","26271","","","","54888531"
"HANCOCK CO SENIOR CENTER","647 GAS VALLEY ROAD-NEW CUMBERLAND","","","NEW CUMBERLAND","WV","26047","","","","54888532"
"HANCOCK COUNTY SHELTERED WORKSHOP","1100 PENNSYLVANIA AVE-WEIRTON","","","WEIRTON","WV","26062","","","","54888533"
"HANDLEY COMMUNITY BLDG.","","","","","","","","","","54888534"
"HANNAN PUBLIC LIBRARY","9285 EVANS ROAD","","","LEON","WV","25123","","","","54888535"
"HANSFORD COMMUNITY CNTR","500 WASHINGTON ST","","","ST ALBANS","WV","25177","","","","54888536"
"HARPER HEIGHTS MISSIONARY BAPTIST CHURCH","131 BERLIN COURT","","","HARPER HEIGHTS","WV","","","","","54888537"
"HARPER MEM CHURCH ACTIVITY RM","789 JONES RIDGE","","","GANDEEVILLE","WV","25243","","","","54888538"
"HARPERS FERRY MIDDLE SCHOOL","1710 W WASHINGTON ST","","","HARPERS FERRY","WV","25425","","","","54888539"
"HARRISVILLE-COURT HOUSE","115 E MAIN STREET","","","HARRISVILLE","WV","26362","","","","54888540"
"HARRISVILLE-D.W.C. CENTER","134 S PENN AVENUE","","","HARRISVILLE","WV","26362","","","","54888541"
"HARRISVILLE-WOMANS/LIONS CLUB","121 W MAIN ST","","","HARRISVILLE","WV","26362","","","","54888542"
"HARTS PK-8TH","1606 GARRETTS BEND","","","SOD","WV","25564","","","","54888543"
"HATFIELD MCCOY ADMIN. BLDG","179 RITA MALL RD","","","LYBURN","WV","25632","","","","54888544"
"HAYES MIDDLE SCHOOL","830 STRAWBERRY RD","","","ST ALBANS","WV","25177","","","","54888545"
"HAYES MIDDLE SCHOOL","830 STRAWBERRY RD","","","ST ALBANS","WV","25177","","","","54888546"
"HC EMERG AMB AUTH BLDG","17940 STATE RD 55","","","BAKER","WV","26801","","","","54888547"
"HEAD START, COUNTRY CLUB ROAD"," COUNTRY CLUB RD","","","FAIRMONT","WV","26554","","","","54888548"
"HEALTH DEPARTMENT","739 N FORK HWY","","","PETERSBURG","WV","26847","","","","54888549"
"HEATERS COMMUNITY BUILDING","4350 GAULEY TPKE","","","HEATERS","WV","26627","","","","54888550"
"HEBRON","13522 Hebron Rd.","","","St. Marys","WV","26170","","","","54888551"
"HEIZER COM CHURCH ACT BLDG"," RR 1 HEIZER CREEK ROAD","","","POCA","WV","25159","","","","54888552"
"HEMLOCK/EASTWOOD-EASTWOOD SCHOOL","1 GRADE SCHOOL RD","","","RAVENSWOOD","WV","26164","","","","54888553"
"HENDERSON COMMUNITY BUILDING","23671 SANDHILL ROAD","","","LETART","WV","25253","","","","54888554"
"HENLAWSON VETS CENTER","155 VETERANS AVE","","","HENLAWSON","WV","25624","","","","54888555"
"HERBERT HOOVER HIGH","275 ELK RIVER RD S","","","CLENDENIN","WV","25045","","","","54888556"
"HEWETT/JEFFREY SPENCER ELEMENTARY","3277 Hewett Creek Road","","","Hewett","WV","25108","","","","54888557"
"HG ENERGY'S COPLEY TOOL HOUSE","9053 COPLEY RD","","","WESTON","WV","26452","","","","54888558"
"HICKMAN RUN SCHOOL - HEADSTART"," EAST GRAFTON RD","","","FAIRMONT","WV","26554","","","","54888559"
"HICKMAN RUN SCHOOL - HEADSTART"," EAST GRAFTON RD","","","FAIRMONT","WV","26554","","","","54888560"
"HIGH SCHOOL","1002 Second St.","","","St. Marys","WV","26170","","","","54888561"
"HIGH SCHOOL - NORTH"," Rt. 33","","","Franklin","","","","","","54888562"
"HIGH SCHOOL - RIPLEY HIGH SCHOOL","2 E SCHOOL ST","","","RIPLEY","WV","25271","","","","54888563"
"HIGH SCHOOL - SOUTH"," Rt. 33","","","Franklin","","","","","","54888564"
"HIGH SCHOOL CAFETERIA","1 PANTHER DRIVE","","","CLAY","WV","25043","","","","54888565"
"HIGH SCHOOL-RAVENSWOOD H S CAFETERIA","1 PLAZA DR","","","RAVENSWOOD","WV","26164","","","","54888566"
"HILLSBORO SCHOOL","7724  SENECA TRAIL","","","HILLSBORO","WV","24946","","","","54888567"
"HILLTOP BAPTIST CHURCH","320 FIRST AVENUE","","","MIDWAY","WV","25878","","","","54888568"
"HINTON AREA ELEM. SCHOOL","121 PARK AVENUE","","","HINTON","WV","25951","","","","54888569"
"HODGESVILLE GRADE SCHOOL"," RR 5 BOX 383","","","Buckhannon","WV","26201","","","","54888570"
"HODGESVILLE GRADE SCHOOL"," RR 5 BOX 383","","","Buckhannon","WV","26201","","","","54888571"
"HODGESVILLE GRADE SCHOOL"," RR 5 BOX 383","","","Buckhannon","WV","26201","","","","54888572"
"HOLDEN GRADE SCHOOL"," SCHOOL DRIVE","","","HOLDEN ","WV","25625","","","","54888573"
"HOLIDAY INN EXPRESS","4218 STATE ROUTE 34","","","HURRICANE","WV","25526","","","","54888574"
"HOLLYWOOD ELEMENTARY SCHOOL","412 OLD MILL ROAD","","","MACARTHUR","WV","25873","","","","54888575"
"HOLY CROSS UNITED METHODIST"," CARPENDALE","","","","WV","","","","","54888576"
"HOLZ ELEMENTARY","1505 HAMPTON RD","","","CHARLESTON","WV","25314","","","","54888577"
"HOME OF DENNIS SURBER","225  NEW RIVER DRIVE","","","HINTON","WV","25951","","","","54888578"
"HOMETOWN ELEMENTARY SCHOOL"," ROUTE 62","","","HOMETOWN","WV","25109","","","","54888579"
"HOMEWOOD FIRE HALL"," MEADOW AVE","","","MANNINGTON","WV","26582","","","","54888580"
"HOOVERSON HTS FIRE DEPT"," MAY ROAD","","","FOLLANSBEE","WV","26037","","","","54888581"
"HOOVERSON HTS FIRE DEPT"," MAY ROAD","","","FOLLANSBEE","WV","26037","","","","54888582"
"HOOVERSON HTS SCHOOL","200 ROCKDALE ROAD","","","FOLLANSBEE","WV","26037","","","","54888583"
"HOPEWELL CHURCH OF CHRIST","6985 HARRIS HIGHWAY","","","WASHINGTON","WV","26181","","","","54888584"
"HORACE MANN MIDDLE SCHOOL","4901 VENABLE AVE","","","CHARLESTON","WV","25304","","","","54888585"
"HORACE MANN MIDDLE SCHOOL","4901 VENABLE AVE","","","CHARLESTON","WV","25304","","","","54888586"
"HOUGH PARK COMMUNITY BUILDING","201 MAIN ST","","","MANNINGTON","WV","26582","","","","54888587"
"HUGH DINGESS GRADE SCL."," RR 1, BOX 607","","","HARTS","WV","","","","","54888588"
"HUNDRED HIGH SCHOOL"," RT 250","","","HUNDRED","WV","26575","","","","54888589"
"HUNTERSVILLE BAPTIST CHURCH","5837 HUNTERSVILLE RD","","","MARLINTON","WV","24954","","","","54888590"
"HURRICANE HIGH SCHOOL","3350 TEAYS VALLEY ROAD","","","HURRICANE","WV","25526","","","","54888591"
"HURRICANE MIDDLE SCHOOL","518 MIDLAND TRAIL","","","HURRICANE","WV","25526","","","","54888592"
"HURRICANE MIDDLE SCHOOL","518 MIDLAND TRAIL","","","HURRICANE","WV","25526","","","","54888593"
"HURRICANE MIDDLE SCHOOL","518 MIDLAND TRAIL","","","HURRICANE","WV","25526","","","","54888594"
"HURRICANE MIDDLE SCHOOL","518 MIDLAND TRAIL","","","HURRICANE","WV","25526","","","","54888595"
"HUTCHINSON COMMUNITY BUILDING","9 SUNRISE STREET","","","WORTHINGTON","WV","26591","","","","54888596"
"IDAMAY COMMUNITY BUILDING"," MAIN ST","","","IDAMAY","WV","26576","","","","54888597"
"INDIAN RUN-COM. OF CHRIST(CHURCH)"," INDIAN CREEK ROAD","","","HARRISVILLE","WV","26362","","","","54888598"
"INT. BROTHERHOOD E. WORKERS","800  INDINANA AVE","","","CHARLESTON","WV","25302","","","","54888599"
"IRELAND COMMUNITY BUILDING","65 COMMUNITY DRIVE","","","IRELAND","WV","26376","","","","54888600"
"ISLAND HILL CHURCH COMMUNITY BUILDING"," RR 1 BOX 74A","","","PAW PAW","WV","25434","","","","54888601"
"J. E. HITT GARAGE","441 US HWY 19 NORTH","","","JANE LEW","WV","26378","","","","54888602"
"J. HARPER MEREDITH BUILDING","200 JACKSON ST","","","FAIRMONT","","26554","","","","54888603"
"JACKSON MEMORIAL COMMUNITY ASSOC., INC.","6161 MAIN ST","","","JANE LEW","WV","26378","","","","54888604"
"JACKSON MILL FIRE DEPARTMENT","3000 JACKSON MILL RD","","","WESTON","WV","26452","","","","54888605"
"JACKSONBURG FIRE DEPARTMENT"," RT 20","","","JACKSONBURG","","26377","","","","54888606"
"JAKES RUN ASSEM OF GOD FAM/YOUTH CTR","1790 JAKES RUN ROAD","","","FAIRVIEW","WV","26570","","","","54888607"
"JAMES BUSH'S STORE BUILDING"," ROUTE 1 BOX 157","","","LIBERTY","WV","25124","","","","54888608"
"JAMES RUMSEY VO TECH","3274 HEDGESVILLE ROAD","","","MARTINSBURG","WV","25403","","","","54888609"
"JAMES RUMSEY VO TECH","3274 HEDGESVILLE ROAD","","","MARTINSBURG","WV","25403","","","","54888610"
"JANE LEW FIRE DEPARTMENT","52 HACKERS CREEK RD","","","JANE LEW","WV","26378","","","","54888611"
"Janes Memorial U M Church"," RT. 250 FAIRMONT RD.","","","FAIRMONT","WV","26554","","","","54888612"
"JARRETT TERRACE","824 CENTRAL AVE","","","CHARLESTON","WV","25302","","","","54888613"
"JAYENNE ELEMENTARY SCHOOL"," COUNTRY CLUB ROAD","","","FAIRMONT","WV","26554","","","","54888614"
"JEFFERSON ACADEMY ","449  ROSE HILL DR","","","KEARNEYSVILLE","WV","25430","","","","54888615"
"JEFFERSON ACADEMY","449  ROSE HILL DR","","","KEARNEYSVILLE","WV","25430","","","","54888616"
"JEFFERSON HIGH SCHOOL","4141 FLOWING SPRINGS RD","","","SHENANDOAH JCT","WV","25442","","","","54888617"
"JEFFERSON SCHOOL","1098 JEFFERSON STREET","","","FOLLANSBEE","WV","26037","","","","54888618"
"JEFFERSON VOL FIRE DEPT","6313 MACCORKLE AVE","","","ST ALBANS","WV","25177","","","","54888619"
"JEFFREY/SPRUCE RIVER COMMUNITY CENTER","18044 Spruce River Road","","","Jeffrey","WV","25114","","","","54888620"
"JENNINGS RANDOLPH","101 SCOTT FORD ROAD","","","ELKINS","WV","26241","","","","54888621"
"JENNINGS RANDOLPH","101 SCOTT FORD ROAD","","","ELKINS","WV","26241","","","","54888622"
"JERSEY MOUNTAIN RURITAN CLUB","","","","","","","","","","54888623"
"JOHN CORNWELL SCHOOL","","","","","","","","","","54888624"
"JOHN MARSHALL HIGH SCHOOL","1300 WHEELING AVE","","","GLEN DALE","WV","26038","","","","54888625"
"JOHNSTON CHAPEL HALLS RIDGE","984 HALLS RIDGE RD","","","PRINCETON","WV","","","","","54888626"
"JR ORDER UNITED AMER.MECHANICS LODGE","1643 PITZERS CHAPEL ROAD","","","MARTINSBURG","WV","25403","","","","54888627"
"JULIAN BAPTIST CHURCH","180 LORY CHURCH ROAD","","","JULIAN","WV","25529","","","","54888628"
"JUMBO COMMUNITY BUILDING","13 LAUREL FORK ROAD","","","WEBSTER SPRINGS","WV","26288","","","","54888629"
"JUMPING BRANCH SCHOOL","6617 BEECH RUN ROAD","","","JUMPING BRANCH","WV","25969","","","","54888630"
"JUNIOR ELEMENTARY SCHOOL","","","","","","","","","","54888631"
"JUSTICE GRADE SCHOOL","407  CIRCLE ROAD","","","LOGAN","WV","25601","","","","54888632"
"KABLETOWN METHODIST CHURCH","3481 KABLETOWN RD","","","CHARLES TOWN","WV","25414","","","","54888633"
"KANAWHA CHAS. HEALTH DEPT","108 LEE ST E","","","CHARLESTON","WV","25301","","","","54888634"
"KANAWHA CITY ELEMENTARY","3601 STAUNTON AVE","","","CHARLESTON","WV","25304","","","","54888635"
"KANAWHA CITY ELEMENTARY","3601 STAUNTON AVE","","","CHARLESTON","WV","25304","","","","54888636"
"KANAWHA DRIVE COMMUNITY BUILDING","3611 WV HWY 5W","","","GLENVILLE","WV","26351","","","","54888637"
"KANAWHA SCHOOL/CAFE","6465 STAUNTON TPK","","","DAVISVILLE","WV","","","","","54888638"
"KANAWHA SCHOOL/CAFE","6465 STAUNTON TPK","","","DAVISVILLE","WV","","","","","54888639"
"KASSON MIDDLE SCHOOL","","","","","","","","","","54888640"
"KEGLEY BAPTIST CHURCH"," P O BOX 129","","","KEGLEY","WV","","","","","54888641"
"KELLOGG ELEMENTARY","4415 PIEDMONT RD ","","","HUNTINGTON","WV","25701","","","","54888642"
"KENNA - KENNA ELEMENTARY SCHOOL","275 BUSINESS PARK DR","","","KENNA","WV","25248","","","","54888643"
"KENNA ELEMENTARY","198 EUREKA RD","","","CHARLESTON","WV","25314","","","","54888644"
"KENNA ELEMENTARY","198 EUREKA RD","","","CHARLESTON","WV","25314","","","","54888645"
"KENNA HOMES COMM. CENTER","410  KENNA DR","","","SO CHARLESTON","WV","25309","","","","54888646"
"Kenova Vol. Fire Dept.","1600 PINE STREET","","","KENOVA","WV","25530","","","","54888647"
"KESLERS CROSS LANES KCL FR. ST","1635 SUMMERSVILLE LAKE ROAD","","","KESLERS CROSS LANES ","WV","26675","","","","54888648"
"KEYSER PRESBYTERIAN CHURCH"," MINERAL STREET","","","KEYSER","","","","","","54888649"
"KEYSTONE FIRE DEPARTMENT","","","","","","","","","","54888650"
"KIMBALL ELEMENTARY SCHOOL","","","","","","","","","","54888651"
"KIMBERLY ELEMENTARY SCHOOL","1367 ARMSTRONG CRK RD","","","KIMBERLY ","WV","25118","","","","54888652"
"LAKE COMMUNITY CENTER","935 LAKE","","","LAKE","WV","25121","","","","54888653"
"LAKEWOOD ELEMENTARY","2089 LAKEWOOD DR","","","ST ALBANS","WV","25177","","","","54888654"
"LAKEWOOD ELEMENTARY","2089 LAKEWOOD DR","","","ST ALBANS","WV","25177","","","","54888655"
"LAKEWOOD ELEMENTARY","2089 LAKEWOOD DR","","","ST ALBANS","WV","25177","","","","54888656"
"LANDES RURITAN BUILDING","5337 FRANKLIN PIKE","","","PETERSBUG","WV","26847","","","","54888657"
"LAUREL PT METH CH - FELL HALL","2416 FAIRMONT ROAD","","","MORGANTOWN","WV","26501","","","","54888658"
"LAVALETTE ELEMENTARY "," BEECH FORK RD ","","","LAVALETTE","WV","25535","","","","54888659"
"LAVALETTE FIRE STATION "," RT 152, 8TH ST RD ","","","LAVALETTE ","WV","25535","","","","54888660"
"LAVALETTE FIRE STATION "," RT 152, 8TH ST RD ","","","LAVALETTE ","WV","25535","","","","54888661"
"LAWRENCEFIELD CHAPEL"," TABLE ROCK LN","","","WHEELING","WV","26003","","","","54888662"
"LAWRENCEVILLE FIRE DEPARTMENT","616 PYRAMUS-CHESTER","","","CHESTER","WV","26034","","","","54888663"
"LEETOWN METHODIST CHURCH","11133 LEETOWN RD","","","KEARNEYSVILLE","WV","25430","","","","54888664"
"LEIVASY PEOPLES PLACE","135  HINKLE O'DELL ROAD ","","","LEIVASY","WV","26676","","","","54888665"
"LEMON & BARRETT'S","1117 BROADWAY AVE","","","PARKERSBURG","","","","","","54888666"
"LENOX COMMUNITY CTR","10782 BRANDONVILLE PKE","","","ALBRIGHT","WV","26519","","","","54888667"
"LESTER ELEMENTARY SCHOOL","1970  LESTER HIGHWAY","","","LESTER","WV","25865","","","","54888668"
"LEWIS COUNTY HIGH SCHOOL","205 MINUTEMAN DRIVE","","","WESTON","WV","26452","","","","54888669"
"LEWIS FOUNDATION COMM. CTR","469 CENTRAL AVE","","","OAK HILL ","WV","25901","","","","54888670"
"LEWIS FOUNDATION COMM. CTR","469 CENTRAL AVE","","","OAK HILL ","WV","25901","","","","54888671"
"LEWISBURG UNITED METHODIST CHURCH/46","214 EAST WASHINGTON ST","","","LEWISBURG","WV","24901","","","","54888672"
"LEWISBURG UNITED METHODIST CHURCH/PRECINCT45","214 EAST WASHINGTON ST","","","LEWISBURG","WV","24901","","","","54888673"
"LIBERTY CHAPEL CHURCH","","","","","","","","","","54888674"
"LIBERTY HIGH SCHOOL","1700 COAL RIVER ROAD","","","GLEN DANIEL","WV","25844","","","","54888675"
"LICK CREEK BAPTIST CHURCH","12807 N SR 20","","","MEADOW BRIDGE","WV","25966","","","","54888676"
"LICK CRK/BOONE CO HEALTH DEPARTMENT","213 Kenmore Drive","","","Danville","WV","25053","","","","54888677"
"LIGHTHOUSE BAPTIST YOUTH CENTER","151 SCHOOL STREET","","","IVYDALE","WV","25113","","","","54888678"
"LIMESTONE COMMUNITY CENTER","5572 WAYNESBURG PIKE RD","","","MOUNDSVILLE","","26041","","","","54888679"
"LINCOLN CO. HIGH SCHOOL","1246 MCCLELLAN HWY","","","HARTS","WV","25524","","","","54888680"
"LINDEN LODGE","1841 LINDEN RD","","","LOONEYVILLE","WV","25259","","","","54888681"
"LINDSIDE SENIOR CENTER","8395 SENECA TRAIL SOUTH","","","LINDSIDE","WV","24951","","","","54888682"
"LITTLE BIRCH SCHOOL","55 LITTLE BIRCH RD","","","SUTTON","WV","26601","","","","54888683"
"LITTLE LAUREL RUN COMM BLD"," RT 1 BOX 406 FARMINGTON","","","FARMINGTON","WV","26571","","","","54888684"
"LITTLE SEWELL BAPTIST CHURCH"," CRAIG RD","","","","","","","","","54888685"
"LITTLE SPARROW MINISTRIES","","","","","","","","","","54888686"
"LIZEMORE GYM","72 LIZEMORE LIONS ROAD","","","LIZEMORES","WV","25125","","","","54888687"
"LOCAL UNION HALL"," CANNELTON HOLLOW RD","","","CANNELTON","WV","25036","","","","54888688"
"LOCKWOOD/FAIRVIEW BAPTIST CHURCH","13424 TURNPIKE ROAD ","","","SUMMERSVILLE ","WV","26651","","","","54888689"
"LOFTIS FIRE STATION"," 515 EDENS FORK RD","","","CHARLESTON","WV","25312","","","","54888690"
"LOGAN MIDDLE SCHOOL","14  WILDCAT WAY ","","","LOGAN","WV","25601","","","","54888691"
"LOOP CREEK FIRE DEPARTMENT","12588 DEEPWATER MTN RD","","","ROBSON","WV","25173","","","","54888692"
"LORADO HEAD START BLDG"," SUPERINTENDENT ROAD","","","LORADO","WV","25630","","","","54888693"
"LOUDENDALE COMMUNITY CENTER"," RT 2 BOX 266 B","","","CHARLESTON","WV","25314","","","","54888694"
"LOVE ASSEMBLY OF GOD CHURCH YOUTH CENTER"," 522 SOUTH","","","BERKELEY SPRINGS","WV","25411","","","","54888695"
"LOW GAP/MADISON ELEMENTARY","150 Josephine Ave","","","Madison","WV","25130","","","","54888696"
"LOWER SETH/SHERMAN JR HIGH SCHOOL","9846 COAL RIVER ROAD","","","SETH","WV","25181","","","","54888697"
"LUBECK  SCHOOL/GYM","206 LUBECK RD","","","PARKERSBURG","WV","26101","","","","54888698"
"LUBECK SCHOOL/GYM","206 LUBECK RD","","","PARKERSBURG","WV","26101","","","","54888699"
"LUCRETIA PRESCHOOL","25 EULA ST","","","GRAFTON","WV","26354","","","","54888700"
"LUTHERAN CHURCH","196 NORTH ST RT 2","","","NEW MARTINSVILLE","","26155","","","","54888701"
"LYNN VALLEY/ODAVILLE-GILMORE GRADE SCHOOL","7412 PARKERSBURG RD","","","SANDYVILLE","WV","25275","","","","54888702"
"MABSCOTT ELEMENTARY SCHOOL","104 PERSHING AVENUE","","","MABSCOTT","WV","25871","","","","54888703"
"MADAMS CREEK MT. OLIVET CHURCH","2291 MADAMS CREEK ROAD","","","HINTON","WV","25951","","","","54888704"
"MADISON SCHOOL","1426 32ND ST","","","PARKERSBURG","WV","","","","","54888705"
"MADISON/MADISON COURTHOUSE","200 State Street","","","Madison","WV","25130","","","","54888706"
"MADISON/VETERAN'S MEMORIAL BLDG","269 Washington Ave","","","Madison","WV","25130","","","","54888707"
"MALDEN ELEMENTARY","4001 SALINAS DR","","","CHARLESTON","WV","25306","","","","54888708"
"MALDEN ELEMENTARY","4001 SALINAS DR","","","CHARLESTON","WV","25306","","","","54888709"
"MAMMOTH ADVENT CHRISTIAN CHURCH","","","","","","","","","","54888710"
"MAN CITY HALL","","","","","","","","","","54888711"
"MANILA / SCHOOL TRUCK DRIVING ACADEMY","193 Academy Drive","","","Chapmanville","WV","25508","","","","54888712"
"MANNINGTON CITY HALL","206 EAST MAIN ST","","","MANNINGTON","WV","26582","","","","54888713"
"MANNINGTON FIRE HALL","591 Dudley Fork Road","","","MANNINGTON","WV","26582","","","","54888714"
"MANNINGTON MIDDLE SCHOOL"," MANNINGTON","","","MANNINGTON","WV","26582","","","","54888715"
"MARLINTON ELEM SCHOOL","400 9TH STREET","","","MARLINTON","WV","24954","","","","54888716"
"MARLINTON MIDDLE SCHOOL","#1 COPPERHEAD RD","","","BUCKEYE","WV","24924","","","","54888717"
"MARLOWE ELEMENTARY SCHOOL","5308 WILLIAMSPORT PIKE","","","FALLING WATERS","WV","25419","","","","54888718"
"MARLOWE ELEMENTARY SCHOOL","5308 WILLIAMSPORT PIKE","","","FALLING WATERS","WV","25419","","","","54888719"
"MARMET RECREATION BUILDING","8405  MACCORKLE AVE","","","MARMET","WV","25315","","","","54888720"
"MARSH FORK ELEMENTARY","5960 COAL RIVER ROAD","","","ROCK CREEK","WV","25174","","","","54888721"
"MARSHALL COUNTY COURTHOUSE"," 7TH ST AT COURT AVENUE","","","MOUNDSVILLE","WV","26041","","","","54888722"
"MARTINSBURG HIGH SCHOOL","701 S QUEEN STREET","","","MARTINSBURG","WV","25401","","","","54888723"
"MARY INGLES ELEM"," P O BOX 367","","","TAD","WV","25201","","","","54888724"
"MASONIC HALL","303 NORTH MARY STREET","","","HEDGESVILLE","WV","25427","","","","54888725"
"MASONTOWN VOL FIRE DEPT","362 N MAIN ST","","","MASONTOWN","WV","26542","","","","54888726"
"MATHIAS BAKER FIRE HOUSE","12412 STATE ROAD 259","","","MATHIAS","WV","26812","","","","54888727"
"MATHIAS OLD SCHOOL HOUSE","56 Ruritan Dr","","","Mathias","WV","26812","","","","54888728"
"MATOAKA COMM REC CENTER"," P O BOX 528","","","MATOAKA","WV","24736","","","","54888729"
"MAXWELL ACRES COMM BLDG"," MAXWELL ACRES","","","MOUNDSVILLE","WV","26041","","","","54888730"
"MAXWELL HILL ELEMENTARY SCHOOL","1001  MAXWELL HILL ROAD","","","BECKLEY","WV","25801","","","","54888731"
"MAXWELTON/ PRESBYTERIAN CHURCH"," PO BOX 200","","","MAXWELTON","WV","","","","","54888732"
"MAYSVILLE SCHOOL - SOUTH","21 ELEMENTARY SCHOOL DR","","","MAYSVILLE","WV","26833","","","","54888733"
"MCCLELLAN FIRE DEPARTMENT"," RT 23","","","CENTER POINT","WV","26339","","","","54888734"
"MCKINLEYVILLE FIRE CLUB"," RD 1 BOX 142B","","","WELLSBURG","WV","26070","","","","54888735"
"MEADOW BRIDGE HIGH SCHOOL"," RT 20","","","MEADOW BRIDGE","WV","","","","","54888736"
"MELROSE SCHOOL ATHENS ROAD"," HC 71 BOX 257","","","PRINCETON","WV","24739","","","","54888737"
"MEMORIAL BUILDING","95 WISEMAN AVE","","","FAYETTEVILLE","WV","25840","","","","54888738"
"MEMORIAL BUILDING"," WEST MAIN","","","PRINCETON","WV","24740","","","","54888739"
"MEMORIAL ELEMENTARY SCHOOL","319 MEMORIAL AVE","","","BLUEFIELD","WV","24701","","","","54888740"
"METHODIST CHURCH, WELLSBURG"," 11TH & CHARLES STREETS","","","WELLSBURG","WV","26070","","","","54888741"
"METZ COMMUNITY BUILDING","334 States fork road","","","mannington","WV","26582","","","","54888742"
"MICHAEL MOTORS ","2764 STATE ST","","","GASSAWAY","WV","26624","","","","54888743"
"Mid Ohio Valley Technical Institute","2134 N. Pleasants Hwy.","","","St. Marys","WV","26170","","","","54888744"
"MIDDLE SCHOOL PETERSTOWN","56 College Drive","","","Peterstown","WV","24963","","","","54888745"
"MIDDLEBOURNE FIRE HALL","311 MAIN STREET","","","MIDDLEBOURNE","WV","26175","","","","54888746"
"MIDDLEBOURNE STEALEY GREEN CEN"," Dodd Street","","","Middlebourne","WV","26149","","","","54888747"
"MIDLAND TRAIL ELEM. SCHOOL","200 FERRY ST","","","DIAMOND","WV","25015","","","","54888748"
"MIDLAND TRAIL HIGH SCHOOL","26719 MIDLAND TRAIL","","","HICO","WV","25854","","","","54888749"
"MIDWAY GRADE SCHOOL ","","","","","","","","","","54888750"
"MIDWAY MOTEL"," PO BOX 286","","","FAYETTEVILLE","WV","25840","","","","54888751"
"MILHOAN-COLEMAN CHAPEL CHURCH ACT. BLDG","200 MILHOAN RIDGE RD","","","RAVENSWOOD","WV","26164","","","","54888752"
"MILL CREEK - RIPLEY HIGH SCHOOL ANNEX","2 E SCHOOL ST","","","RIPLEY","WV","25271","","","","54888753"
"MILL CREEK INTERMEDIATE SCHOOL","105 PRIDE AVENUE","","","BUNKER HILL","WV","25413","","","","54888754"
"MILL CREEK RURITAN CLUB","","","","","","","","","","54888755"
"MILLSOP SCHOOL"," LEGION & sWEARINGEN RD","","","WEIRTON","WV","26062","","","","54888756"
"MINERAL WELLS INN","201 HOSPITALITY LN","","","MINERAL WELLS","","26150","","","","54888757"
"MINERAL WELLS SCHOOL/CAFE","1776 ELIZABETH PIKE","","","MINERAL WELLS","WV","26150","","","","54888758"
"MINERAL WELLS SCHOOL/CAFE","1776 ELIZABETH PIKE","","","MINERAL WELLS","WV","26150","","","","54888759"
"MINERAL WELLS SCHOOL/GYM","1776 ELIZABETH PIKE","","","MINERAL WELLS","WV","26150","","","","54888760"
"MINERAL WELLS SCHOOL/GYM","1776 ELIZABETH PIKE","","","MINERAL WELLS","WV","26150","","","","54888761"
"MITCHELL HEIGHTS CITY HALL","305  CENTRAL AVENUE","","","LOGAN","WV","25601","","","","54888762"
"MOBLEY SCHOOL HOUSE"," RT 15","","","MOBLEY","","","","","","54888763"
"MONAVILLE GRADE SCHOOL BLDG","66  SCHOOL STREET","","","LOGAN","WV","25601","","","","54888764"
"MONONGAH ELEMENTARY SCHOOL"," MONONGAH","","","MONONGAH","WV","26554","","","","54888765"
"MONONGAH FIRE HALL"," BRIDGE ST","","","MONONGAH","","26554","","","","54888766"
"MONONGAH GRADE SCHOOL"," MONONGAH","","","MONONGAH","WV","26554","","","","54888767"
"MONTANA IMPROVEMENT BUILDING"," MAIN STREET","","","MONTANA MINES","WV","26586","","","","54888768"
"MONTCALM ELEM SCHOOL"," RT 2 BOX 35","","","ROCK","WV","24747","","","","54888769"
"MONTCALM HIGH SCHOOL","710 SIMMONS RIVER RD","","","MONTCALM","WV","","","","","54888770"
"MONTGOMERY CITY HALL","706 3RD AVE","","","MONTGOMERY","WV","25136","","","","54888771"
"MONTROSE ELEMENTARY","631  MONTROSE DR","","","SO CHARLESTON","WV","25303","","","","54888772"
"MOOREFIELD LIBRARY","102 N MAIN ST","","","MOOREFIELD","WV","26836","","","","54888773"
"MOOREFIELD LIBRARY","102 N MAIN ST","","","MOOREFIELD","WV","26836","","","","54888774"
"MORGAN COUNTY COURTHOUSE","77 FAIRFAX STREET","","","BERKELEY SPRINGS","WV","25411","","","","54888775"
"MORGANTOWN FAITH CENTER"," BLUE HORIZON RD","","","MORGANTOWN","WV","26504","","","","54888776"
"MORNING STAR BAPTIST CHURCH","100 MCKINNEY STREET","","","FAIRMONT","WV","2654","","","","54888777"
"MORRISTOWN","","","","","","","","","","54888778"
"MORRISVALE COMMUNITY CENTER","6492 Horse Creek Road","","","Morrisvale","WV","25053","","","","54888779"
"MOUNDSVILLE BAPTIST CHURCH","1911 FOURTH ST","","","MOUNDSVILLE","","26041","","","","54888780"
"MOUNT CALVARY BAPTIST","1509 BIGLEY AVE","","","CHARLESTON","WV","25302","","","","54888781"
"MOUNT CALVARY BAPTIST","1509 BIGLEY AVE","","","CHARLESTON","WV","25302","","","","54888782"
"MOUNT HOPE ELEMENTARY SCHOOL","408 LINCOLN ST","","","MOUNT HOPE ","WV","25880","","","","54888783"
"MOUNT HOPE FIRE DEPARTMENT","644 RT 211","","","MOUNT HOPE","WV","","","","","54888784"
"MOUNTAIN HEIGHTS CHURCH","1201 CHESTNUT ST","","","SO CHARLESTON","WV","25309","","","","54888785"
"MOUNTAIN RIDGE INTERMEDIATE","2691 GERRARDSTOWN ROAD","","","GERRARDSTOWN","WV","25420","","","","54888786"
"MOUNTAIN VIEW ELEMENTARY SCHOOL","3967 TEAYS VALLEY ROAD","","","HURRICANE","WV","25526","","","","54888787"
"MOUNTAIN VIEW ELEMENTARY SCHOOL","3967 TEAYS VALLEY ROAD","","","HURRICANE","WV","25526","","","","54888788"
"MOUNTAIN VIEW SCHOOL","121 MOUNTAIN VIEW DRIVE","","","UNION","WV","24983","","","","54888789"
"MOUNTAINVIEW ELEMENTARY SCHOOL","661 GREENBAG ROAD","","","MORGANTOWN","WV","26508","","","","54888790"
"MOVR AIRPORT/GENERAL AVIATION BLDG","554 AIRPORT RD","","","PARKERSBURG","WV","","","","","54888791"
"MT ALTO - COTTAGEVILLE FIRE DEPARTMENT","15 FIREHOUSE LN","","","COTTAGEVILLE","WV","25239","","","","54888792"
"MT CARMEL BUILDING","2354 PATTERSON CREEK RD","","","PETERSBURG","WV","26847","","","","54888793"
"MT LOOKOUT ELEMENTARY","1945  MT LOOKOUT ROAD ","","","MT LOOKOUT ","WV","26678","","","","54888794"
"MT NEBO ELEMENTARY","11- SCHOOL HOUSE LANE ","","","MT NEBO","WV","26679","","","","54888795"
"MT PLEASANT U M CH-FELLOWSHIP HALL"," KINGWOOD PIKE","","","MORGANTOWN","WV","26508","","","","54888796"
"MT VERNON ELEMENTARY SCHOOL","","","","","","","","","","54888797"
"MT. ALEXANDER FELLOWSHIP HALL","8625 KNOBS ROAD","","","UNION","WV","24983","","","","54888798"
"MT. HOPE COMMUNITY BUILDING","22 GABBYS LANE","","","CAMERON","","26033","","","","54888799"
"MT. OLIVET METHODIST CHURCH","500 FAIRMONT PIKE","","","WHEELING","","26003","","","","54888800"
"MT. PLEASANT PRESB. CHURCH","585 FORT SPRING ROAD","","","SINKS GROVE","WV","24976","","","","54888801"
"MT. TOP COMMUNITY CENTER","16521 GEORGE WASHINGTON HWY","","","MT. STORM","WV","26739","","","","54888802"
"MUDDLETY/NICH. CO. HIGH SCHOOL","30 GRIZZLY LANE","","","SUMMERSVILLE ","WV","26651","","","","54888803"
"MUNDAY","","","","","","","","","","54888804"
"MURPHYTOWN DAV","938 LITTLE STILLWELL RD","","","DAVISVILLE","WV","","","","","54888805"
"N. RAVENSWOOD-HENRY J. KAISER ELEM. SCHOOL","803 KAISER AVE","","","RAVENSWOOD","WV","26164","","","","54888806"
"NATIONAL GUARD ARMORY","207 EAST MAIN ST","","","SPENCER","WV","25276","","","","54888807"
"NATIONAL NEW LIFE CHURCH OF GOD","94 UNION CHURCH HOLLOW RD","","","MORGANTOWN","WV","26501","","","","54888808"
"NATIONAL PARK SERVICE","42 MAIN ST ","","","GLEN JEAN","WV","25846","","","","54888809"
"NAZARENE CHURCH","20874 SENECA TRAIL","","","MARLINTON","WV","24954","","","","54888810"
"NAZARENE CHURCH OAKVALE ROAD","317 OAKVALE RD","","","PRINCETON","WV","","","","","54888811"
"NEALE SCHOOL/GYM","2305 GRAND CENTRAL AVE","","","VIENNA","WV","","","","","54888812"
"NEALE SCHOOL/GYM","2305 GRAND CENTRAL AVE","","","VIENNA","WV","","","","","54888813"
"NELLIS ELEMENTARY ","179 Memorial Drive","","","Nellis","WV","25142","","","","54888814"
"NEMOURS RURITAN BLDG"," P O BOX 113","","","NEMOURS","WV","24738","","","","54888815"
"NETTIE/PANTHER CRK ELEMENTARY","10068 CANVAS NETTIE ROAD","","","NETTIE","WV","26681","","","","54888816"
"NEW CORA FIRE DEPARTMENT","415 LIPPY DAMRON LANE","","","HOLDEN","WV","25625","","","","54888817"
"NEW CREEK SCHOOL"," NEW CREEK","","","","","","","","","54888818"
"NEW CREEK SCHOOL"," NEW CREEK","","","","","","","","","54888819"
"NEW FARMINGTON COMMUNITY BLDG"," MAIN ST","","","FARMINGTON","WV","26571","","","","54888820"
"NEW HOPE BAPTIST CHURCH","1777 ROSEMAR RD","","","PARKERSBURG","WV","","","","","54888821"
"NEW MANCHESTER ELEMENTARY SCHOOL","128 FRANKFORT ROAD-NEW CUMBERLAND","","","NEW CUMBERLAND","WV","26047","","","","54888822"
"NEW MANCHESTER FIRE DEPT","193 HIGH ST-NEW MANCHESTER","","","NEW MANCHESTER","WV","26056","","","","54888823"
"NEW MARTINSVILLE CH. OF GOD","1249 NORTH ST RT 2","","","NEW MARTINSVILLE","","26155","","","","54888824"
"NEW MARTINSVILLE SCHOOL"," RT 2","","","NEW MARTINSVILLE","WV","26155","","","","54888825"
"NEW PROSPECT BAPTIST CHURCH","1853 SWEENEYSBURG ROAD","","","BECKLEY","WV","25801","","","","54888826"
"NEW SALEM UNITED METHODIST CHURCH"," ROUTE 20","","","BLUEFIELD","WV","24701","","","","54888827"
"NEWARK","","","","","","","","","","54888828"
"NEWBURG SENIOR CENTER","36 MORGANTOWN AVE","","","NEWBURG","WV","26410","","","","54888829"
"NEWTON COMMUNITY BLDG","12330 CLAY RD","","","NEWTON","WV","25266","","","","54888830"
"NEWVILLE D&D AUCTION","2610 AIRPORT RD","","","SUTTON","WV","26601","","","","54888831"
"NINE MILE","6454 Pike Rd.","","","St. Marys","WV","26170","","","","54888832"
"NITRO ELEMENTARY"," 2ND & 23RD","","","NITRO","WV","25143","","","","54888833"
"NITRO HIGH SCHOOL","1921 19TH ST","","","NITRO","WV","25143","","","","54888834"
"NORMAN JOHNSON GARAGE","5086 WIDEN RIDGE ROAD","","","HARRISON","WV","25063","","","","54888835"
"NORMANTOWN SCHOOL PRESCHOOL ROOM            ","10223 US HWY 33W","","","NORMANTOWN","","25267","","","","54888836"
"NORTH BERKELEY GRADE SCHOOL","219  HARRISON AVENUE","","","BERKELEY SPRINGS","WV","25411","","","","54888837"
"NORTH CHARLESTON REC. CENTER","2009 7TH  AVE","","","CHARLESTON","WV","25312","","","","54888838"
"NORTH ELEMENTARY SCH-COMMONS","825 CHESTNUT RIDGE ROAD","","","MORGANTOWN","WV","26505","","","","54888839"
"NORTH ELIZABETH","","","","","","","","","","54888840"
"NORTH JEFFERSON ELEMENTARY","6996 CHARLES TOWN RD","","","KEARNEYSVILLE","WV","25430","","","","54888841"
"NORTH MIDDLE SCHOOL","250 EAST ROAD","","","MARTINSBURG","WV","25404","","","","54888842"
"NORTHFORK CITY HALL","","","","","","","","","","54888843"
"NUTTALL FIRE DEPT. ","28895 MIDLAND TRAIL","","","HICO ","WV","25854","","","","54888844"
"O.H. CHURCH OF THE NAZARENE ANNEX","3249 E. MAIN ST","","","OAK HILL","WV","25901","","","","54888845"
"OAKLAND FIRE DEPT","1604 WYLIE RIDGE ROAD-WEIRTON","","","WEIRTON","WV","26062","","","","54888846"
"OAKLAND METHODIST CHURCH","70 OAKLAND TER","","","CHARLES TOWN","WV","25414","","","","54888847"
"OGLEBAY PARK PAR 3"," OGLEBAY PARK","","","WHEELING","WV","26003","","","","54888848"
"OHIO VALLEY - JACKSON COUNTY AIRPORT","912 AIRPORT RD","","","MILLWOOD","WV","25262","","","","54888849"
"OLD FIELDS BAPTIST CHURCH","5406 US HIGHWAY 220 N","","","OLD FIELDS","WV","26845","","","","54888850"
"OLD GLORY FREEWILL BAPTIST C.","","","","","","","","","","54888851"
"OLD HIGH SCHOOL - RAVENSWOOD MIDDLE SCHOOL","409 SYCAMORE ST","","","RAVENSWOOD","WV","26164","","","","54888852"
"OLD RIO SCHOOLHOUSE","","","","","","","","","","54888853"
"OLD SCHOOL BLDG WILLOWTON","621 WILLOWTON RD","","","PRINCETON","WV","","","","","54888854"
"OLD SCHOOL BOZOO","2654 PINHOOK ROAD","","","PETERSTOWN","WV","24983","","","","54888855"
"OLD SCHOOL WAITEVILLE","1735 RAYS SIDING ROAD","","","WAITEVILLE","WV","24984","","","","54888856"
"OLD SQUIRE SCHOOL","","","","","","","","","","54888857"
"OLD WESTMORELAND MIDDLE SCHOOL ","3609 HUGHES STREET ","","","HUNTINGTON","WV","25701","","","","54888858"
"OLD WESTMORELAND MIDDLE SCHOOL","3609 HUGHES STREET ","","","HUNTINGTON","WV","25701","","","","54888859"
"OLIVE UNITED METH CH - ANNEX","4404 MASON DIXON HIGHWAY","","","PENTRESS","WV","26544","","","","54888860"
"OMAR GRADE SCHOOL"," RT 44 JERRY WEST HIGHWAY","","","OMAR","WV","25638","","","","54888861"
"OPEN DOOR BAPTIST CHURCH","87B ELDERSVILLE ROAD","","","COLLIERS","WV","26035","","","","54888862"
"OPEN DOOR BAPTIST CHURCH","87B ELDERSVILLE ROAD","","","COLLIERS","WV","26035","","","","54888863"
"OPEQUON ELEMENTARY SCHOOL","395 EAST ROAD","","","MARTINSBURG","WV","25404","","","","54888864"
"ORCHARD VIEW INTERMEDIATE","703 PORTER AVENUE","","","MARTINSBURG","WV","25401","","","","54888865"
"ORGAS COMMUNITY CENTER","22654 Coal River Road","","","Orgas","WV","25148","","","","54888866"
"OTTAWA/SPRUCE RIVER COMMUNITY CENTER","18044 Spruce River Road","","","Jeffrey","WV","25114","","","","54888867"
"OTTERBEIN UNITED METHODIST","549 NORTH QUEEN STREET","","","MARTINSBURG","WV","25404","","","","54888868"
"OUR LADY OF PEACE CENTER","640 OLD FAIRMONT PIKE","","","WHEELING","","26003","","","","54888869"
"OVERBROOK ELEMENTARY","218 OAKWOOD RD","","","CHARLESTON","WV","25314","","","","54888870"
"OVERBROOK ELEMENTARY","218 OAKWOOD RD","","","CHARLESTON","WV","25314","","","","54888871"
"OVERBROOK ELEMENTARY","218 OAKWOOD RD","","","CHARLESTON","WV","25314","","","","54888872"
"OXFORD GRANGE HALL"," RT 1","","","WEST UNION","WV","26456","","","","54888873"
"PADEN CITY (WETZEL-TYLER HEALTH DEPT.)","425 S 4TH AVENUE","","","PADEN CITY","WV","26159","","","","54888874"
"PADEN CITY GRADE SCHOOL"," NORTH 2ND AVE","","","PADEN CITY","WV","26159","","","","54888875"
"PAGE ELEMENTARY SCHOOL","8292 DEEPWATER MTN RD","","","KINCAID ","WV","25119","","","","54888876"
"PAGETON UNITED METHODIST CHURCH"," PO BOX","","","","WV","","","","","54888877"
"PALESTINE","","","","","","","","","","54888878"
"PANTHER FIRE DEPARTMENT"," P.O. BOX","","","PANTHER","WV","24872","","","","54888879"
"PARADISE COVE COMMUNITY BLDG"," Knottsville Road","","","Grafton","WV","26354","","","","54888880"
"PARK MIDDLE SCHOOL","212 PARK AVENUE","","","BECKLEY","WV","25801","","","","54888881"
"PARKLAND TERRACE COMM. BLDG","508 GREENWAY AVE","","","SO CHARLESTON","WV","25309","","","","54888882"
"PAW PAW ELEMENTARY SCHOOL","422 MOSER AVENUE","","","PAW PAW ","WV","25434","","","","54888883"
"PAX CITY HALL","88 CENTER ST","","","MOUNT HOPE ","WV","25880","","","","54888884"
"PEE WEE","","","","","","","","","","54888885"
"PENCE SPRINGS AIRPORT OFFICE","113 AIRPORT DRIVE","","","PENCE SPRINGS","WV","24962","","","","54888886"
"PENNINGTON BUILDING","24 PENNINGTON PLACE","","","LANSING ","WV","25862","","","","54888887"
"PENNSBORO-CREED COLLINS SCHOOL"," COLLINS AVENUE","","","PENNSBORO","WV","26415","","","","54888888"
"PENNSBORO-LIBRARY BUILDING","411 MAIN STREET","","","HARRISVILLE","WV","26362","","","","54888889"
"PENNSBORO-WOMANS CLUB"," MASONIC AVENUE","","","PENNSBORO","WV","26415","","","","54888890"
"PERRY MEMORIAL UNITED METHODIST CHURCH","202 LIVINGSTON STREET","","","SHADY SPRING","WV","25918","","","","54888891"
"PERU COMM CENTER","110 PERU HOLLOW RD","","","MOOREFIELD","WV","26836","","","","54888892"
"PETERSON - CENTRAL SCHOOL","509 BERLIN RD","","","WESTON","WV","26452","","","","54888893"
"PEYTONA CHURCH OF CHRIST"," 23967 Daniel Boone Parkway","","","Peytona","WV","25058","","","","54888894"
"PHILIP BARBOUR HIGH SCHOOL","","","","","","","","","","54888895"
"PHILIPPI ELEMENTARY SCHOOL"," MANSFIELD","","","","","","","","","54888896"
"PHILIPPI MIDDLE SCHOOL","","","","","","","","","","54888897"
"PIEDMONT HI-RISE COMMUNITY RM","","","","","","","","","","54888898"
"PIKEVIEW HIGH SCHOOL","3566 EADS MILL RD","","","PRINCETON","WV","24739","","","","54888899"
"PINCH ELEMENTARY","330 PINCH RD","","","ELKVIEW","WV","25071","","","","54888900"
"PINCH ELEMENTARY","330 PINCH RD","","","ELKVIEW","WV","25071","","","","54888901"
"PINE GROVE VALLEY HIGH SCHOOL"," RT 20 1 Lumberjack Lane","","","PINE GROVE","WV","26419","","","","54888902"
"PINEY VIEW BIBLE CHURCH","2034  STANAFORD ROAD","","","PINEY VIEW","WV","","","","","54888903"
"PINOAK COMMUNITY BUILDING","2847 BEESON RD","","","LASHMEET","WV","24733","","","","54888904"
"PIONEER","590 Shadow Hill Rd.","","","St. Marys","WV","26170","","","","54888905"
"PIPESTEM VOL. FIRE DEPARTMENT","229 BROADWAY ROAD","","","PIPESTEM","WV","25979","","","","54888906"
"PKSBG HIGH SCHOOL/CAFE","2101 DUDLEY AVE","","","PARKERSBURG","WV","","","","","54888907"
"PKSBG/WOOD COUNTY LIBRARY","3100 EMERSON AVE","","","PARKERSBURG","WV","26104","","","","54888908"
"PLEASANT HILL SCHOOL","3254 N. CALHOUN HWY","","","GRANTSVILLE","WV","26147","","","","54888909"
"PLEASANT HILL SCHOOL","3254 N. CALHOUN HWY","","","GRANTSVILLE","WV","26147","","","","54888910"
"PLEASANT VALLEY ELEMENTARY SCH"," MILLERSVILLE","","","FAIRMONT","WV","26554","","","","54888911"
"PLEASANT VALLEY MUNICIPAL BLDG","2340 KINGMONT RD","","","FAIRMONT","WV","26554","","","","54888912"
"PLEASANT VIEW ELEMENTARY","10500  MARTINSBURG ROAD","","","HEDGESVILLE","WV","25427","","","","54888913"
"PLUM RUN COMMUNITY BUILDING"," RT 3 BOX 220","","","MANNINGTON","WV","26585","","","","54888914"
"POCA MIDDLE SCHOOL CAFETERIA","162 MAIN STREET","","","POCA","WV","25159","","","","54888915"
"POCKETS GAME ROOM","104 KEESE DRIVE","","","HELEN","WV","","","","","54888916"
"POINT HARMONY ELEMENTARY","5312 BIG TYLER RD","","","CROSS LANES","WV","25313","","","","54888917"
"POINT HARMONY ELEMENTARY","5312 BIG TYLER RD","","","CROSS LANES","WV","25313","","","","54888918"
"POINT HARMONY ELEMENTARY","5312 BIG TYLER RD","","","CROSS LANES","WV","25313","","","","54888919"
"POINT PLEASANT CHURCH","53 BELL HILL ROAD-NEW CUMBERLAND","","","NEW CUMBERLAND","WV","26047","","","","54888920"
"POLICE RESERVE, WAVE TEC PARK"," P O BOX 1258","","","FAIRMONT","WV","26554","","","","54888921"
"POLICE RESERVE-WAVE TEC POOL"," P O BOX 1258","","","FAIRMONT","WV","26555","","","","54888922"
"POND CREEK VOL FIRE DEPT","6096 POND CREEK RD","","","BELLEVILLE","WV","26133","","","","54888923"
"POTOMAC HEIGHTS COMMUNITY ROOM"," NORTH DAVIS STREET","","","KEYSER","","","","","","54888924"
"PRATT ELEMENTARY SCHOOL"," P O BOX 36","","","PRATT","WV","25162","","","","54888925"
"PRATT TOWN HALL","","","","","","","","","","54888926"
"PRICETOWN FIRE DEPARTMENT","1667 US HIGHWAY 33 WEST","","","WESTON","WV","26452","","","","54888927"
"PRICHARD ELEMENTARY "," SCHOOL ROAD","","","PRICHARD","WV","25555","","","","54888928"
"PRICHARD ELEMENTARY GYM"," SCHOOL RD ","","","PRICHARD ","WV","25555","","","","54888929"
"PRIDE BUILDING","699 STRATTON STREET","","","LOGAN","WV","25601","","","","54888930"
"PRIDE OF GREEN/BILLY HOWELL SR. GARAGE"," RT 7","","","NEW MARTINSVILLE","","26155","","","","54888931"
"PRINCETON APOSTOLIC CHURCH","106 THORN ST","","","PRINCETON","WV","","","","","54888932"
"PRINCETON JR HIGH SCHOOL","300 N JOHNSTON ST","","","PRINCETON","WV","24740","","","","54888933"
"PRINCETON PRESBYTERIAN CHURCH","1809 MAIN ST","","","PRINCETON","WV","","","","","54888934"
"QUICK AREA COMM. CENTER","","","","","","","","","","54888935"
"Quiet Dell Community Bldg"," RT 6 BOX189","","","FAIRMONT","WV","26554","","","","54888936"
"RACHEL DOWNS COMMUNITY BLDG"," P O BOX 143","","","RACHEL","WV","26587","","","","54888937"
"RACINE COMMUNITY CENTER","446 John Slack Circle","","","Racine","WV","25165","","","","54888938"
"RAINELLE CITY HALL/PRECINCT 65"," PO BOX 684","","","RAINELLE","WV","25962","","","","54888939"
"RAINELLE ELEMENTARY/PRECINCT 52","701 KANAWHA AVENUE","","","RAINELLE","WV","","","","","54888940"
"RALEIGH COUNTY COURTHOUSE","215 MAIN STREET","","","BECKLEY","WV","25801","","","","54888941"
"RALEIGH-BOONE TECHNICAL CTR","11823 COAL RIVER ROAD","","","PETTUS","WV","","","","","54888942"
"RALPH R. WILLIS VOC SCHOOL","144  VOCATIONAL ROAD","","","STOLLINGS","WV","25646","","","","54888943"
"RALPH R. WILLIS VOC SCHOOL","144  VOCATIONAL ROAD","","","STOLLINGS","WV","25646","","","","54888944"
"RAMER SCHOOL","515 WEST MARTIN STREET","","","MARTINSBURG","WV","25401","","","","54888945"
"RAND COMMUNITY CENTER","5701 CHURCH DR","","","CHARLESTON","WV","25306","","","","54888946"
"RANGER GRADE SCHOOL ","5304 STRAIGHT FORK","","","GRIFFITHSVILLE","WV","25521","","","","54888947"
"RANSON ELEMENTARY SCHOOL","600 N PRESTON ST","","","RANSON","WV","25438","","","","54888948"
"RARDIN - LITTLE SANDY COMMUNITY BUILDING","6051 LITTLE SANDY RD","","","RAVENSWOOD","WV","26164","","","","54888949"
"RAYMOND LASURE HOME"," RT 20","","","PORTERS FALLS","","26162","","","","54888950"
"RAYSAL FIRE DEPT."," PO","","","","WV","","","","","54888951"
"RBMS--VOCATIONAL BLDG","325 EAST THIRD STREET","","","WESTON","WV","26452","","","","54888952"
"READER- SHORTLINE SCHOOL"," RT 20","","","READER","WV","26167","","","","54888953"
"REAL LIFE CHURCH","385 MID AVENUE","","","WESTON","WV","26452","","","","54888954"
"RED HILL UM CHURCH/BASEMENT","162 RED HILL CHURCH RD","","","PARKERSBURG","WV","","","","","54888955"
"REEDY COMMUNITY BLDG","126 MAIN ST","","","REEDY","WV","25276","","","","54888956"
"REEDY ELEMENTARY SCHOOL","66 ROOSEVELT ST","","","REEDY","WV","25270","","","","54888957"
"REFLECTIONS DR REFAB OFFICE","49  REFLECTION DRIVE","","","STOLLINGS","WV","25646","","","","54888958"
"RENICK FIRE HOUSE"," MAIN STREET","","","","","","","","","54888959"
"RESA III BLDG","3942 39TH STREET EAST","","","NITRO","WV","25143","","","","54888960"
"RHODELL TOWN HALL","7312 COAL CITY ROAD","","","RHODELL","WV","25915","","","","54888961"
"RICHLANDS CALVARY UNITED METHODIST CHURCH"," MAIN STREET","","","RICHLANDS","WV","","","","","54888962"
"RICHMOND ELEMENTARY","4620 SPRING HILL AVE","","","SO CHARLESTON","WV","25309","","","","54888963"
"RICHWOOD CHERRY RIVER ELEM.","190 RIVERSIDE DRIVE","","","RICHWOOD","WV","26202","","","","54888964"
"RICHWOOD CITY HALL","6  WHITE AVENUE","","","RICHWOOD","WV","26261","","","","54888965"
"RICHWOOD HIGH SCHOOL","one VALLEY AVENUE","","","RICHWOOD","WV","26261","","","","54888966"
"RIDGELEY SENIOR CENTER"," RIDGELEY","","","","","","","","","54888967"
"RIDGEWAY COMMUNITY CENTER","41 SPECKS RUN ROAD","","","BUNKER HILL","WV","25413","","","","54888968"
"RIG CIVIC CENTER","3805 RIG RD","","","MOOREFIELD","","26836","","","","54888969"
"RIVESVILLE COMMUNITY BUILDING"," JASPER STREET","","","RIVESVILLE","WV","26588","","","","54888970"
"RIVESVILLE UNITED METHODIST CH"," JASPER ST","","","RIVESVILLE","WV","26588","","","","54888971"
"RIVESVILLE VOLUNTEER FIRE DEPT"," JACKSON ST","","","RIVESVILLE","WV","26588","","","","54888972"
"ROANE COUNTY HIGH SCHOOL","1 RAIDER WAY","","","SPENCER","WV","25276","","","","54888973"
"ROANE COUNTY LIBRARY","110 PARKING PLAZA","","","SPENCER","WV","25276","","","","54888974"
"ROANE GENERAL HOSPITAL","200 HOSPITAL DR","","","SPENCER","WV","25276","","","","54888975"
"ROANOKE SCHOOL","1176 OIL CREEK RD","","","ROANOKE","WV","26447","","","","54888976"
"ROCK BRANCH ELEMENTARY","4616 FIRST AVENUE","","","NITRO","WV","25143","","","","54888977"
"ROCK CAVE GRADE SCHOOL","12292 RT 20 South Rd","","","Rock Cave","WV","26234","","","","54888978"
"ROCK FORGE PRESBYTERIAN CHURCH","3085 EARL L CORE ROAD","","","MORGANTOWN","","26508","","","","54888979"
"ROCK LAKE PRESBY CHURCH","905 VILLAGE DR","","","SO CHARLESTON","WV","25309","","","","54888980"
"ROCKPORT CHURCH OF CHRIST","7173 SOUTHERN HWY","","","ROCKPORT","WV","26169","","","","54888981"
"RODERFIELD FIRE DEPARTMENT","","","","","","","","","","54888982"
"ROLLINS - NEW RIPLEY CITY BUILDING - UPSTAIRS","203 S CHURCH ST","","","RIPLEY","WV","25271","","","","54888983"
"ROMNEY ELEMENTARY SCHOOL","","","","","","","","","","54888984"
"ROMNEY FIRE COMPANY","","","","","","","","","","54888985"
"ROMNEY SENIOR CENTER","280 SCHOOL ST","","","ROMNEY","WV","26757","","","","54888986"
"RONCEVERTE CITY HALL","200 W MAIN ST","","","RONCEVERTE","WV","24970","","","","54888987"
"RONCEVERTE LIONS REC. CENTER"," MAIN STREET","","","","","","","","","54888988"
"ROOSEVELT GRADE SCHOOL","1458 FAIRGROUND ROAD","","","POINT PLEASANT","WV","25550","","","","54888989"
"ROSEDALE ALLIANCE CHURCH BUILDING","11751 ROSEDALE RD","","","ROSEDALE","","26636","","","","54888990"
"ROSEDALE ELEMENTARY SCHOOL","3950 SUMMERLEE RD","","","OAK HILL","WV","25901","","","","54888991"
"ROSEMAR UM CHURCH","1272 ROSEMAR ROAD","","","VIENNA","WV","","","","","54888992"
"ROSEMONT ELEMENTARY SCHOOL","301 SOUTH ALABAMA AVENUE","","","MARTINSBURG","WV","25401","","","","54888993"
"ROUTE 34 FIRE STATION"," ROUTE 1 ","","","RED HOUSE","WV","25168","","","","54888994"
"ROXALANA GOSPEL TAB. ACTIVITY BLDG."," STEELE ST","","","","WV","","","","","54888995"
"ROXALANA GOSPEL TAB. ACTIVITY BLDG."," STEELE ST","","","","WV","","","","","54888996"
"ROYAL BAPTIST CHURCH CAPELS WV","","","","","","","","","","54888997"
"RUFFNER ELEMENTARY","809 LITZ DR","","","CHARLESTON","WV","25311","","","","54888998"
"RUPERT COMM. CENTER"," PO BOX J","","","RUPERT","WV","","","","","54888999"
"RURITAN BUILDING","","","","","","","","","","54889000"
"RUSK-PETROLEUM COMMUNITY BLDG"," CISCO ROAD","","","PETROLEUM","WV","26161","","","","54889001"
"RUTHLAWN ELEMENTARY"," RT 8 BOX 428","","","SO CHARLESTON","WV","25309","","","","54889002"
"RUTHLAWN ELEMENTARY"," RT 8 BOX 428","","","SO CHARLESTON","WV","25309","","","","54889003"
"SABRATON BAPTIST CHURCH","1641 SABRATON AVENUE","","","MORGANTOWN","WV","26531","","","","54889004"
"SACRED HEART CATH CHURCH ANNEX"," P O BOX 608","","","BLUEFIELD","WV","","","","","54889005"
"SACRED HEART CATHOLIC CHURCH","","","","","","","","","","54889006"
"SAINT LUKE'S UNITED METHODIST","700 NEW YORK AVENUE","","","MARTINSBURG","WV","25401","","","","54889007"
"SALVATION ARMY","301 TENNESSEE AVE","","","CHARLESTON","WV","25302","","","","54889008"
"SALVATION ARMY BUILDING"," P O BOX 1090","","","PRINCETON","WV","24740","","","","54889009"
"SAND FORK   ELEMENTARY   SCHOOL CAFETERIA","65 SCHOOL DRIVE","","","SAND FORK","","26430","","","","54889010"
"SANDY RIVER MIDDLE SCHOOL","","","","","","","","","","54889011"
"SANDYVILLE - GILMORE GRADE SCHOOL","7412 PARKERSBURG RD","","","SANDYVILLE","WV","25275","","","","54889012"
"SCARBRO ELEMENTARY SCHOOL","93 HAMBRICK RD","","","SCARBRO","WV","25917","","","","54889013"
"SCHERR SCHOOL HOUSE","278 OLEN KIMBLE STORE RD","","","SCHERR","WV","26726","","","","54889014"
"SCHMUCKER SCHOOL HOUSE"," RT. 33","","","","WV","","","","","54889015"
"SCHOOL HOUSE - SUNSHINE SCHOOL","409 SYCAMORE ST","","","RAVENSWOOD","WV","26164","","","","54889016"
"SCHOOLHOUSE-NEW RIP.CTY BLDG-DWNSTAIRS","203 S CHURCH ST","","","RIPLEY","WV","25271","","","","54889017"
"SCHULTZ","4726 Cow Creek Rd.","","","St. Marys","WV","26170","","","","54889018"
"SCOTT TEAYS ELEMENTARY SCHOOL","4308 TEAYS VALLEY ROAD","","","SCOTT DEPOT","WV","25560","","","","54889019"
"SCOTT TEAYS ELEMENTARY SCHOOL","4308 TEAYS VALLEY ROAD","","","SCOTT DEPOT","WV","25560","","","","54889020"
"SCOTT TEAYS ELEMENTARY SCHOOL","4308 TEAYS VALLEY ROAD","","","SCOTT DEPOT","WV","25560","","","","54889021"
"SCOTT TEAYS ELEMENTARY SCHOOL","4308 TEAYS VALLEY ROAD","","","SCOTT DEPOT","WV","25560","","","","54889022"
"SCOTT'S RUN SETTLEMENT HOUSE"," SCHOOL STREET","","","OSAGE","WV","26543","","","","54889023"
"SCOTT'S RUN VFD (CASSVILLE)"," MASON DIXON HIGHWAY","","","CASSVILLE","WV","26527","","","","54889024"
"SECOND CREEK PENTECOSTAL HOLIN"," SECOND CREEK ROAD","","","SECOND CREEK","WV","24974","","","","54889025"
"SELBYVILLE FIRE DEPARTMENT"," HC 78 Box 59","","","Selbyville","WV","26236","","","","54889026"
"SENECA ROCKS FIREHOUSE"," State Route 21","","","BRANDYWINE","","","","","","54889027"
"SENECA TRAIL COMM. CENTER","34443 SENECA TRAIL","","","SLATYFORK","WV","26291","","","","54889028"
"SENG CR/WHITESVILLE JR HIGH SCHOOL","37949 COAL RIVER ROAD","","","WHITESVILLE","WV","25209","","","","54889029"
"SENIOR CENTER","103 W 5TH AVE","","","RANSON","WV","25438","","","","54889030"
"SENIOR CITIZENS BUILDING","105 MARKET STREET","","","GRNTSVILLE","WV","26147","","","","54889031"
"SERVIA FIRE DEPARTMENT","2126 SERVIA ELMIRA RD","","","DUCK","WV","25063","","","","54889032"
"SHADY GROVE CHURCH OF BRETHREN","21 SHADY GROVE RD","","","BRUCETON MILLS","WV","26525","","","","54889033"
"SHADY SPRING HIGH SCHOOL","600 FLAT TOP ROAD","","","SHADY SPRING","WV","25918","","","","54889034"
"SHADY SPRING HIGH SCHOOL","600 FLAT TOP ROAD","","","SHADY SPRING","WV","25918","","","","54889035"
"SHARON DAWES ELEMENTARY"," P O BOX 149","","","MIAMI","WV","25134","","","","54889036"
"SHARPLES FIRE DEPARTMENT"," RT 17 BEECH FORK ROAD ","","","SHARPLES","WV","25183","","","","54889037"
"SHEPHERDSTOWN ELEMENTARY","662 S CHURCH ST","","","SHEPHERDSTOWN","WV","25443","","","","54889038"
"SHEPHERDSTOWN FIRE HALL","8052 MARTINSBURG PIKE","","","SHEPHERDSTOWN","WV","25443","","","","54889039"
"SHEPHERDSTOWN FIRE HALL","8052 MARTINSBURG PIKE","","","SHEPHERDSTOWN","WV","25443","","","","54889040"
"SHERMAN ELEMENTARY","7487 Coal River Road","","","Comfort","WV","25049","","","","54889041"
"SHERRARD MIDDLE SCHOOL"," RT 250","","","WHEELING","WV","26003","","","","54889042"
"SHIRLEY VOLUNTEER FIRE DEPARTMENT"," State Route 23","","","SHIRLEY","WV","26434","","","","54889043"
"SHOALS ELEMENTARY","100 DUTCH RD","","","CHARLESTON","WV","25302","","","","54889044"
"SHOALS ELEMENTARY","100 DUTCH RD","","","CHARLESTON","WV","25302","","","","54889045"
"SHORT CREEK METHODIST CHURCH"," NORTH FORK RD","","","WHEELING","WV","26003","","","","54889046"
"SILVER SPGS ELEM SCHOOL","821 BROADWAY ST","","","PRINCETON","WV","24740","","","","54889047"
"SILVERTON - SILVERTON FIRE DEPARTMENT","3562 GREENHILLS RD","","","RAVENSWOOD","WV","26164","","","","54889048"
"SISSONVILLE HIGH","6100 SISSONVILLE DR","","","CHARLESTON","WV","25312","","","","54889049"
"SISSONVILLE HIGH","6100 SISSONVILLE DR","","","CHARLESTON","WV","25312","","","","54889050"
"SISTERSVILLE CHURCH OF CHRIST"," Oxford Street","","","Sistersville","WV","26175","","","","54889051"
"SISTERSVILLE METHODIST CHURCH","610 MAIN STREET","","","SISTERSVILLE","WV","26175","","","","54889052"
"SLANESVILLE FIRE COMPANY","","","","","","","","","","54889053"
"SLANESVILLE RURITAN CLUB BLDG.","","","","","","","","","","54889054"
"SMITH COMMUNITY BUILDING"," RT 1","","","TROY","WV","","","","","54889055"
"SMITHBURG UNITED METH. CHURCH","","","","","","","","","","54889056"
"SMITHERS CITY HALL"," N COURT ST","","","FAYETTEVILLE","WV","","","","","54889057"
"SMITHTOWN SCH COMMUNITY CENTER","3835 SMITHTOWN ROAD","","","FAIRMONT","WV","26554","","","","54889058"
"SMITHVILLE-COMMUNITY BLDG"," STATE ROUTE 47","","","SMITHVILLE","WV","26178","","","","54889059"
"SO CHAS., COMM. CENTER","601 JEFFERSON RD","","","SO CHARLESTON","WV","25309","","","","54889060"
"SOPHIA-SOAK CREEK ELEMENTARY SCHOOL","200  MILL STREET","","","SOPHIA","WV","25921","","","","54889061"
"SOUTH CHARLESTON CITY ANNEX"," D ST","","","SO CHARLESTON","WV","25303","","","","54889062"
"SOUTH CHARLESTON SANITARY BD","1 ROCKCREST DR","","","SO CHARLESTON","WV","25309","","","","54889063"
"SOUTH MIDDLE SCHOOL","150 BULLDOG BLVD","","","MARTINSBURG","WV","25401","","","","54889064"
"SOUTH SIDE DEPOT","126  S. MAIN ST","","","PETERSBURG","WV","26847","","","","54889065"
"SOUTHERN WV COMMUNITY COLLEGE"," MUD FORD ROAD","","","LOGAN ","WV","25601","","","","54889066"
"SOUTHSIDE COMM CENTER BUILDING","27635 CHARLESTON ROAD","","","LEON","WV","25123","","","","54889067"
"SPANISHBURG SCHOOL","8544 BECKLEY RD","","","SPANISHBURG","WV","25922","","","","54889068"
"SPENCER COA BLDG","811 MADISON AVE","","","SPENCER","WV","25276","","","","54889069"
"SPENCER COMMUNITY BLDG","110 CHURCH ST","","","SPENCER","WV","25276","","","","54889070"
"SPENCER MIDDLE SCHOOL"," BOWMAN ST","","","SPENCER","WV","25276","","","","54889071"
"SPENCER/ROANE FIRE DEPT","209 EAST MAIN ST","","","SPENCER","WV","25276","","","","54889072"
"SPRING MILLS PRIMARY SCHOOL","138 GREENSBURG ROAD","","","MARTINSBURG","WV","25404","","","","54889073"
"SPRING VALLEY ACADEMIC CENTER ","1640  SPRING VALLEY RD","","","HUNTINGTON","WV","25701","","","","54889074"
"SPRING VALLEY ACADEMIC CENTER","1640  SPRING VALLEY RD","","","HUNTINGTON","WV","25701","","","","54889075"
"SPRINGFIELD ELEMENTARY SCHOOL","","","","","","","","","","54889076"
"ST JOSEPH'S CHURCH","22 CHURCH DR","","","KINGWOOD","WV","26537","","","","54889077"
"ST THOMAS EPISCOPAL CHURCH","300 THREE SPRINGS CHURCH","","","WEIRTON","WV","26062","","","","54889078"
"ST. ALBANS HIGH SCHOOL","2100 KANAWHA TERRACE","","","ST ALBANS","WV","25177","","","","54889079"
"ST. FRANCES SCHOOL"," A STREET","","","KEYSER","","","","","","54889080"
"ST. GEORGE UM CHURCH","45 MINEARS MILL RUN ROAD","","","PARSONS","WV","26287","","","","54889081"
"ST. JOHN'S CHURCH","622 MAIN ST","","","BENWOOD","","26003","","","","54889082"
"ST. JOHNS CHURCH","107 RIVER STREET","","","PARSONS","WV","26287","","","","54889083"
"ST. MARY'S HALL"," JAMES STREET","","","KEYSER","","","","","","54889084"
"ST. PAUL AME CHURCH","1108 2ND ST","","","CHARLESTON","WV","25302","","","","54889085"
"ST. PETER AND PAUL CATHOLIC CENTER","123 ELMORE ST","","","OAK HILL ","WV","25901","","","","54889086"
"ST. PETERS UNITED METH. CH","2601 FORRESTAL AVE","","","ST ALBANS","WV","25177","","","","54889087"
"STATE GARAGE, LAB BUILDING","916 COUNTRY CLUB ROAD","","","FAIRMONT","WV","26554","","","","54889088"
"STATTS MILL-SINIAVILLE METHODIST CHURCH BASEMENT"," RT 1 BOX 12","","","GAY","WV","25244","","","","54889089"
"STEPPTOWN SENIOR CITIZENS CENTER"," RT. 52","","","STEPPTOWN","WV","25674","","","","54889090"
"STEWARTSTOWN COMMUNITY BLD"," STEWARTSTOWN ROAD","","","MORGANTOWN","WV","26508","","","","54889091"
"STONECOAL FISHING CLUB","811 MEDICAL PARK DRIVE","","","WESTON","WV","26452","","","","54889092"
"STONEWALL JACKSON MIDDLE SCH","812 PARK AVE","","","CHARLESTON","WV","25302","","","","54889093"
"STRANGE CREEK MASONIC LODGE","208 STRANGE CREEK RD","","","STRANGE CREEK","WV","26639","","","","54889094"
"STRATTON ELEMENTARY SCHOOL","1129 SOUTH FAYETTE STREET","","","BECKLEY","WV","25801","","","","54889095"
"STREBY SCHOOL HOUSE","33 STREBY SCHOOLHOUSE RD","","","MAYSVILLE","WV","26833","","","","54889096"
"SUGAR GROVE PRESBYTERIAN CHURCH","256 MEL BRAND ROAD","","","MORGANTOWN","WV","26501","","","","54889097"
"SUGAR GROVE RESCUE SQUAD BUILDING"," County Rd 21","","","Sugar Grove","","","","","","54889098"
"SUMMERS CO HOSPITAL CONFERENCE ROOM","1500 TERRACE STREET","","","HINTON","WV","25951","","","","54889099"
"SUMMERSVILLE ELEMENTARY","108 MCKEES CREEK ROAD","","","SUMMERSVILLE","WV","26651","","","","54889100"
"SUMMERSVILLE FIRE STATION","706 ARBUCKLE ROAD","","","SUMMERSVILLE","WV","26651","","","","54889101"
"SUMMERSVILLE MUNICIPAL BLDG.","400 N BROAD STREET","","","SUMMERSVILLE","WV","26651","","","","54889102"
"SUMMIT POINT BAPTIST CHURCH","4599 SUMMIT POINT RD","","","SUMMIT POINT","WV","25446","","","","54889103"
"SUN VALLEY SCHOOL","5281 HINTON RD","","","LERONA","WV","25971","","","","54889104"
"SUTTON COURTHOUSE","300 MAIN ST","","","SUTTON","WV","26601","","","","54889105"
"SUTTON OLD FISHER AUTO PARTS","309 MAIN ST","","","SUTTON","WV","26601","","","","54889106"
"SWISS/SIMS METHODIST CHURCH","105  S SWISS ROAD","","","SWISS","WV","26690","","","","54889107"
"SYCAMORE - RIPLEY MIDDLE SCHOOL","1 WEST SCHOOL ST","","","RIPLEY","WV","25271","","","","54889108"
"SYCAMORE GROVE CHURCH","219 BULL RUN ROAD","","","PARSONS","WV","26287","","","","54889109"
"SYLVESTER TOWN HALL    SUITE A","32832 Coal River Road","","","Sylvester","WV","25193","","","","54889110"
"SZILAGYI CENTER","20 N BUFFALO ST","","","ROWLESBURG","WV","26425","","","","54889111"
"TACY COMMUNITY BUILDING"," US ROUTE250","","","PHILIPPI","","26416","","","","54889112"
"TALCOTT SCHOOL","133 TALCOTT SCHOOL ROAD","","","TALCOTT","WV","24981","","","","54889113"
"TANNER COMMUNITY BUILDING","209 TANNER SCHOOL ROAD","","","TANNER","WV","26137","","","","54889114"
"TAYLOR COUNTY LIBRARY","200 Beech St.","","","Grafton","WV","26354","","","","54889115"
"TAYLOR COUNTY MIDDLE SCHOOL"," Valley Falls Rd Pruntytown","","","Grafton","WV","26354","","","","54889116"
"TAYLOR COUNTY SENIOR CENTER"," US RT 119 & US RT 250","","","GRAFTON","WV","26354","","","","54889117"
"TEAYS VALLEY CHURCH OF GOD","4430 TEAYS VALLEY ROAD","","","SCOTT DEPOT","WV","25560","","","","54889118"
"TEMPLE BAPTIST CHURCH","2300 SECOND ST","","","MOUNDSVILLE","","26041","","","","54889119"
"TERRA ALTA V F D","1120 E STATE AVE","","","TERRA ALTA","WV","26764","","","","54889120"
"TERRACE PARK EAST","2106 KANAWHA BLVD","","","CHARLESTON","WV","25311","","","","54889121"
"TEVERBAUGH CHURCH"," RT 1 BOX 111","","","LUMBERPORT","WV","26386","","","","54889122"
"THE BERWIND LODGE"," 111","","","","WV","","","","","54889123"
"THE WOODS RESORT","1732 THE WOODS ROAD","","","HEDGESVILLE","WV","25427","","","","54889124"
"THIRD WARD SCHOOL","111 NATHAN STREET","","","ELKINS","WV","26241","","","","54889125"
"THOMAS CITY HALL","307 SPRUCE STREET","","","THOMAS","WV","26292","","","","54889126"
"THOMAS LAWNMOWER SERVICE","119 THOMAS LN","","","PARKERSBURG","WV","","","","","54889127"
"THOMPSON CENTER "," MILL CREEK RD","","","FORT GAY ","WV","25514","","","","54889128"
"THORN CREEK YOUTH CENTER"," ST. RD 25","","","","WV","","","","","54889129"
"THORNTON FIRE HALL"," PO Box 97","","","Thornton","WV","26354","","","","54889130"
"TILDEN COMMUNITY BAPTIST CHURCH","133  TILDEN ROAD","","","GLEN MORGAN","WV","","","","","54889131"
"TIMBERLINE APTS","3557 COLLINS FERRY RD","","","MORGANTOWN","WV","26505","","","","54889132"
"TIOGA/BEAVER ELEMENTARY","16414 WEBSTER ROAD","","","CRAIGSVILLE","WV","26205","","","","54889133"
"TISKELWAH COMMUNITY CENTER","600 FLORIDA ST","","","CHARLESTON","WV","25302","","","","54889134"
"TISKELWAH COMMUNITY CENTER","600 FLORIDA ST","","","CHARLESTON","WV","25302","","","","54889135"
"TOMAHAWK INTERMEDIATE SCHOOL","6665 HEDGESVILLE ROAD","","","HEDGESVILLE","WV","25427","","","","54889136"
"TOMAHAWK RURITAN CLUB","12680 BACK CREEK VALLEY ROAD","","","HEDGESVILLE","WV","25427","","","","54889137"
"TOWN HALL, ALDERSON","311 South Monroe Street","","","Alderson","WV","24910","","","","54889138"
"TOWN OFFICE","206 WINCHESTER AVE","","","MOOREFIELD","","26836","","","","54889139"
"TOWN OFFICE","206 WINCHESTER AVE","","","MOOREFIELD","","26836","","","","54889140"
"TRIADELPHIA COMMUNITY CENTER"," RT 40 NATIONAL RD","","","TRIADELPHIA","WV","26059","","","","54889141"
"TRIADELPHIA MIDDLE SCHOOL","1636 NATIONAL RD","","","WHEELIING","WV","26003","","","","54889142"
"TRINITY ASSEMBLY CHURCH"," P.O. BOX","","","BARTLEY","WV","24813","","","","54889143"
"TRINITY BAPTIST CHURCH","12600  SENECA TRAIL","","","BUCKEYE","WV","24924","","","","54889144"
"TRINITY EPISCOPAL CHURCH","208 W GERMAN ST","","","SHEPHERDSTOWN","WV","25443","","","","54889145"
"TRINITY LUTHERAN CHURCH","1455 DELMAR ORCHARD ROAD","","","MARTINSBURG","WV","25403","","","","54889146"
"TRINITY PRESBYTERIAN CHURCH","307 MCELDOWNEY AVE","","","NEW MARTINSVILLE","","26155","","","","54889147"
"TROY   ELEMENTARY   SCHOOL          MAIN BUILDING BASEMENT","TROY ELEMENTARY","","","TROY","","26443","","","","54889148"
"TUNNELTON V F D","42 BANK ST","","","TUNNELTON","WV","26444","","","","54889149"
"TURKEY RUN-RAVENSWOOD MIDDLE SCHOOL-SYCAMORE ST","409 SYCAMORE ST","","","RAVENSWOOD","WV","26164","","","","54889150"
"TURTLE CR/ COMMUNITY ACTION BLDG","347 Kenmore Drive   Suite 1-A","","","Danville","WV","25053","","","","54889151"
"TUSCARORA ELEMENTARY  SCHOOL","2000 TAVERN ROAD","","","MARTINSBURG","WV","25401","","","","54889152"
"TYLER CONSOLIDATED HIGH SCHOOL","1993 Silver Knight Drive","","","Sistersville","WV","26175","","","","54889153"
"UNEEDA/PRE-KINDERGARTEN ACADEMY","69 SMITH STREET","","","MADISON","WV","25130","","","","54889154"
"UNION COMMUNITY BUILDING","","","","","","","","","","54889155"
"UNION DISTRICT SCHOOL","20 Heavner Grove Rd","","","Buckhannon","WV","26201","","","","54889156"
"UNION DISTRICT SCHOOL","20 Heavner Grove Rd","","","Buckhannon","WV","26201","","","","54889157"
"UNION DISTRICT SCHOOL","20 Heavner Grove Rd","","","Buckhannon","WV","26201","","","","54889158"
"UNION HIGH SCHOOL","84 TIGER DR","","","MOUNT STORM","WV","26739","","","","54889159"
"UNION VALLEY BAPTIST CHURCH","3349 OLD ST MARYS PIKE","","","PARKERSBURG","WV","","","","","54889160"
"UNION VALLEY BAPTIST CHURCH","3349 OLD ST MARYS PIKE","","","PARKERSBURG","WV","","","","","54889161"
"UNITED METHODIST ACTIVITY BLDG"," ROUTE 2","","","RED HOUSE","WV","25168","","","","54889162"
"UPLAND-SCVFD SUBSTATION","3737 ELK KNOB ROAD","","","HINTON","WV","25951","","","","54889163"
"UPPER SETH/SHERMAN HIGH SCHOOL","10008 Coal River Road","","","Seth","WV","25181","","","","54889164"
"UPPER TRACT SCHOOL BLDG"," Rt. 220","","","","","","","","","54889165"
"UPPER WEST FORK PARK (MINNORA)","88 RED ROOF LN","","","CHLOE","WV","25235","","","","54889166"
"UPPER WEST FORK PARK (ORMA)","88 RED ROOF LN","","","CHLOE","WV","25235","","","","54889167"
"VAGO/ ENON FAMILY LIFE CENTER"," VAGO","","","","","","","","","54889168"
"VALLEY FORK SCHOOL","4208 WALLBACK ROAD","","","WALLBACK","WV","25285","","","","54889169"
"VALLEY GRANGE"," State Route 18","","","Alma","WV","26320","","","","54889170"
"VALLEY GROVE COMMUNITY CENTER"," RT 40","","","VALLEY GROVE","WV","26060","","","","54889171"
"VALLEY PARK - THE COMMONS"," 1 VALLEY PARK DRIVE","","","HURRICANE","WV","25526","","","","54889172"
"VALLEY PARK COMMUNITY CENTER","1 VALLEY PARK DRIVE","","","HURRICANE","WV","25526","","","","54889173"
"VALLEY PARK COMMUNITY CENTER","1 VALLEY PARK DRIVE","","","HURRICANE","WV","25526","","","","54889174"
"VALLEY VIEW ELEMENTARY SCHOOL","140 NADENBOUSCH LANE","","","MARTINSBURG","WV","25405","","","","54889175"
"VANDEVENDER MIDDLE SCHOOL","918 31ST ST","","","PARKERSBURG","WV","","","","","54889176"
"VERDUNVILLE GRADE SCHOOL","16 HILL ROAD","","","VERDUNVILLE","WV","25649","","","","54889177"
"VFW","114 GRANT AVE","","","MOUNDSVILLE","WV","26041","","","","54889178"
"VICTORY BAPTIST CHURCH","1883 MGTN AVENUE","","","FAIRMONT","WV","26554","","","","54889179"
"VIENNA SCHOOL/CAFE","700 41ST ST","","","VIENNA","WV","","","","","54889180"
"VIENNA SCHOOL/GYM","700 41ST ST","","","VIENNA","WV","","","","","54889181"
"VINSON MIDDLE SCHOOL ","3851 PIEDMONT RD ","","","HUNTINGTON","WV","25704","","","","54889182"
"VINSON ST. CURRICULUM CENTER","","","","","","","","","","54889183"
"VISION FREE WILL BAPTIST CHURCH","137 ROARK DRIVE","","","JONBEN","WV","25856","","","","54889184"
"VO TECH SCHOOL","1397 STAFFORD DR","","","PRINCETON","WV","24740","","","","54889185"
"VO TECH SCHOOL"," RR 5 Box 2","","","Buckhannon","WV","26201","","","","54889186"
"VO TECH SCHOOL"," RR 5 Box 2","","","Buckhannon","WV","26201","","","","54889187"
"VO TECH SCHOOL"," RR 5 Box 2","","","Buckhannon","WV","26201","","","","54889188"
"VO-TECH SCHOOL","1397 STAFFORD DR","","","PRINCETON","WV","24740","","","","54889189"
"VO-TECH SCHOOL"," HARLEY STAGGERS DR","","","KEYSER","","","","","","54889190"
"VO-TECH SCHOOL"," HARLEY STAGGERS DR","","","KEYSER","","","","","","54889191"
"VO-TECH SCHOOL"," HARLEY STAGGERS DR","","","KEYSER","","","","","","54889192"
"VOCATIONAL SCHOOL","","","","","","","","","","54889193"
"VOCATIONAL SCHOOL COULTERS CHP","74 JAMES MONROE DRIVE","","","LINDSIDE","WV","24951","","","","54889194"
"VOLGA SCHOOL","","","","","","","","","","54889195"
"W MAIN AMERICAN LEGION HALL","10 OAKFORD AVENUE","","","RICHWOOD","WV","26261","","","","54889196"
"W. MADISON/MADISON MIDDLE SCHOOL","404 Riverside Drive","","","Madison","WV","25130","","","","54889197"
"WADESTOWN VFD","9743 MASON DIXON HIGHWAY","","","WADESTOWN","WV","26589","","","","54889198"
"WALKERSVILLE FIRE DEPARTMENT","16629 US HIGHWAY 19 SOUTH","","","CRAWFORD","WV","26343","","","","54889199"
"WALTON COMMUNITY CENTER","6930 CHARLESTON RD","","","WALTON","WV","25286","","","","54889200"
"WALTON ELEM/MIDDLE SCHOOL","90 SCHOOL DR","","","WALTON","WV","25286","","","","54889201"
"WAR FIRE DEPARTMENT"," PO","","","WAR","WV","24892","","","","54889202"
"WAR FIRE DEPARTMENT"," PO","","","WAR","WV","24892","","","","54889203"
"WAR MEMORIAL BUILDING","190 EAST MAIN ST","","","WARDENSVILLE","WV","26851","","","","54889204"
"WAR MEMORIAL BUILDING","190 EAST MAIN ST","","","WARDENSVILLE","WV","26851","","","","54889205"
"WARM SPRINGS MIDDLE SCHOOL","1415 FAIRFAX STREET","","","BERKELEY SPRINGS","WV","25411","","","","54889206"
"WARM SPRINGS MIDDLE SCHOOL","1415 FAIRFAX STREET","","","BERKELEY SPRINGS","WV","25411","","","","54889207"
"WASH. HIGH COMM CNTR","","","","","","","","","","54889208"
"WASHINGTON COMM BLDG","10675 DUPONT RD","","","WASHINGTON","WV","26181","","","","54889209"
"WASHINGTON COMM BLDG","10675 DUPONT RD","","","WASHINGTON","WV","26181","","","","54889210"
"WASHINGTON LANDS SCHOOL","116 SCHOOL ROAD","","","MOUNDSVILLE","WV","26041","","","","54889211"
"WATSON ELEMENTARY SCHOOL"," MARY LOU RETTON DRIVE","","","FAIRMONT","WV","26554","","","","54889212"
"WATSON ELEMENTARY SCHOOL"," MARY LOU RETTON DRIVE","","","FAIRMONT","WV","26554","","","","54889213"
"WATSON ELEMENTARY SCHOOL"," MARY LOU RETTON DRIVE","","","FAIRMONT","WV","26554","","","","54889214"
"WATSON ELEMENTARY SCHOOL"," MARY LOU RETTON DRIVE","","","FAIRMONT","WV","26554","","","","54889215"
"WAVERLY SCHOOL/GYM","422 VIRGINIA ST","","","WAVERLY","WV","26184","","","","54889216"
"WAVERLY SCHOOL/GYM","422 VIRGINIA ST","","","WAVERLY","WV","26184","","","","54889217"
"WAYNE COMMUNITY CENTER","1227 ST RT 152","","","WAYNE","WV","25570","","","","54889218"
"WAYNE COMMUNITY CENTER","1227 ST RT 152","","","WAYNE","WV","25570","","","","54889219"
"WAYNE HIGH SCHOOL ","100 PIONEER WAY","","","WAYNE","WV","25570","","","","54889220"
"WAYNE MIDDLE SCHOOL ","200 PIONEER WAY","","","WAYNE ","WV","25570","","","","54889221"
"WEBERWOOD ELEMENTARY","732 GORDON DR","","","SO CHARLESTON","WV","25303","","","","54889222"
"WEBERWOOD ELEMENTARY","732 GORDON DR","","","SO CHARLESTON","WV","25303","","","","54889223"
"WEBSTER COUNTY HIGH SCHOOL","101 HIGHLANDER DRIVE","","","UPPER GLADE","WV","26266","","","","54889224"
"WEBSTER COUNTY HIGH SCHOOL","101 HIGHLANDER DRIVE","","","UPPER GLADE","WV","26266","","","","54889225"
"WEIR MIDDLE SCHOOL","125 SINCLAIR AVENUE-WEIRTON","","","WEIRTON","WV","26062","","","","54889226"
"WEIRTON CO#1 FIRE DEPT COUNTY RD","1500 COUNTY ROAD-WEIRTON","","","WEIRTON","WV","26062","","","","54889227"
"WELCH CITY HALL","","","","","","","","","","54889228"
"WELCH ELEMENTARY SCHOOL","","","","","","","","","","54889229"
"WELLSBURG PRIMARY (CHARLES ST)","1448 MAIN STREET","","","WELLSBURG","WV","26070","","","","54889230"
"WELLSBURG PRIMARY (MAIN ST)","1448  MAIN STREET","","","WELLSBURG","WV","26070","","","","54889231"
"WEST END-CITY GARAGE","1800 TEMPLE STREET","","","HINTON","WV","25951","","","","54889232"
"WEST FAIRMONT MIDDLE SCHOOL","1010 TENTH STREET","","","FAIRMONT","WV","26554","","","","54889233"
"WEST FAIRPLAIN - FAIRPLAIN ELEMENTARY SCHOOL","51 PANTHER DR","","","RIPLEY","WV","25271","","","","54889234"
"WEST LIBERTY ELEMENTARY SCHOOL","204 CHATHAM ST","","","WEST LIBERTY","WV","26074","","","","54889235"
"WEST TEAYS ELEMENTARY SCHOOL","3676 TEAYS VALLEY ROAD","","","HURRICANE","WV","25526","","","","54889236"
"WEST TEAYS ELEMENTARY SCHOOL","3676 TEAYS VALLEY ROAD","","","HURRICANE","WV","25526","","","","54889237"
"WEST UNION GRADE SCHOOL","","","","","","","","","","54889238"
"WESTMINISTER PRESBY CHURCH","2212 WASHINGTON ST","","","BLUEFIELD","WV","24701","","","","54889239"
"WESTOVER CITY HALL","500 DUPONT ROAD","","","WESTOVER","WV","26501","","","","54889240"
"WHARTON COMM CENTER","178 BENETT DRIVE","","","WHARTON","WV","25208","","","","54889241"
"WHEELING JESUIT UNIVERSITY","316 WASHINGTON AVE","","","WHEELING","WV","26003","","","","54889242"
"WHITE HALL ELEMENTARY SCHOOL","38 EMERALD LANE","","","WHITE HALL","WV","26554","","","","54889243"
"WHITE OAK-JUMPING BR SCHOOL","6617 BEECH RUN ROAD","","","JUMPING BRANCH","WV","25969","","","","54889244"
"WHITE SCHOOL(ADULT LEARNING CENTER)"," LOCUST AVE","","","FAIRMONT","WV","26554","","","","54889245"
"WHITE SCHOOL(ADULT LEARNING CENTER)"," LOCUST AVE","","","FAIRMONT","WV","26554","","","","54889246"
"WHITESVILLE JR HIGH SCHOOL","37949 Coal River Road","","","Whitesville","WV","25209","","","","54889247"
"WIDEN COMMUNITY CENTER","543 KANAWHA STREET","","","WIDEN","WV","25211","","","","54889248"
"WIDMEYER ELEMENTARY SCHOOL","10 MYERS ROAD","","","BERKELEY SPRINGS","WV","25411","","","","54889249"
"WILCOE HEALTH CENTER","","","","","","","","","","54889250"
"WILEY FORD SCHOOL"," WILEY FORD","","","","WV","","","","","54889251"
"WILEY FORD SCHOOL"," WILEY FORD","","","","WV","","","","","54889252"
"WILKINSON STATE ROAD GARAGE","127 SPRINGFIELD ROAD","","","WILKINSON","WV","25653","","","","54889253"
"WILLIAM RAGLIN COMMUNITY CENTER","142 MARSHALL AVE","","","DUNBAR","WV","25064","","","","54889254"
"WILLIAMSBURG COMMUNITY CENTER"," GENERAL DEV. WILLIAMSBURG ROAD","","","","","","","","","54889255"
"WILLIAMSTOWN CITY BLDG","100 W 5TH ST","","","WILLIAMSTOWN","WV","","","","","54889256"
"WILLIAMSTOWN ELEM SCHOOL/GYM","418 WILLIAMS AVE","","","WILLIAMSTOWN","WV","","","","","54889257"
"WILLIAMSTOWN ELEM SCHOOL/GYM","418 WILLIAMS AVE","","","WILLIAMSTOWN","WV","","","","","54889258"
"WILSON RIDGE CHURCH OF CHRIST"," WILSON RIDGE","","","GRAFTON","WV","26354","","","","54889259"
"WINFIELD ELEMENTARY SCHOOL","2 WALL STREET","","","WINFIELD","WV","25213","","","","54889260"
"WINFIELD ELEMENTARY SCHOOL","2 WALL STREET","","","WINFIELD","WV","25213","","","","54889261"
"WOOD COUNTY DAY REPORT CENTER","916 MARKET ST","","","PARKERSBURG","WV","26101","","","","54889262"
"WOODROW WILSON HIGH SCHOOL","400 STANAFORD ROAD","","","BECKLEY","WV","25801","","","","54889263"
"WORTHINGTON SCHOOL/CAFE","2500 36TH ST","","","PARKERSBURG","WV","","","","","54889264"
"WORTHINGTON TOWN HALL"," P O BOX 141 WORTHINGTON","","","WORTHINGTON","WV","26591","","","","54889265"
"WRIGHT DENNY ELEMENTARY SCHOOL","209 W CONGRESS ST","","","CHARLES TOWN","WV","25414","","","","54889266"
"WS ELEMENTARY SCHOOL","146 MCGRAW AVENUE","","","WEBSTER SPRINGS","WV","26288","","","","54889267"
"WS ELEMENTARY SCHOOL","146 MCGRAW AVENUE","","","WEBSTER SPRINGS","WV","26288","","","","54889268"
"WSS ELEM SCH/PRECINCT 73"," 150 REED STREET","","","WHITE SULPHUR SPRINGS","WV","24986","","","","54889269"
"WSS ELEM SCH/PRECINCT 75"," 150 REED STREET","","","WHITE SULPHUR SPRING","WV","24986","","","","54889270"
"WSS ELEMENTARY SCHOOL/PRECINCT 72","150 REED STREET","","","WHITE SULPHUR SPRINGS","WV","24986","","","","54889271"
"WSS ELEMENTARY/PRECINCT 74"," 150 REED STREET","","","WHITE SULPHUR SPRINGS","WV","24986","","","","54889272"
"WV. NATIONAL GUARD ARMORY","1707 COONSKIN DR","","","CHARLESTON","WV","25311","","","","54889273"
"WV. NATIONAL GUARD ARMORY","1707 COONSKIN DR","","","CHARLESTON","WV","25311","","","","54889274"
"XTO YARD OFFICE BLD","8166 WV HWY 5E","","","GLENVILLE","WV","26351","","","","54889275"
"YWCA","2019 PLEASANT VALLEY ROAD","","","FAIRMONT","WV","26554","","","","54889276"
"ZELA ELEMENTARY","165 COUNTRY ROAD","","","SUMMERSVILLE","WV","26651","","","","54889277"
