"address_location_name","address_line1","address_line2","address_line3","address_city","address_state","address_zip","directions","polling_hours","photo_url","id"
"EUDORA WELTY LIBRARY","300 N STATE ST","","","JACKSON","MS","39201","","","","77713131"
"EUDORA WELTY LIBRARY","300 NORTH STATE ST","","","JACKSON","MS","39201","","","","77713131"
"PEOPLES FUNERAL HOME","886 N FARISH ST","","","JACKSON","MS","39202","","","","77713133"
"ROWAN MIDDLE SCHOOL","136 E ASH ST","","","JACKSON","MS","39202","","","","77713135"
"ROWAN MIDDLE SCHOOL","136 E ASH ST
","","","JACKSON","MS","39202","","","","77713135"
"GOOD SAMARITAN CENTER, INC","114 MILLSAPS AVE","","","JACKSON","MS","39202","","","","77713138"
"FIRE STATION #5","1810 N STATE ST","","","JACKSON","MS","39202","","","","777131310"
"FIRE STATION #5","1810 NORTH STATE ST","","","JACKSON","MS","39202","","","","777131310"
"BELHAVEN COLLEGE","1500 PEACHTREE ST","","","JACKSON","MS","39202","","","","777131312"
"GALLOWAY ELEMENTARY SCHOOL","186 IDLEWILD ST","","","JACKSON","MS","39203","","","","777131314"
"JACKSON MEDICAL MALL","300 W WOODROW WILSON AVE","","","JACKSON ","MS","39213","","","","777131315"
"JACKSON MEDICAL MALL","300 WEST WOODROW WILSON AVE","","","JACKSON","MS","39213","","","","777131315"
"INSTITUTIONAL AME CHURCH","3032 BISHOP ST","","","JACKSON","MS","39213","","","","777131316"
"WALTON ELEMENTARY SCHOOL","3200 BAILEY AVE","","","JACKSON","MS","39213","","","","777131317"
"FONDREN PRESBYTERIAN CHURCH","3220 OLD CANTON RD","","","JACKSON","MS","39216","","","","777131318"
"WOODLAND HILLS BAPTIST CHURCH","3327 OLD CANTON RD","","","JACKSON","MS","39216","","","","777131321"
"ST JAMES EPISCOPAL CHURCH","3921 OAK RIDGE DR","","","JACKSON","MS","39216","","","","777131322"
"WELLS MEMORIAL UNITED METH CHURCH","2019 BAILEY AVE","","","JACKSON","MS","39213","","","","777131323"
"CHERRY GROVE MISSIONARY BAPT. CHURCH","1296 MARTIN LUTHER KING JR DR","","","JACKSON","MS","39203","","","","777131324"
"CHERRY GROVE MISSIONARY BAPT. CHURCH","1296 MARTIN LUTHER KING JR. DR","","","JACKSON","MS","39203","","","","777131324"
"LANIER HIGH SCHOOL","833 W MAPLE ST","","","JACKSON","MS","39203","","","","777131326"
"GEORGE KURTS FIELDHOUSE","125 GYMNASIUM DR
(OFF BULLARD ST)","","","JACKSON","MS","39209","","","","777131327"
"FIRE STATION #20","4445 MEDGAR EVERS BLVD","","","JACKSON","MS","39213","","","","777131328"
"MEDGAR EVERS MUNICIPAL LIBRARY","4215 MEDGAR EVERS BLVD","","","JACKSON","MS","39213","","","","777131329"
"FRENCH ELEMENTARY SCHOOL","311 JOEL AVE","","","JACKSON","MS","39209","","","","777131330"
"RAINES ELEMENTARY SCHOOL","156 FLAG CHAPEL DR","","","JACKSON","MS","39209","","","","777131331"
"FIRE STATION #15","4943 CLINTON BLVD","","","JACKSON","MS","39209","","","","777131332"
"GROVE PARK COMMUNITY CENTER","4126 PARKWAY AVE","","","JACKSON","MS","39213","","","","777131333"
"GOLDEN KEY COMMUNITY CENTER","3450 ALBERMARLE RD","","","JACKSON","MS","39213","","","","777131334"
"POWELL MIDDLE SCHOOL","3655 LIVINGSTON RD","","","JACKSON","MS","39213","","","","777131335"
"FAITH PRESBYTERIAN CHURCH","3255 BAILEY AVE","","","JACKSON","MS","39213","","","","777131336"
"JOHNSON ELEMENTARY SCHOOL","1339 OAK PARK DR","","","JACKSON","MS","39213","","","","777131338"
"FIRE STATION #16","1400 LAKELAND DR","","","JACKSON","MS","39216","","","","777131339"
"CASEY ELEMENTARY SCHOOL","2101 LAKE CIRCLE","","","JACKSON","MS","39211","","","","777131340"
"WILLIE MORRIS LIBRARY","4912 OLD CANTON RD","","","JACKSON","MS","39211","","","","777131341"
"SPANN ELEMENTARY SCHOOL","1615 BRECON DR","","","JACKSON","MS","39211","","","","777131343"
"MCLEOD ELEMENTARY SCHOOL","1616 SANDALWOOD PL","","","JACKSON","MS","39211","","","","777131345"
"BOYD ELEMENTARY SCHOOL","4531 BROADMEADOW DR AT NORTHSIDE","","","JACKSON","MS","39206","","","","777131346"
"CHASTAIN ELEMENTARY SCHOOL","4650 MANHATTAN RD","","","JACKSON","MS","39206","","","","777131348"
"FIRE STATION #7","4625 NORTH STATE ST","","","JACKSON","MS","39206","","","","777131349"
"COLLINS NORTHSIDE CHAPEL","4612 W NORTHSIDE DR","","","JACKSON","MS","39206","","","","777131350"
"COLLINS NORTHSIDE CHAPEL","4612 WEST NORTHSIDE DR","","","JACKSON","MS","39206","","","","777131350"
"GREEN ELEMENTARY SCHOOL","610 FOREST AVE","","","JACKSON","MS","39206","","","","777131351"
"MCWILLIE ELEMENTARY SCHOOL","4851 MCWILLIE DR","","","JACKSON","MS","39206","","","","777131352"
"FRESH START CHRISTIAN CHURCH","5210 MANHATTAN RD","","","JACKSON","MS","39206","","","","777131353"
"NEW JERUSALEM BAPTIST CHURCH","5708 OLD CANTON RD","","","JACKSON","MS","39211","","","","777131354"
"ST PHILLIPS EPISCOPAL CHURCH","5400 OLD CANTON RD","","","JACKSON","MS","39211","","","","777131355"
"CHRIST UNITED METHODIST CHURCH","6000 OLD CANTON RD","","","JACKSON","MS","39211","","","","777131356"
"BATTLEFIELD PARK RED CENTER","953 W PORTER ST","","","JACKSON","MS","39204","","","","777131357"
"JACKSON STATE UNIVERSITY","JACOB L REDDIX CAMPUS UNION
1400 J R LYNCH ST","","","JACKSON","MS","39217","","","","777131359"
"ENOCHS OFFICE COMPLEX","101 NEAR STREET","","","JACKSON","MS","39203","","","","777131360"
"BLACKBURN MIDDLE SCHOOL","1311 W PEARL ST","","","JACKSON","MS","39203","","","","777131361"
"CALVARY BAPTIST CHURCH","160 N GREEN ST
ACTIVITY BLDG","","","JACKSON","MS","39203","","","","777131362"
"CALVARY BAPTIST CHURCH","ACTIVITY BLDG
160 N GREEN ST","","","JACKSON","MS","39203","","","","777131362"
"HARDY MIDDLE SCHOOL","545 ELLIS AVE","","","JACKSON","MS","39209","","","","777131364"
"POLICE TRAINING CENTER","3000 ST CHARLES ST","","","JACKSON","MS","39209","","","","777131365"
"FIRE STATION #6","101 LIVINGSTON PARK DR","","","JACKSON","MS","39209","","","","777131366"
"PECAN PARK ELEM SCHOOL","415 CLAIBORNE AVE","","","JACKSON","MS","39209","","","","777131367"
"PEARL ST AME CHURCH","2519 ROBINSON RD
ACTIVITY BLDG","","","JACKSON","MS","39209","","","","777131368"
"PEARL ST AME CHURCH","ACTIVITY BLDG
2519 ROBINSON RD","","","JACKSON","MS","39209","","","","777131368"
"FIRE STATION #14","3208 LYNCH ST","","","JACKSON","MS","39209","","","","777131369"
"LAKE ELEMENTARY SCHOOL","473 MT VERNON AVE","","","JACKSON","MS","39209","","","","777131371"
"JAYNE AVE SR COMMUNITY CENTER","3615 JAYNE AVE","","","JACKSON","MS","39209","","","","777131372"
"BLACK'S CHAPEL MISSIONARY BAPTIST CHURCH","3425 ROBINSON ST","","","JACKSON","MS","39209","","","","777131373"
"DAVIS TEMPLE CHURCH OF GOD","1700 DALTON ST","","","JACKSON","MS","39204","","","","777131374"
"ST JAMES BAPTIST CHURCH","1301 JONES AVE","","","JACKSON","MS","39204","","","","777131375"
"BELK-METRO CENTER","HWY 80 AT ROBINSON RD","","","JACKSON","MS","39204","","","","777131377"
"WILKINS ELEMENTARY SCHOOL","1970 CASTLE HILL DR","","","JACKSON","MS","39204","","","","777131379"
"APOSTOLIC RESTORATION MINISTRY","1020 W MCDOWELL RD","","","JACKSON","MS","39204","","","","777131381"
"NEW HORIZON CHURCH","ELLIS AVE AT RAYMOND RD","","","JACKSON","MS","39204","","","","777131382"
"LESTER ELEMENTARY SCHOOL","2350 OAKHURST DR","","","JACKSON","MS","39204","","","","777131383"
"BAKER ELEMENTARY SCHOOL","300 E SANTA CLAIR ST","","","JACKSON","MS","39212","","","","777131384"
"KEY ELEMENTARY SCHOOL","699 MCDOWELL RD","","","JACKSON","MS","39212","","","","777131386"
"MARSHALL ELEMENTARY SCHOOL","2909 OAK FOREST DR","","","JACKSON","MS","39212","","","","777131387"
"TREE OF LIFE CHURCH","3102 MONTICELLO DR","","","JACKSON","MS","39212","","","","777131388"
"SYKES PARK COMMUNITY CENTER","520 SYKES RD","","","JACKSON","MS","39212","","","","777131389"
"WHITTEN MIDDLE SCHOOL","210 DANIEL LAKE BLVD","","","JACKSON","MS","39212","","","","777131390"
"ASCENSION LUTHERAN CHURCH","6481 OLD CANTON RD","","","JACKSON","MS","39211","","","","777131391"
"VIRGINIA COLLEGE","5841 RIDGEWOOD RD","","","JACKSON","MS","39211","","","","777131392"
"TOUGALOO COMMUNITY CENTER","318 VINE ST","","","JACKSON","MS","39213","","","","777131394"
"TOUGALOO COMMUNITY CENTER","318 VINE ST","","","TOUGALOO","MS","39213","","","","777131394"
"ALDERSGATE UNITED METH CHURCH","655 BEASLEY RD","","","JACKSON","MS","39206","","","","777131396"
"HANGING MOSS CHURCH OF CHRIST","5225 HANGING MOSS RD","","","JACKSON","MS","39206","","","","777131398"
"NEW HOPE BAPTIST CHURCH","5202 WATKINS DR","","","JACKSON","MS","39206","","","","7771313100"
"CHINA GROVE BAPTIST CHURCH","457 FOREST AVE EXT","","","JACKSON","MS","39206","","","","7771313101"
"CHINA GROVE BAPTIST CHURCH","457 FOREST AVENUE EXTENSION","","","JACKSON","MS","39206","","","","7771313101"
"FIRE STATION #26","2223 FLAG CHAPEL DR","","","JACKSON","MS","39209","","","","7771313102"
"TRIUMPH CHURCH","5302 QUEEN MARY LANE","","","JACKSON","MS","39209","","","","7771313103"
"BLESSED TRINITY UNITED METH CHURCH","5045 CLINTON BLVD","","","JACKSON","MS","39209","","","","7771313104"
"WESTSIDE COMMUNITY CENTER","1650 WIGGINS RD","","","JACKSON","MS","39209","","","","7771313106"
"SEARS-METRO CENTER","HWY 80 AT ROBINSON RD","","","JACKSON","MS","39204","","","","7771313107"
"WOODVILLE HEIGHTS ELEM SCHOOL","2930 MCDOWELL RD EXT","","","JACKSON","MS","39204","","","","7771313108"
"WOODVILLE HEIGHTS ELEM SCHOOL","2930 MCDOWELL ROAD EXTENSION","","","JACKSON","MS","39204","","","","7771313108"
"TIMBERLAWN ELEMENTARY SCHOOL","1900 N SIWELL RD","","","JACKSON","MS","39209","","","","7771313110"
"TIMBERLAWN ELEMENTARY SCHOOL","1980 N SIWELL RD","","","JACKSON","MS","39209","","","","7771313110"
"OAK FOREST ELEMENTARY SCHOOL","131 SMALLWOOD DR","","","JACKSON","MS","39212","","","","7771313112"
"VICTORY AME ZION CHURCH","715 COOPER RD","","","JACKSON","MS","39212","","","","7771313114"
"FOREST HILL UNITED METH CHURCH","2504 RAYMOND RD","","","JACKSON","MS","39212","","","","7771313116"
"FOREST HILL UNITED METH CHURCH","2504 RAYMOND ROAD","","","JACKSON","MS","39212","","","","7771313116"
"SIWELL ROAD CHURCH OF CHRIST","4075 SIWELL RD","","","JACKSON","MS","39212","","","","7771313119"
"MIRACLE TEMPLE","418 LAKESHORE RD","","","JACKSON","MS","39212","","","","7771313120"
"WAHABI SHRINERS TEMPLE","1343 I 55 SOUTH","","","JACKSON","MS","39212","","","","7771313122"
"GRIFFITH MEMORIAL BAPTIST CHURCH","5275 TERRY RD","","","BYRAM","MS","39272","","","","7771313123"
"BYRAM VOL FIRE STATION","2571 DAVIS RD","","","TERRY","MS","39170","","","","7771313124"
"BOLTON VOL FIRE STATION","117 W MADISON ST","","","BOLTON","MS","39041","","","","7771313125"
"BOLTON VOL FIRE STATION","117 WEST MADISON ST","","","BOLTON ","MS","39041","","","","7771313125"
"BROWNSVILLE VOL FIRE STATION","FIRE STATION","","","BROWNSVILLE","MS","39041","","","","7771313126"
"BROWNSVILLE VOL FIRE STATION","FIRE STATION","","","BROWNSVILLE ","MS","39041","","","","7771313126"
"FIRST BAPTIST CHURCH","MONROE ST","","","CLINTON","MS","39056","","","","7771313128"
"WILDWOOD BAPTIST CHURCH","101 AUBURN DR","","","CLINTON","MS","39056","","","","7771313130"
"NORTHSIDE BAPTIST CHURCH","1475 NORTHSIDE DR","","","CLINTON","MS","39056","","","","7771313133"
"CLINTON YMCA","400 LINDALE DR","","","CLINTON","MS","39056","","","","7771313135"
"OLD A E WOOD CLINTON PUBLIC LIBRARY","111 CLINTON BLVD","","","CLINTON","MS","39056","","","","7771313137"
"FIRST UNITED METH CHURCH","HWY 80 AT MT SALUS DR","","","CLINTON","MS","39056","","","","7771313138"
"BELLMONT BAPTIST CHURCH","4446 CHARLIE BROWN RD","","","UTICA","MS","39175","","","","7771313139"
"LITTLE MOUNT CENTER","LITTLE MOUNT RD OFF DIXON CIR","","","UTICA","MS","39175","","","","7771313140"
"MACLEAN VOL FIRE STATION","ROSS CIRCLE AT MACLEAN RD","","","JACKSON","MS","39209","","","","7771313141"
"SPRINGHILL CHRISTIAN CENTER","1518 SPRINGHILL RD
(OFF MIDWAY RD)","","","RAYMOND","MS","39154","","","","7771313142"
"EDWARDS LIVESTOCK BARN","DISTRICT 3 BARN","","","EDWARDS","MS","39066","","","","7771313144"
"LEARNED VOL FIRE STATION","327 FRONT ST","","","LEARNED","MS","39154","","","","7771313145"
"BYRAM BAPTIST CHURCH","5856 TERRY RD","","","BYRAM","MS","39272","","","","7771313146"
"FEDERATION TOWERS","301 FEDERATION DR","","","CLINTON","MS","39056","","","","7771313147"
"POCAHONTAS VOL FIRE STATION","1140 FOA RD","","","JACKSON","MS","39209","","","","7771313150"
"POCAHONTAS VOL FIRE STATION","1140 FOA ROAD","","","JACKSON","MS","39209","","","","7771313150"
"UNITED METHODIST CHURCH","230 W. MAIN ST","","","RAYMOND","MS","39154","","","","7771313151"
"HINDS COMMUNITY COLLEGE MEAT DEPT","HINDS BLVD","","","RAYMOND","MS","39154","","","","7771313154"
"SIWELL MIDDLE SCHOOL","1983 N SIWELL RD","","","JACKSON","MS","39209","","","","7771313156"
"ST THOMAS BAPTIST CHURCH","4699 ST THOMAS RD","","","BOLTON","MS","39041","","","","7771313160"
"ST THOMAS BAPTIST CHURCH","4699 ST THOMAS RD","","","BOLTON ","MS","39041","","","","7771313160"
"TERRY HIGH SCHOOL ROTC BUILDING","429 W CUNNINGHAM AVE","","","TERRY","MS","39170","","","","7771313161"
"TERRY HIGH SCHOOL ROTC BUILDING","429 W CUNNINGHAM AVE","","","TERRY ","MS","39170","","","","7771313161"
"ST PAUL UNITED METH CHURCH","6400 JIMMY WILLIAMS RD","","","JACKSON","MS","39209","","","","7771313163"
"ST PAUL UNITED METH CHURCH","6400 JIMMY WILLIAMS ROAD","","","TINNIN","MS","39209","","","","7771313163"
"EVELYN TAYLOR MAJURE LIBRARY","211 W MAIN ST","","","UTICA","MS","39175","","","","7771313165"
"EVELYN TAYLOR MAJURE LIBRARY","211 WEST MAIN ST","","","UTICA","MS","39175","","","","7771313165"
"HINDS COUNTY DIST 3 BARN","CURTIS ST","","","UTICA","MS","39175","","","","7771313167"
"NEW LIFE BAPTIST CHURCH","NEW LIFE BAPTIST CHURCH
385 N OLD CANTON RD","","","MADISON","MS","39110","","","","7771313181"
"RIDGELAND RECREATION CENTER","P O BOX 217","","","RIDGELAND","MS","39158","","","","7771313183"
"RIDGELAND RECREATION CENTER","RIDGELAND RECREATION CENTER
127 TRACE PARK","","","RIDGELAND","MS","39157","","","","7771313183"
"GRACE CROSSING","598 YANDELL RD","","","CANTON","MS","39046","","","","7771313188"
"GRACE CROSSING","P O BOX 973","","","CANTON","MS","39046","","","","7771313188"
"FIRST PRESBYTERIAN CHURCH OF MADISON","FIRST PRESBYTERIAN CHURCH             7717 OLD CANTON RD","","","MADISON","MS","39110","","","","7771313198"
"VICTORY CHRISTIAN COMMUNITY CHURCH","7417 OLD CANTON RD","","","MADISON","MS","39110","","","","7771313200"
"VICTORY CHRISTIAN COMMUNITY CHURCH","P O BOX 2684","","","MADISON","MS","39130","","","","7771313200"
"TWIN LAKES BAPTIST CHURCH","673 LAKE CAVALIER ROAD","","","MADISON","MS","39110","","","","7771313207"
"TWIN LAKES BAPTIST CHURCH","TWIN LAKES BAPTIST CHURCH
673 LAKE CAVALIER ROAD","","","MADISON","MS","39110","","","","7771313207"
"COLONIAL HEIGHTS BAPTIST CHURCH","444 NORTHPARK DR","","","RIDGELAND","MS","39157","","","","7771313209"
"COLONIAL HEIGHTS BAPTIST CHURCH","444 NORTHPARK DR","","","RIDGELAND","MS","39158","","","","7771313209"
"TOUGALOO","TOUGALOO COLLEGE
C/O STUDENT AFFAIRS
500 W COUNTY LINE RD","","","TOUGALOO","MS","39174","","","","7771313212"
"TOUGALOO","TOUGALOO COLLEGE 
HEALTH & WELLNESS CENTER ROOM 212
500 W COUNTY LINE RD","","","TOUGALOO","MS","39174","","","","7771313212"
"BEAR CREEK","FELLOWSHIP BIBLE CHURCH
2270 HIGHWAY 51","","","CANTON","MS","39046","","","","7771313223"
"BEAR CREEK","FELLOWSHIP BIBLE CHURCH
2270 HWY 51","","","CANTON","MS","39046","","","","7771313223"
"FEARNS CHAPEL FREEWILL BAPTIST CHURCH","615 POCAHONTAS ROAD
","","","FLORA","MS","39071","","","","7771313235"
"FEARNS CHAPEL FREEWILL BAPTIST CHURCH","FEARNS CHAPEL FREEWILL BAPTIST CHURCH
615 POCAHONTAS ROAD","","","FLORA","MS","39071","","","","7771313235"
"CANTON FIRE STATION #4","CANTON FIRE STATION #4
188 WATFORD PARKWAY DRIVE","","","CANTON","MS","39046","","","","7771313247"
"CAMDEN COMMUNITY CENTER","CAMDEN COMMUNITY CENTER  122 PARKSIDE AVENUE","","","CAMDEN","MS","39045","","","","7771313250"
"CEDAR GROVE BAPTIST","998 HIGHWAY 43 SOUTH","","","CANTON","MS","39046","","","","7771313259"
"HS MULTIPURPOSE BLDG","235 N MEMPHIS ST","","","HOLLY SPRING","MS","38635","","","","7771313281"
"HS MULTIPURPOSE BLDG","235 N MEMPHIS ST","","","HOLLY SPRINGS","MS","38635","","","","7771313281"
"RED BANKS FIRE STATION","1348 S RED BANKS RD","","","RED BANKS","MS","38661","","","","7771313282"
"HOLLY SPRINGS FIRE STATION","127 W FALCONER AVE","","","HOLLY SPRINGS","MS","38635","","","","7771313283"
"VOTE BLDG/AMERICAN MOTEL  HWY 72","40 JONATHAN DR","","","BYHALIA","MS","38611","","","","7771313284"
"EARLY GROVE VOTING BLDG","20 EARLY GROVE RD","","","LAMAR","MS","38642","","","","7771313285"
"HUDSONVILLE VOTE BLDG","4235 HUDSONVILLE RD","","","HOLLY SPRINGS","MS","38635","","","","7771313286"
"MT PLEASANT HEADSTART","1439 BOSWELL RD","","","HOLLY SPRINGS","MS","38635","","","","7771313287"
"ICS HEADSTART CENTRAL OFFICE","160 W VALLEY AVE","","","HOLLY SPRINGS","MS","38635","","","","7771313288"
"SLAYDEN VOTING BLDG","172 N SLAYDEN RD","","","LAMAR","MS","38642","","","","7771313289"
"BARTON FIRE STATION","5135 HWY 302","","","OLIVE BRANCH","MS","38654","","","","7771313290"
"BYHALIA FIRE STATION #1","24 HWY 309 N","","","BYHALIA","MS","38611","","","","7771313291"
"CAYCE FIRE STATION","30 LEE CREEK RD","","","BYHALIA","MS","38611","","","","7771313292"
"CHULAHOMA COMMUNITY CENTER","5797 HWY 4 W","","","HOLLY SPRINGS","MS","38635","","","","7771313293"
"LAWS HILL COMMUNITY CENTER","3451 LAWS HILL RD","","","WATERFORD","MS","38685","","","","7771313294"
"MARIANNA VOTING BUILDING","4789 MARIANNA RD","","","HOLLY SPRINGS","MS","38635","","","","7771313295"
"VICTORIA COMMUNITY CENTER","77 VICTORIA RD","","","BYHALIA","MS","38611","","","","7771313296"
"ST PAUL CHURCH ACTIVITY CENTER","1393 HWY 309 S","","","BYHALIA","MS","38635","","","","7771313297"
"WATSON  COMMUNITY CENTER","3766 HWY 309 S","","","BYHALIA","MS","38611","","","","7771313298"
"WALL HILL VOTING BUILDING","2104 MT. SINAI RD","","","BYHALIA","MS","38611","","","","7771313299"
"BETHLEHEM FIRE STATION","2233 BROWNLEE RD","","","POTTS CAMP","MS","38659","","","","7771313300"
"CORNERSVILLE METHODIST CHURCH","21 CORNERSVILLE RD","","","POTTS CAMP","MS","38659","","","","7771313301"
"POTTS CAMP TOWN HALL","17 S CENTER ST","","","POTTS CAMP","MS","38659","","","","7771313302"
"NATIONAL GUARD ARMORY","720 HWY 4 E","","","HOLLY SPRINGS","MS","38635","","","","7771313303"
"WATERFORD COMMUNITY CENTER","45 WATERFORD ST","","","WATERFORD","MS","38685","","","","7771313304"
"ROBINSONVILLE COMMUNITY CENTER","5274 KIRBY ROAD","","","ROBINSONVILLE","MS","38664","","","","7771313334"
"DUNDEE COMUNITY CENTER","9140 DUNDEE ROAD","","","DUNDEE","MS","38626","","","","7771313335"
"HAMBRICK COMMUNITY CENTER","1275 HAMBRICK ROAD","","","ROBINSONVILLE","MS","38664","","","","7771313336"
"VERNER RD. PARK","VERNER RD. /NEXT TO VERNER RD. PARK
","","","TUNICA","MS","38676","","","","7771313337"
"R. C. IRWIN LIBRARY","R. C. IRWIN LIBRARY 1285 KENNY HILL AVE.","","","TUNICA","MS","38676","","","","7771313338"
"TUNICA AUDITORIUM","1552 SEARS AVENUE","","","TUNICA","MS","38676","","","","7771313339"
"MHOON LANDING","1338 FOX ISLAND ROAD","","","TUNICA","MS","38676","","","","7771313340"
"NEW SUB PARK","TEMPORARY BUILDING/1765 BEATLINE RD.","","","TUNICA","MS","38676","","","","7771313341"
"WHITE OAK REC. CENTER","110 WHITE OAK RD.","","","TUNICA","MS","38676","","","","7771313342"
"WIN JOB CENTER","1054 S. FITZGERALD BLVD.","","","ROBINSONVILLE","MS","38664","","","","7771313343"
"TUNICA ELEMENTARY CAMPUS","744 SCHOOL ST.","","","TUNICA","MS","38676","","","","7771313344"
"AUSTIN PARK","TEMPORARY BUILDING 1335 AUSTIN RD.","","","TUNICA","MS","38676","","","","7771313345"
"BURNSVILLE @ CHAMBER BLDG","322 HWY 72","","","BURNSVILLE","MS","38833","","","","7771313346"
"BELMONT @ AMERICAN LEGION BLDG","17 VALLEY ROAD","","","BELMONT","MS","38827","","","","7771313347"
"BELMONT @ AMERICAN LEGION BLDG","17 VALLEY ROAD","","","BELMONT","MS","38852","","","","7771313347"
"COLES MILL @ N XRDS  FIRE DEPT","200 CR 333","","","IUKA","MS","38852","","","","7771313348"
"COTTON SPRINGS @ MT ZION","596 HWY 4","","","DENNIS","MS","38838","","","","7771313349"
"DENNIS @ HOMEMAKER'S BLDG","1 CR 46","","","DENNIS","MS","38838","","","","7771313350"
"E IUKA @ NATIONAL GUARD ARMORY","901 E QUITMAN ST","","","IUKA","MS","38852","","","","7771313352"
"GOLDEN @ GOLDEN CITY HALL","211 FRONT ST","","","GOLDEN","MS","38847","","","","7771313353"
"HUBBARD SALEM @ TRI-STATE COMMERCE PARK/BUILDING 1000","751 CR 989","","","IUKA","MS","38852","","","","7771313354"
"SPRINGHILL @ OLD MIDWAY SCHOOL","473 HWY 364","","","IUKA","MS","38852","","","","7771313356"
"N BURNSVILLE @ COMM CENTER","70  MUNICIPAL PARK ROAD","","","BURNSVILLE","MS","38833","","","","7771313357"
"N BURNSVILLE @ COMM CENTER","70 MUNICIPAL PARK ROAD","","","BURNSVILLE","MS","38833","","","","7771313357"
"NORTH BELMONT @ BLUE SPRS PARK","1 SUMMER ST","","","BELMONT","MS","38827","","","","7771313358"
"IUKA @ TCEPA METERING DEPT (OLD CHEVROLET PLACE)","104 CONSTITUTION DRIVE","","","IUKA","MS","38852","","","","7771313359"
"PADEN @ COMMUNITY CENTER","1 LENNON AVE","","","TISHOMINGO","MS","38873","","","","7771313360"
"TISHOMINGO @ TISHOMINGO COMMUNITY CENTER","1267 MAIN ST","","","TISHOMINGO","MS","38873","","","","7771313361"
"TISHOMINGO @ TISHOMINGO COMMUNITY CENTER","1267 MAIN STREET","","","TISHOMINGO","MS","38873","","","","7771313361"
"WEST TISHOMINGO @  TISHOMINGO COMMUNITY CENTER","1267 MAIN ST","","","TISHOMINGO","MS","38852","","","","7771313364"
"WEST TISHOMINGO @  TISHOMINGO COMMUNITY CENTER","1267 MAIN ST","","","TISHOMINGO","MS","38873","","","","7771313364"
"TRINITY PRESBYTERIAN CHURCH","4223 POPLAR SPRING DR","","","MERIDIAN","MS","39305","","","","7771313365"
"TRINITY PRESBYTERIAN CHURCH","4223 POPLAR SPRINGS DR","","","MERIDIAN","MS","39305","","","","7771313365"
"MASONIC LODGE","9198 HILLVIEW DR","","","MERIDIAN","MS","39305","","","","7771313367"
"MARION TOWN HALL","6021 DALE DR","","","MARION","MS","39342","","","","7771313369"
"NE COMMUNITY CLUB","628 BRIARWOOD RD","","","MERIDIAN","MS","39305","","","","7771313370"
"PROSPECT PRESBYTERIAN CHURCH","7876 POPLAR SPRINGS DR","","","MERIDIAN","MS","39305","","","","7771313371"
"LAUDERDALE FIRE STATION","9275 LAUDERDALE TOOMSUBA RD","","","LAUDERDALE","MS","39335","","","","7771313372"
"CENTRAL FIRE STATION #1","2500 14TH STREET","","","MERIDIAN","MS","39301","","","","7771313374"
"VELMA YOUNG COMMUNITY CENTER","2400 16TH AVE","","","MERIDIAN","MS","39301","","","","7771313375"
"SAM DALE FIRE STATION","11037 HWY 39","","","DALEVILLE","MS","39326","","","","7771313377"
"LAUDERDALE BAPTIST ASSOC. BUILDING","5521 CLINTON ST","","","MARION","MS","39342","","","","7771313379"
"SPRINGHILL BAPTIST CHURCH","5395 WRIGHT SPUR RD","","","TOOMSUBA","MS","39364","","","","7771313380"
"RUSSELL COMMUNITY CENTER","1722 MARION RUSSELL RD","","","MERIDIAN","MS","39301","","","","7771313381"
"TOOMSUBA FIRE STATION","51 WILL GARRETT RD","","","TOOMSUBA","MS","39364","","","","7771313382"
"CENTER RIDGE FIRE STATION","5146 YORK RD","","","LAUDERDALE","MS","39335","","","","7771313383"
"EL BETHEL MISSIONARY BAPT CHURCH","2300 STATE BOULEVARD","","","MERIDIAN","MS","39305","","","","7771313384"
"NORTHCREST BAPTIST CHURCH","3412 NORTH HILLS STREET","","","MERIDIAN","MS","39305","","","","7771313385"
"FELLOWSHIP BAPTIST CHURCH","9325 FELLOWHSHIP RD","","","MERIDIAN","MS","39305","","","","7771313386"
"COLLINSVILLE VOLUNTEER FIRE DEPT","11710 NANCY DR","","","COLLINSVILLE","MS","39325","","","","7771313387"
"PINE GROVE BAPTIST CHURCH","11874 PINE GROVE RD","","","COLLINSVILLE","MS","39325","","","","7771313388"
"HUGHES MEMORIAL FOUNDATION BLDG","9503 HWY 493","","","BAILEY","MS","39320","","","","7771313389"
"MACEDONIA BAPTIST CHURCH","11206 HWY 494","","","MERIDIAN","MS","39305","","","","7771313390"
"PINE FOREST BAPTIST CHURCH","10031 WEST LAUDERDALE","","","COLLINSVILLE","MS","39325","","","","7771313391"
"FRANK COCHRAN CENTER","1725 CAROUSEL DR","","","MERIDIAN","MS","39307","","","","7771313392"
"MSU-MERIDIAN","1000 HWY 19 N","","","MERIDIAN","MS","39307","","","","7771313393"
"CAROUSEL PLACE-COMMUNITY CTR","4610 VALLY ST","","","MERIDIAN","MS","39307","","","","7771313394"
"MCCSA (OLD MT BARTON SCH)","2900 ST PAUL ST","","","MERIDIAN","MS","39301","","","","7771313395"
"HAMASA TEMPLE SHRINE-BALLROOM","2320 8TH ST","","","MERIDIAN","MS","39301","","","","7771313396"
"HAMASA TEMPLE SHRINE-BALLROOM","P O BOX 365","","","MERIDIAN","MS","39302","","","","7771313396"
"COUNCIL OF ORGANIZATIONS","814 45TH AVENUE","","","MERIDIAN","MS","39307","","","","7771313397"
"MERIDIAN HOUSING AUTHORITY","2425 E STREET","","","MERIDIAN","MS","39301","","","","7771313398"
"NEW HOPE BAPTIST CHURCH","2614-13TH STREET

","","","MERIDIAN","MS","39301","","","","7771313399"
"MT. VERNON BAPTIST CHURCH","4390 VALLEY RD","","","MERIDIAN","MS","39307","","","","7771313400"
"SAGEVILLE COMMUNITY CENTER","4721 ARUNDEL RD","","","MERIDIAN","MS","39307","","","","7771313401"
"OAK GROVE BAPTIST CHURCH","801 OAK GROVE DR
","","","MERIDIAN","MS","39301","","","","7771313403"
"TUXEDO COMM CENTER","701 B STREET","","","MERIDIAN","MS","39301","","","","7771313404"
"CAUSEYVILLE FIRE STATION","6145 CAUSEYVILLE RD","","","MERIDIAN","MS","39301","","","","7771313407"
"NEW HOPE BAPTIST CHURCH","6573 HWY 145","","","MERIDIAN","MS","39301","","","","7771313408"
"CLARKDALE FIRE STATION #1","5412 HWY 145","","","MERIDIAN","MS","39301","","","","7771313409"
"MEEHAN FIRE STATION","12195 OLD HWY 80 WEST","","","MERIDIAN","MS","39301","","","","7771313410"
"PENTECOSTAL CHURCH OF JESUS CHRIST","1404 HWY 19 S","","","MERIDIAN","MS","39301","","","","7771313411"
"LOST GAP FIRE STATION","87 NORTH LAKELAND DR","","","MERIDIAN","MS","39307","","","","7771313412"
"SOUTH LAUDERDALE FIRE STATION","4849 VALLEY RD","","","MERIDIAN","MS","39307","","","","7771313413"
"WHYNOT FIRE STATION","4602 OLD HWY 19 SE","","","MERIDIAN","MS","39301","","","","7771313415"
"LONG CREEK FIRE STATION","4892 ZERO RD","","","MERIDIAN","MS","39301","","","","7771313416"
"RUSSELL BAPTIST CHURCH","1844 HWY 11 & 80","","","MERIDIAN","MS","39301","","","","7771313417"
"MT GILEAD BAPTIST CHURCH","3456 KOA CAMPGROUND RD","","","MERIDIAN","MS","39301","","","","7771313418"
"BELL SHCOOLHOUSE FIRE STATION","2221 HWY 389","","","STARKVILLE","MS","39759","","","","7771313421"
"CENTRAL STARKVILLE","108 W MAIN STREET","","","STARKVILLE","MS","39759","","","","7771313422"
"EAST STARKVILLE","55 COLISEUM BLVD","","","MS STATE","MS","39762","","","","7771313426"
"NEEDMORE","610 E GILLESPIE","","","STARKVILLE","MS","39759","","","","7771313427"
"MABEN CITY HALL","685 2ND AVE","","","MABEN","MS","39750","","","","7771313429"
"NORTH 2","905 N MONTGOMERY STREET","","","STARKVILLE","MS","39759","","","","7771313430"
"NORTH 3","102 W GARRARD RD","","","STARKVILLE","MS","39759","","","","7771313431"
"NORTHEAST","55 COLISEUM BLVD","","","MS STATE","MS","39762","","","","7771313433"
"NORTH LONGVIEW","2168 HWY 12 W","","","STARKVILLE","MS","39759","","","","7771313434"
"OKTOC","OKTOC RD","","","STARKVILLE","MS","39759","","","","7771313435"
"OSBORN","1726 16TH SECTION RD","","","STARKVILLE","MS","39759","","","","7771313436"
"SOUTH ADATON","1975 HWY 82 W","","","STARKVILLE","MS","39759","","","","7771313437"
"SOUTH LONGVIEW","2168 HWY 12 W","","","STARKVILLE","MS","39759","","","","7771313440"
"SESSUMS","3100  TURKEY CREEK RD","","","STARKVILLE","MS","39759","","","","7771313441"
"SOUTH STARKVILLE","405 LYNN LANE","","","STARKVILLE","MS","39759","","","","7771313442"
"WEST STARKVILLE","HWY 12 W","","","STARKVILLE","MS","39759","","","","7771313444"
"ACONA FIRE DEPARTMENT","11680 ROSEBANK-MT. OLIVE","","","LEXINGTON","MS","39095","","","","7771313445"
"ACONA FIRE DEPARTMENT","11680 ROSEBANK-MT. OLIVE RD","","","LEXINGTON","MS","39095","","","","7771313445"
"ACONA FIRE DEPARTMENT","11680 ROSEBANK-MT. OLIVE RD.","","","LEXINGTON","MS","39095","","","","7771313445"
"1 DUR SUB SAINT ANDERSON","369 BAIN STREET","","","DURANT","MS","39063","","","","7771313446"
"SAINTS ACADEMY","169 HIGHWAY 17 SOUTH","","","LEXINGTON","MS","39095","","","","7771313447"
"DURANT CITY HALL","253 WEST MULBERRY STREET","","","DURANT","MS","39063","","","","7771313448"
"NAT'L GUARD ARMORY","16110 NORTH JACKSON STREET","","","DURANT","MS","39063","","","","7771313450"
"WEST CITY HALL","114 GREEN STREET","","","WEST","MS","39192","","","","7771313451"
"COXBURG COMMUNITY CENTER","4298 EBENEZER-COXBURG RD","","","LEXINGTON","MS","39095","","","","7771313452"
"EBENEZER FIRE DEPARTMENT","115 HIGHWAY 14","","","LEXINGTON","MS","39095","","","","7771313453"
"GOODMAN NUTRITION BUILDING","9982 MAIN STREET","","","GOODMAN","MS","39079","","","","7771313454"
"PICKENS POLICE DEPARTMENT","163 NORTH SECOND STREET","","","PICKENS","MS","39146","","","","7771313455"
"JUSTICE COURT COURTROOM","200 COURT SQUARE","","","LEXINGTON","MS","39095","","","","7771313456"
"THORNTON FIRE DEPT","591 TOLARSVILLE ROAD","","","TCHULA","MS","39169","","","","7771313457"
"WALDEN CHAPEL CHURCH","308 FRANKLIN ROAD","","","GOODMAN","MS","39079","","","","7771313458"
"LEXINGTON ELEMENTARY GYM","209 PINE STREET","","","LEXINGTON","MS","39095","","","","7771313460"
"SENIOR CITIZENS BUILDING","80 SCHOOL STREET","","","TCHULA","MS","39169","","","","7771313461"
"(21)UNITY MISSIONARY BAPT CH","1192 MAG-PROGRESS RD","","","MCCOMB","MS","39648","","","","7771313696"
"(11)LEGGETT COMMUNITY","2036 OLD 24 EXT","","","MAGNOLIA","MS","39652","","","","7771313697"
"(03)PIKE BAPTIST ASSOC. BLDG.","1108 WEAVER RD.","","","MCCOMB","MS","39648","","","","7771313698"
"(12)MEPA BLDG. HWY 98 EAST","3012 HWY 98 E","","","MCCOMB","MS","39648","","","","7771313699"
"(05)PLEASANT GROVE BAPT CH E. MCCOMB","800 PEARL RIVER AVE","","","MCCOMB","MS","39648","","","","7771313700"
"(02)S MCCOMB BAPTIST CHURCH","340 24TH ST","","","MCCOMB","MS","39648","","","","7771313701"
"(02)S MCCOMB BAPTIST CHURCH","CROSSROADS BLDG,
340 24TH ST","","","MCCOMB","MS","39648","","","","7771313701"
"(06)S. PIKE COMM. CTR.","1210 26TH ST","","","MCCOMB","MS","39648","","","","7771313702"
"(06)S. PIKE COMM. CTR.","1210 26TH ST ","","","MCCOMB","MS","39648","","","","7771313702"
"(07)ALPHA CENTER","414 MCCOMB ST","","","MCCOMB","MS","39648","","","","7771313703"
"(07)ALPHA CENTER","414 MCCOMB ST ","","","MCCOMB","MS","39648","","","","7771313703"
"(08)FERNWOOD SCHOOL","1093 OAK AVE","","","FERNWOOD","MS","39635","","","","7771313704"
"(09)MAGNOLIA COMM CTR.","235 S CHERRY ST","","","MAGNOLIA","MS","39652","","","","7771313705"
"(10)BRASWELL EDUCATION COMPLEX","1010 HWY 48 E","","","MAGNOLIA","MS","39652","","","","7771313706"
"(12)COURTHOUSE","200 E BAY ST","","","MAGNOLIA","MS","39652","","","","7771313707"
"(13)HOLMESVILLE COMM.","1016 TENNESSEE ST","","","MCCOMB","MS","39648","","","","7771313708"
"(14)CALVARY BAPTIST CHURCH","1009 PRICEDALE DR","","","SUMMIT","MS","39666","","","","7771313709"
"(15)OLD JONES SCHOOL","1041 FRIENDSHIP CIR","","","MCCOMB","MS","39648","","","","7771313710"
"(01)NEW HOPE BAPTIST CHURCH","515 LOCUST ST N","","","MCCOMB","MS","39648","","","","7771313711"
"(17)ENTERGY","300 N BROADWAY","","","MCCOMB","MS","39648","","","","7771313712"
"(03)SUMMIT LEARN. CTR","1201 BALDWIN ST","","","SUMMIT","MS","39666","","","","7771313713"
"(16)SUMMIT CITY HALL","706 W RAILROAD AVE","","","SUMMIT","MS","39666","","","","7771313714"
"(17)SOUTHWEST BSU BLDG.","1063 LAKESIDE DR","","","SUMMIT","MS","39666","","","","7771313715"
"(17)SOUTHWEST BSU BLDG.","1063 LAKESIDE DR

","","","SUMMIT","MS","39666","","","","7771313715"
"(18)JOHNSTON CHAPEL METH. CH","2093 CHAPEL DR","","","SUMMIT","MS","39666","","","","7771313716"
"(19)PISGAH METHODIST CHURCH","2048 HWY 570 W","","","SUMMIT","MS","39666","","","","7771313717"
"(23)LEGACY MOTORS","2102 VETERANS BLVD","","","MCCOMB","MS","39648","","","","7771313718"
"(04)MLK CENTER","601 MLK DRIVE","","","MCCOMB","MS","39648","","","","7771313719"
"(20)PIKE CO.NAT.BANK","350 RAWLS DRIVE","","","MCCOMB","MS","39648","","","","7771313720"
"(05)AMERICAN LEG. HUT","403 LAKESHORE DR","","","MCCOMB","MS","39648","","","","7771313721"
"(27)STOREHOUSE CHURCH","529 MINNESOTA AVE","","","MCCOMB","MS","39648","","","","7771313722"
"(22)CHURCH OF CHRIST","PARK LANE RD","","","MCCOMB","MS","39648","","","","7771313723"
"(23)WEST MCCOMB BAPT. CHURCH","4016 HWY 24 W","","","MCCOMB","MS","39648","","","","7771313724"
"(24) ST. MARY OF THE PINES","3167 OLD 51 S","","","OSYKA","MS","39657","","","","7771313725"
"(25)OSYKA CITY HALL","215 LIBERTY ST","","","OSYKA","MS","39657","","","","7771313726"
"(32) ST. MARY OF THE PINES","3167 OLD 51 S","","","OSYKA","MS","39657","","","","7771313727"
"BILOXI COMMUNITY CENTER","591 E HOWARD AVENUE","","","BILOXI","MS","39530","","","","7771313728"
"LOPEZ QUAVE PUBLIC SAFETY CENTER","170 PORTER AVE","","","BILOXI","MS","39531","","","","7771313729"
"MICHEL MIDDLE SCHOOL","1400 FATHER RYAN ","","","BILOXI","MS","39531","","","","7771313730"
"FELLOWSHIP LODGE #630","166 VETERANS AVE","","","BILOXI","MS","39531","","","","7771313731"
"D'IBERVILLE CIVIC CENTER","6395 AUTOMALL PKWY","","","D'IBERVILLE","MS","39540","","","","7771313732"
"WHITE PLAINS METHODIST CHURCH","WHITE PLAINS RD","","","SAUCIER","MS","39574","","","","7771313733"
"POPLAR HEAD METHODIST CHURCH","13200 POPLAR HEAD RD","","","SAUCIER","MS","39574","","","","7771313734"
"MICHEL MIDDLE SCHOOL","1400 FATHER RYAN ","","","BILOXI","MS","39531","","","","7771313735"
"GULF COAST BUSINESS TECHNOLOGY CTR","1636 POPPS FERRY RD","","","BILOXI","MS","39532","","","","7771313736"
"FELLOWSHIP LODGE # 630","166 VETERANS AVE","","","BILOXI","MS","39531","","","","7771313737"
"D'IBERVILLE CIVIC CENTER"," AUTO MALL PKWY","","","D'IBERVILLE","MS","39540","","","","7771313739"
"WHITE PLAINS METHODIST CHURCH","WHITE PLAINS RD","","","SAUCIER","MS","39574","","","","7771313740"
"POPLAR HEAD METHODIST CHURCH","13200 POPLAR HEAD RD","","","SAUCIER","MS","39574","","","","7771313742"
"D'IBERVILLE CIVIC CENTER","AUTOMALL PKWY","","","D'IBERVILLE","MS","39540","","","","7771313744"
"BLDG AT GALILEE BAPTIST CHURCH","23004 SAUCIER ADVANCE RD","","","SAUCIER","MS","39574","","","","7771313745"
"COUNTY FARM ROAD FIRE STATION","13243 COUNTY FARM RD","","","GULFPORT","MS","39503","","","","7771313747"
"LYMAN - ORANGE GROVE COMMUNITY CENTER","13472 HIGHWAY 49","","","GULFPORT","MS","39503","","","","7771313750"
"HARRISON CENTRAL ELEMENTARY SCHOOL","15451 DEDEAUX RD","","","GULFPORT","MS","39503","","","","7771313753"
"CENTRAL FIRE STATION","1515 23RD AVE","","","GULFPORT","MS","39501","","","","7771313756"
"GULFPORT LITTLE THEATRE","2600 13TH AVE","","","GULFPORT","MS","39501","","","","7771313757"
"HERBERT WILSON RECREATION BLDG.","3625 HANCOCK AVE","","","GULFPORT","MS","39507","","","","7771313760"
"BAYOU VIEW MIDDLE SCHOOL","212 43RD ST","","","GULFPORT","MS","39507","","","","7771313762"
"BAYOU VIEW ELEMENTARY SCHOOL","4898 WASHINGTON AVE","","","GULFPORT","MS","39507","","","","7771313763"
"LYMAN ELEMENTARY SCHOOL","14222 OLD HIGHWAY 49","","","GULFPORT","MS","39503","","","","7771313764"
"ORANGE GROVE ELEMENTARY SCHOOL","11391 OLD HIGHWAY 49","","","GULFPORT","MS","39503","","","","7771313767"
"PORTABLE BLDG ACROSS FM PERSIMMON HILL CHURCH","22081 RICEVILLE RD","","","SAUCIER","MS","39574","","","","7771313771"
"ORANGE GROVE WORK CENTER","10076 LORRAINE RD","","","GULFPORT","MS","39503","","","","7771313773"
"HARRISON COUNTY SAND BEACH OFFICE","842 COMMERCE ST","","","GULFPORT","MS","39507","","","","7771313775"
"GULFPORT HIGH SCHOOL / GYM","PERRY STREET","","","GULFPORT","MS","39507","","","","7771313776"
"DELISLE VOL FIRE DEPT","25242 CUEVAS DELISE RD","","","PASS CHRISTIAN","MS","39571","","","","7771313777"
"CITY COURT BUILDING","105 HEIRN AVENUE","","","PASS CHRISTIAN","MS","39571","","","","7771313778"
"WEST SIDE COMMUNITY CENTER","4006 8TH STREET","","","GULFPORT","MS","39501","","","","7771313780"
"VFW BUILDING","400 CLARENCE AVENUE","","","PASS CHRISTIAN","MS","39571","","","","7771313783"
"WEST HARRISON COUNTY FIRE STATION","10071 VIDALIA RD","","","PASS CHRISTIAN","MS","39571","","","","7771313785"
"LIZANA VOL FIRE DEPARTMENT","16445 LIZANA SCHOOL RD","","","GULFPORT","MS","39503","","","","7771313787"
"METHODIST CHURCH-CHRISTIAN LIFE CENTER","208 PINE STREET","","","LONG BEACH","MS","39560","","","","7771313788"
"PRESBYTERIAN CHURCH EDUCATION BUILDING","208 SOUTH BURKE AVENUE","","","LONG BEACH","MS","39560","","","","7771313789"
"TECH CENTER, USM GULF PARK CAMPUS","703 EAST BEACH BLVD","","","LONG BEACH","MS","39560","","","","7771313790"
"LONG BEACH POLICE DEPT SHELTER","201 ALEXANDER RD","","","LONG BEACH","MS","39560","","","","7771313791"
"GRACE LUTHERAN CHURCH","19221 PINEVILLE RD","","","LONG BEACH","MS","39560","","","","7771313792"
"LONG BEACH SCHOOL ADM. BLDG.","19148 COMMISSION RD","","","LONG BEACH","MS","39560","","","","7771313793"
"FAITH BAPTIST CHURCH","8467 CANAL RD","","","GULFPORT","MS","39503","","","","7771313794"
"PINEVILLE SCHOOL","5192 MENGE AVE","","","PASS CHRISTIAN","MS","39571","","","","7771313801"
"OLD DEDEAUX SCHOOL","14595 VIDALIA RD","","","PASS CHRISTIAN","MS","39571","","","","7771313807"
"19TH STREET COMMUNITY CENTER","3319 19TH STREET","","","GULFPORT","MS","39501","","","","7771313808"
"DAV HALL","2600 23RD AVE","","","GULFPORT","MS","39501","","","","7771313811"
"DAV HALL","2600 23RD AVENUE","","","GULFPORT","MS","39501","","","","7771313813"
"GASTON HEWES RECREATION CENTER","2733 33RD AVENUE","","","GULFPORT","MS","39501","","","","7771313814"
"GASTON POINT COMMUNITY CENTER","1504 MILLS AVE","","","GULFPORT","MS","39501","","","","7771313816"
"THE LEARNING CENTER / ALTERNATIVE SCHOOL","1215 CHURCH ST","","","GULFPORT","MS","39503","","","","7771313817"
"GOOD DEEDS COMMUNITY CENTER","15101 MADISON ST","","","GULFPORT","MS","39501","","","","7771313819"
"GULF COAST COMMUNITY ACTION AGENCY","500 24TH STREET","","","GULFPORT","MS","39501","","","","7771313820"
"ORANGE GROVE COMMUNITY CENTER","14416 DEDEAUX RD","","","GULFPORT","MS","39503","","","","7771313823"
"BEL-AIRE SCHOOL / GYM","10531 KLEIN RD","","","GULFPORT","MS","39503","","","","7771313829"
"ISIAH FREDERICKS COMMUNITY CENTER","3312 MARTIN LUTHER KING JR BLVD","","","GULFPORT","MS","39501","","","","7771313836"
"COMMUNITY ACTION AGENCY BUILDING","500 24TH ST","","","GULFPORT","MS","39501","","","","7771313840"
"HARRISON CENTRAL HIGH SCHOOL","15600 SCHOOL RD","","","GULFPORT","MS","39503","","","","7771313845"
"WEST BILOXI LIBRARY","2047 PASS RD","","","BILOXI","MS","39531","","","","7771313847"
"DONAL SNYDER COMMUNITY CENTER","2520 PASS RD","","","BILOXI","MS","39531","","","","7771313848"
"FRANCIS X COLLINS FITNESS CENTER","2204 SWETMAN BLVD","","","GULFPORT","MS","39507","","","","7771313849"
"HARRISON COUNTY SKATE PARK","269 DEBUYS RD","","","GULFPORT","MS","39507","","","","7771313850"
"WOOLMARKET LIONS CLUB","12596 LORRAINE RD","","","BILOXI","MS","39531","","","","7771313852"
"SAUCIER SENIOR CITIZENS CENTER","24014 CHURCH ST","","","SAUCIER","MS","39574","","","","7771313854"
"WOOLMARKET COMMUNITY CENTER","16320 OLD WOOLMARKET RD","","","BILOXI","MS","39532","","","","7771313857"
"PENTACOSTALS- THE GULF COAST","1907 POPPS FERRY RD","","","BILOXI","MS","39532","","","","7771313859"
"MARGARET SHERRY LIBRARY","2141 POPPS FERRY RD","","","BILOXI","MS","39532","","","","7771313861"
"COMMUNITY HOUSE","114 CHURCH STREET","","","RULEVILLE","MS","38771","","","","7771313969"
"BETHANY BAPTIST CHURCH","29 BETHANY CHURCH RD","","","MERIGOLD","MS","38759","","","","7771313972"
"NATIONAL GUARD ARMORY","4127 HWY 49","","","DREW","MS","38737","","","","7771313974"
"RULEVILLE HEALTH DEPT.","628 BYRON","","","RULEVILLE","MS","38771","","","","7771313975"
"DELTA MISSION 410 JOHNSON","410 JOHNSON ST","","","INDIANOLA","MS","38751","","","","7771313977"
"OAK RIDGE","OAK RIDGE GROCERY
10645 OAK RIDGE ROAD","","","VICKSBURG","MS","39183","","","","77713131006"
"REDWOOD","REDWOOD ELEM SCHOOL
100 REDWOOD ROAD","","","REDWOOD","MS","39156","","","","77713131007"
"BOVINA","BOVINA BAPTIST CHURCH
HWY 80","","","VICKSBURG","MS","39183","","","","77713131008"
"CULKIN","SHERMAN AVE SCHOOL
2147 SHERMAN AVENUE","","","VICKSBURG","MS","39183","","","","77713131012"
"CEDAR GROVE","ROLLING ACRES COMM. CENTER
131 ELIZABETH CIRCLE","","","VICKSBURG","MS","39180","","","","77713131016"
"KINGS","TRIUMPH MINISTRIES CENTER
200 R L CHASE CIRCLE","","","VICKSBURG","MS","39180","","","","77713131018"
"ST ALOYSIUS","SPRING HILL MB CHURCH
815 MISSION 66","","","VICKSBURG","MS","39180","","","","77713131021"
"AUDITORIUM","CITY AUDITORIUM
901 MONROE STREET","","","VICKSBURG","MS","39180","","","","77713131022"
"BRUNSWICK","EAGLE LAKE VOL FIRE DEPARTMENT
15115 HWY 465","","","VICKSBURG","MS","39180","","","","77713131023"
"3-61","INTERNATIONAL PAPER MILL
3737 HWY 3","","","VICKSBURG","MS","39180","","","","77713131024"
"AMERICAN LEGION POST","AMERICAN LEGION POST
1712 MONROE STREET","","","VICKSBURG","MS","39180","","","","77713131025"
"VICKSBURG JUNIOR HIGH SCHOOL","JUNIOR HIGH SCHOOL
1630 BALDWIN FERRY ROAD","","","VICKSBURG","MS","39180","","","","77713131026"
"NO.7 FIRE STATION","TRAVELERS REST BAPTIST CHURCH
718 BOWMAR AVE","","","VICKSBURG","MS","39180","","","","77713131030"
"NO.7 FIRE STATION","TRAVELERS REST BAPTIST CHURCH
718 BOWMAR AVE","","","VICKSBURG","MS","39190","","","","77713131030"
"JETT","IMMANUEL BAPTIST CHURCH
6949 HWY 61 SOUTH","","","VICKSBURG","MS","39180","","","","77713131032"
"GOODRUM","GOODRUM BAPTIST CHURCH
4569 FISHER FERRY ROAD","","","VICKSBURG","MS","39180","","","","77713131034"
"YOKENA","YOKENA PRESBYTERIAN CHURCH
10660 HWY 61 SOUTH","","","VICKSBURG","MS","39180","","","","77713131036"
"ELKS LODGE","ELKS LODGE #95
1366 HWY 61 SOUTH","","","VICKSBURG","MS","39180","","","","77713131037"
"BEECHWOOD","CALVARY BAPTIST CHURCH
2878 OLD HWY 27","","","VICKSBURG","MS","39180","","","","77713131039"
"MOOSE LODGE","BERACHAH BAPTIST CHURCH
2918 FISHER FERRY ROAD","","","VICKSBURG","MS","39180","","","","77713131040"
"TINGLEVILLE","THE CHURCH OF GOD
5598 GIBSON ROAD","","","VICKSBURG","MS","39180","","","","77713131042"
"PLUMBERS & PIPEFITTERS","PLUMBER & PIPEFITTERS UNION HALL
3203 NORTH FRONTAGE ROAD","","","VICKSBURG","MS","39180","","","","77713131045"
"YMCA","PORTERS CHAPEL UNITED METHODIST CHURH
200 PORTERS CHAPEL ROAD","","","VICKSBURG","MS","39180","","","","77713131047"
"MINTER CITY VOLUNTEER FIRE STATION","2900 COUNTY ROAD 26","","","MINTER CITY","MS","38944","","","","77713131049"
"MONEY VOLUNTEER FIRE STATION","28200 COUNTY ROAD 518","","","MONEY","MS","38945","","","","77713131051"
"CIVIC CENTER","200 HIGHWAY 7 NORTH","","","GREENWOOD","MS","38930","","","","77713131052"
"MAIN STREET FIRE STATION","404 MAIN STREET","","","GREENWOOD","MS","38930","","","","77713131054"
"LEFLORE COUNTY COURT HOUSE","310 WEST MARKET STREET","","","GREENWOOD","MS","38930","","","","77713131055"
"MVSU SOCIAL SCIENCES BLDG","14000 HIGHWAY 82 WEST","","","ITTA BENA","MS","38941","","","","77713131056"
"SCHLATER CITY HALL","P.O. BOX 196","","","SCHLATER","MS","38952","","","","77713131057"
"YOUTH CENTER","926 HENRY STREET","","","GREENWOOD","MS","38930","","","","77713131058"
"ITTA BENA FIRE DEPARTMENT","301 MARTIN LUTHER KING DRIVE","","","ITTA BENA","MS","38941","","","","77713131059"
"ITTA BENA COMMUNITY CENTER","305 THURMAN ST.","","","ITTA BENA","MS","38941","","","","77713131060"
"ITTA BENA COMMUNITY CENTER","305 THURMAN STREET","","","ITTA BENA","MS","38941","","","","77713131060"
"RISING SUN SCHOOL","3827 RISING SUN SCHOOL ROAD","","","GREENWOOD","MS","38930","","","","77713131061"
"SIDON COMMUNITY HOUSE","104 GREEN STREET","","","SIDON","MS","38954","","","","77713131062"
"LEFLORE COUNTY ROAD BARN","65161 HIGHWAY 7 SOUTH","","","MORGAN CITY","MS","38946","","","","77713131063"
"MAXEY'S GROCERY","100545 HIGHWAY 7 SOUTH","","","SWIFTOWN","MS","38959","","","","77713131064"
"JODIE WILSON LIBRARY","209 MARTIN LUTHER KING DRIVE","","","GREENWOOD","MS","38930","","","","77713131065"
"EAST ELEMENTARY SCHOOL","208 MEADOWBROOK ROAD","","","GREENWOOD","MS","38930","","","","77713131066"
"430 SCHOOL PRECINCT","22 CR 165","","","COILA","MS","38923","","","","77713131088"
"BLACK HAWK FIRE STATION","35031 HWY 430","","","COILA","MS","38923","","","","77713131089"
"BLACK HAWK FIRE STATION","35031 HYW 430","","","COILA","MS","38923","","","","77713131089"
"CALVARY FIRE STATION","5246 CR 94","","","GRENADA","MS","38901","","","","77713131090"
"CARROLL COUNTY EXTENSION SERVICE BUILDING","105-B E WASHINGTON ST","","","CARROLLTON","MS","38917","","","","77713131091"
"EAST VAIDEN COURTROOM","803 FRONT ST","","","VAIDEN","MS","39176","","","","77713131092"
"FIRE TOWER PRECINCT","72 CR 296","","","CARROLLTON","MS","38917","","","","77713131093"
"GRAVEL HILL FIRE STATION","695 CR 23","","","GREENWOOD","MS","38930","","","","77713131094"
"RAYS SHOP MT PISGAH FIRE STATION","287 CR 41","","","CARROLLTON","MS","38917","","","","77713131099"
"SALEM FIRE STATION","45204 HWY 430","","","VAIDEN","MS","39176","","","","77713131101"
"WEST CARROLL FIRE STATION","158 CR 531","","","GREENWOOD","MS","38930","","","","77713131103"
"WEST VAIDEN BOARD ROOM","803 FRONT ST","","","VAIDEN","MS","39176","","","","77713131104"
"COMO LIBRARY","104 MAIN ST","","","COMO","MS","38619","","","","77713131237"
"PLEASANT MOUNT FIRE STATION","100 SIMON CHAPEL RD","","","SARDIS","MS","38666","","","","77713131238"
"PLEASANT MOUNT FIRE STATION","100 SIMON CHAPEL RD","","","SARDIS ","MS","38666","","","","77713131238"
"SARDIS CITY HALL","114 W. LEE ST","","","SARDIS","MS","38666","","","","77713131239"
"SARDIS COURTHOUSE","215 S. POCAHONTAS ST","","","SARDIS","MS","38666","","","","77713131240"
"SARDIS LIBRARY","101 MCLAURIN ST","","","SARDIS","MS","38666","","","","77713131242"
"PLEASANT GROVE FIRE STATION","9566 HWY 315 W","","","SARDIS","MS","38666","","","","77713131244"
"LONG TOWN FIRE STATION","4975 HWY 310","","","CRENSHAW","MS","38621","","","","77713131245"
"CRENSHAW OLD CITY HALL","610 BROAD ST","","","CRENSHAW ","MS","38621","","","","77713131246"
"CURTIS FIRE STATION","2809 CURTIS LOCKE STATION RD","","","BATESVILLE","MS","38606","","","","77713131247"
"MACEDONIA-CONCORD COMMUNITY CENTER","8302 CURTIS RD","","","BATESVILLE","MS","38606","","","","77713131250"
"CLIFF FINCH BUILDING","245 EUREKA ST","","","BATESVILLE","MS","38606","","","","77713131251"
"COURTLAND FIRE STATION","536 MAIN ST","","","COURTLAND","MS","38620","","","","77713131252"
"POPE CITY HALL","31 MAGNOLIA ST","","","POPE","MS","38658","","","","77713131253"
"TOCOWA COMMUNITY CENTER","9101 HWY 35 S","","","BATESVILLE","MS","38606","","","","77713131254"
"PANOLA COUNTY EXTENSION BUILDING","394 HWY 51 S","","","BATESVILLE","MS","38606","","","","77713131257"
"PANOLA COUNTY EXTENSION BUILDING","394 HWY 51 S ","","","BATESVILLE","MS","38606","","","","77713131257"
"EUREKA COMMUNITY CENTER","7694 EUREKA RD","","","COURTLAND","MS","38620","","","","77713131258"
"BLACK JACK COMMUNITY CENTER","32595 BLACKJACK RD","","","BATESVILLE","MS","38606","","","","77713131259"
"MT. OLIVET FIRE DEPT.","6507 MT OLIVET RD","","","BATESVILLE","MS","38606","","","","77713131260"
"COLE'S POINT FIRE DEPT.","1270 SARDIS LAKE DR","","","BATESVILLE","MS","38606","","","","77713131261"
"BATESVILLE COURTHOUSE","151 PUBLIC SQUARE","","","BATESVILLE","MS","38606","","","","77713131264"
"BATESVILLE COURTHOUSE","151 PUBLIC SQUARE ","","","BATESVILLE","MS","38606","","","","77713131264"
"BATESVILLE CITY HALL","103 COLLEGE ST","","","BATESVILLE","MS","38606","","","","77713131265"
"PATTON LANE COMMUNITY CENTER","133 PATTON LN","","","BATESVILLE","MS","38606","","","","77713131267"
"ENON-LOCKE STATION WATER BLDG.","3036 WALDRUP RD","","","BATESVILLE","MS","38606","","","","77713131268"
"TEASDALE COMMUNITY HOUSE","1833 TEASDALE ROAD","","","ENID","MS","38927","","","","77713131272"
"ENID FIREHOUSE","2 JACKSON AVE","","","ENID","MS","38927","","","","77713131273"
"SPRINGHILL FIREHOUSE","7369 MS HWY 32 E","","","OAKLAND","MS","38948","","","","77713131274"
"SPRINGHILL FIREHOUSE","7369B MS HWY 32 E","","","OAKLAND","MS","38948","","","","77713131274"
"MIDDLE SCHOOL BAND HALL","17 OAKGROVE ROAD","","","CHARLESTON","MS","38921","","","","77713131275"
"CITY HALL","26 SOUTH SQUARE","","","CHARLESTON","MS","38921","","","","77713131276"
"BRAZIL VOTING HOUSE","1282 MS HWY 321","","","TUTWILER","MS","38963","","","","77713131277"
"COURTHOUSE SUMNER","#1 MONROE ST","","","SUMNER","MS","38957","","","","77713131279"
"COURTHOUSE SUMNER","#1 MONROE ST","","","SUMNER ","MS","38957","","","","77713131279"
"PAYNES FIREHOUSE","1980 MS HWY 35 S","","","CHARLESTON","MS","38921","","","","77713131281"
"LEVERETTE VOTING HOUSE","1419 MS HWY 35 S","","","HOLCOMB","MS","38940","","","","77713131282"
"CASCILLA FIREHOUSE","620 WHITTEN RD","","","CASCILLA","MS","38920","","","","77713131283"
"CASCILLA FIREHOUSE","620 WHITTEN ROAD","","","CASCILLA","MS","38920","","","","77713131283"
"MURPHREESBORO FIREHOUSE","1194 TALLAHA ROAD","","","SCOBEY","MS","38953","","","","77713131284"
"MURPHREESBORO FIREHOUSE","1194 TALLAHA ROAD","","","SCOBEY ","MS","38953","","","","77713131284"
"ROSEBLOOM FIREHOUSE","1747 CASCILLA ROAD","","","CASCILLA","MS","38920","","","","77713131285"
"TIPPO FIREHOUSE","2292 TIPPO RD","","","CHARLESTON","MS","38921","","","","77713131286"
"TIPPO FIREHOUSE","2292 TIPPO ROAD","","","CHARLESTON","MS","38921","","","","77713131286"
"PHILLIP FIREHOUSE","37 BROADWAY STREET","","","PHILLIP","MS","38950","","","","77713131287"
"BLUE CANE COMMUNITY CENTER","180 BLUE CANE ROAD","","","CHARLESTON","MS","38921","","","","77713131290"
"WEST TALLAHATCHIE HIGH SCHOOL","2110 MS HWY 49 E","","","WEBB","MS","38966","","","","77713131291"
"WEST TALLAHATCHIE SCHOOL DISTRICT OFFICE","11 WORLEY DRIVE","","","SUMNER","MS","38957","","","","77713131292"
"WEST TALLAHATCHIE SCHOOL DISTRICT OFFICE","11 WORLEY DRIVE","","","SUMNER ","MS","38957","","","","77713131292"
"TUTWILER COMMUNITY CENTER","301 HANCOCK STREET","","","TUTWILER","MS","38963","","","","77713131293"
"BEULAH","BEULAH TOWN  HALL","","","BEULAH","MS","38726","","","","77713131299"
"BEULAH","BEULAH TOWN HALL","","","BEULAH","MS","38726","","","","77713131299"
"BENOIT PRECINCT","BENOIT LIBRARY
109 W. PRESTON ST","","","BENOIT","MS","38725","","","","77713131300"
"BENOIT PRECINCT","BENOIT LIBRARY
109 W. PRESTON ST.","","","BENOIT","MS","38725","","","","77713131300"
"BOYLE","BOYLE CITY HALL- 105 TIM JONES","","","BOYLE","MS","38730","","","","77713131301"
"BOYLE","BOYLE CITY HALL- 105 TIM JONES","","","BOYLE ","MS","38730","","","","77713131301"
"CLEVELAND COURTHOUSE","BOLIVAR COUNTY COURTHOUSE-200 SOUTH COURT ST","","","CLEVELAND","MS","38732","","","","77713131302"
"CHOCTAW","STAND ALONE BUILDING- OLD HIGHWAY #61 AND STATE HIGHWAY #450","","","SHAW","MS","38773","","","","77713131304"
"DUNCAN-ALLIGATOR","DUNCAN CITY HALL- 116 WEST PARK SOUTH","","","DUNCAN","MS","38740","","","","77713131305"
"EAST CENTRAL CLEVELAND","OLD ST. PHILLIP CHURCH- 902 ALOE AVE","","","CLEVELAND","MS","38732","","","","77713131307"
"EASTGATE","CAMILLA APARTMENTS ADMINISTRATIVE BUILDING- 1300 CROSS ST EAST","","","CLEVELAND","MS","38732","","","","77713131309"
"EAST ROSEDALE","ROSEWOOD APARTMENTS- 1106 PEAVINE ROAD","","","ROSEDALE","MS","38769","","","","77713131310"
"EAST ROSEDALE","ROSEWOOD APARTMENTS- 1106 PEAVINE ROAD ","","","ROSEDALE","MS","38769","","","","77713131310"
"EAST ROSEDALE","ROSEWOOD APARTMENTS- 1106 PEAVINE ROAD ","","","ROSEDALE ","MS","38769","","","","77713131310"
"EAST CLEVELAND","UNITED LIFE CENTER- 101 MARTIN LUTHER KING DRIVE","","","CLEVELAND","MS","38732","","","","77713131311"
"EAST CLEVELAND","UNITED LIFE CENTER- 101 MARTIN LUTHER KING DRIVE ","","","CLEVLEAND","MS","38732","","","","77713131311"
"GUNNISON","GUNNISON TOWN HALL","","","GUNNISON","MS","38746","","","","77713131313"
"GUNNISON","GUNNISON TOWN HALL","","","GUNNISON ","MS","38746","","","","77713131313"
"LONGSHOT","STAND ALONE BUILDING- 586 LONGSHOT LITTON","","","SHAW","MS","38773","","","","77713131314"
"LONGSHOT","STAND ALONE BUILDING- 586 LONGSHOT LITTON","","","SHAW ","MS","38773","","","","77713131314"
"LONGSHOT","STAND ALONE BUILDING- 586 LONGSHOT LITTON ","","","SHAW","MS","38773","","","","77713131314"
"MOUND BAYOU","MUNICIPAL FIRE STATION- 108 DAVIS AVE","","","MOUND BAYOU","MS","38762","","","","77713131317"
"MOUND BAYOU","MUNICIPAL FIRE STATION- 108 DAVIS AVE","","","MOUND BAYOU ","MS","38762","","","","77713131317"
"MERIGOLD","MERIGOLD TOWN HALL- 107 SOUTH FRONT ST","","","MERIGOLD","MS","38759","","","","77713131319"
"NORTH CLEVELAND","CLEVELAND SCHOOL ADMINISTRATIVE BUILDING- 305 MERRITT DR","","","CLEVELAND","MS","38732","","","","77713131320"
"NORTH WEST CLEVELAND","WALTER SILLERS COLISEUM- WEST SUNFLOWER ROAD","","","CLEVELAND","MS","3832","","","","77713131321"
"NORTH WEST CLEVELAND","WALTER SILLERS COLISEUM- WEST SUNFLOWER ROAD","","","CLEVELAND","MS","38732","","","","77713131321"
"PACE","PACE TOWN HALL- 333 JANNIE WASHINGTON ST","","","PACE","MS","38764","","","","77713131322"
"RENOVA","RENOVA TOWN HALL","","","RENOVA","MS","38732","","","","77713131326"
"RENOVA","RENOVA TOWN HALL","","","RENOVA ","MS","38732","","","","77713131326"
"SHELBY PRECINCT","SHELBY POLICE STATION- 305 THIED AVE","","","SHELBY","MS","38774","","","","77713131327"
"SHELBY PRECINCT","SHELBY POLICE STATION- 305 THIRD AVE","","","SHELBY","MS","38774","","","","77713131327"
"SOUTH CLEVELAND","HAYNES BUILDING
1805 S. CHRISMAN ST.","","","CLEVELAND","MS","38732","","","","77713131328"
"SOUTH CLEVELAND","HAYNES BUILDING- 1805 SOUTH CHRISMAN ST","","","CLEVELAND","MS","38732","","","","77713131328"
"SCOTT","SCOTT COMMUITY CENTER- 1 COTTON ROW, DEER CREEK DR","","","SCOTT","MS","38772","","","","77713131330"
"SCOTT","SCOTT COMMUNITY CENTER- 1 COTTON ROW, DEER CREEK DR","","","SCOTT","MS","38772","","","","77713131330"
"SKENE","SKENE BAPTIST CHIRCH- 2174 HIGHWAY 446","","","SKENE","MS","38730","","","","77713131331"
"SKENE","SKENE BAPTIST CHURCH- 2174 HIGHWAY 446","","","SKENE","MS","38730","","","","77713131331"
"STRINGTOWN","OLD HERBERT STORE- STRINGTOWN ROAD","","","BENOIT","MS","38725","","","","77713131332"
"SHAW","SHAW EDUCATIONAL AND CULTRAL CENTER- 125 PEELER AVE","","","SHAW","MS","38773","","","","77713131333"
"SHAW","SHAW EDUCATIONAL AND CULTURAL CENTER- 125 PEELER AVE","","","SHAW","MS","38773","","","","77713131333"
"SHAW","SHAW EDUCATIONAL AND CULTURAL CENTER- 125 PEELER AVE","","","SHAW ","MS","38773","","","","77713131333"
"WEST CENTRAL CLEVELAND","FIRST CHURCH OF NAZARENE- 700 YALE ST","","","CLEVELAND","MS","38732","","","","77713131334"
"WEST ROSEDALE","BOLIVAR COUNTY COURTHOUSE- 801 MAIN ST","","","ROSEDALE","MS","38769","","","","77713131335"
"WEST ROSEDALE","BOLIVAR COUNTY COURTHOUSE- 801 MAIN ST ","","","ROSEDALE","MS","38769","","","","77713131335"
"WEST CLEVELAND","IMMANUEL BAPTIST CHURCH- 1300 LAMAR ST","","","CLEVELAND","MS","38732","","","","77713131336"
"WINSTONVILLE","WINSTONVILLE CITY HALL","","","WINSTONVILLE","MS","38781","","","","77713131337"
"DEPOT","101 WILLOW ST ","","","SEMINARY","MS","39479","","","","77713131339"
"LAKE MIKE CONNER","66 LAKE DR","","","COLLINS","MS","39428","","","","77713131340"
"CIVIC CENTER","3220 HWY 49","","","COLLINS","MS","39428","","","","77713131341"
"NEAR NEW HOPE CHURCH","700 RICHMOND RD ","","","SUMRALL","MS","39482","","","","77713131342"
"SANFORD COMMUNITY CENTER","663 OLD HWY 49 ","","","SEMNARY","MS","39479","","","","77713131343"
"VO-TECH CENTER","1200 S DOGWOOD ST","","","COLLINS","MS","39428","","","","77713131344"
"COURTHOUSE","101 MAIN & DOGWOOD ","","","COLLINS","MS","39428","","","","77713131345"
"MASONIC BUILDING","924 LAKE MIKE CONNER RD","","","COLLINS","MS","39428","","","","77713131346"
"COUNTY BUILDING ON PITTMAN RD","296 PITTMAN RD","","","MOUNT OLIVE","MS","39119","","","","77713131347"
"FIRE STATION","1863 HWY 84 W","","","COLLINS","MS","39428","","","","77713131348"
"MULTI-PURPOSE BUILDING /  SCHOOL","301 S FOURTH ST ","","","MOUNT OLIVE","MS","39119","","","","77713131349"
"COUNTY BUILDING ON ROCK HILL RD NEXT TO ROCK HILL CHURCH","518 ROCK HILL RD","","","MOUNT OLIVE","MS","39119","","","","77713131350"
"HOT COFFEE TO MIZE ROAD","480 LILLY VALLEY CH RD","","","MOUNT OLIVE","MS","39119","","","","77713131351"
"MITCHELL RD & BILL MCQUEEN RD","351 MITCHELL RD","","","COLLINS","MS","39428","","","","77713131352"
"PRECINCT BLDG MC DONALDS STORE","2515 HWY 532","","","COLLINS","MS","39428","","","","77713131353"
"MELVIN MAULDIN RD/STATION CRK CH","93 MELVIN MAULDIN RD","","","COLLINS","MS","39428","","","","77713131354"
"SALEM SCHOOL RD/SMITH COMMUNITY","1496 SALEM CH RD ","","","COLLINS","MS","39428","","","","77713131355"
"NAZARETH CHURCH/DIXIE RD","611 DIXIE AVE","","","MENDENHALL","MS","39114","","","","77713131373"
"WC MCDONALD BLDG","905 MCLAURIN DR","","","MAGEE","MS","39111","","","","77713131374"
"ZION HILL CHURCH","ZION HILL RD","","","MENDENHALL","MS","39114","","","","77713131375"
"PINE GROVE CHURCH","104 PINE GROVE CHURCH RD","","","MENDENHALL","MS","39114","","","","77713131377"
"MAGEE NATIONAL GUARD ARMORY","HWY 49","","","MAGEE","MS","39111","","","","77713131378"
"CO BLDG/HWY28","SIMPSON HWY 28","","","MENDENHALL","MS","39114","","","","77713131380"
"CO BLDG/MT ZION RD","MT ZION RD","","","MAGEE","MS","39111","","","","77713131383"
"CO BLDG/NEW HOPE RD","NEW HOPE RD","","","MOUNT OLIVE","MS","39119","","","","77713131384"
"SIMPSON CO MULTI PURPOSE BLDG","109 WEST PINE ST","","","MENDENHALL","MS","39114","","","","77713131386"
"KENNEDY SPRINGS CHURCH","2295 HWY 540","","","MENDENHALL","MS","39114","","","","77713131387"
"D'LO","FOURTH ST","","","D'LO","MS","39062","","","","77713131388"
"CO BLDG/DRY CREEK RD","DRY CREEK RD","","","MAGEE","MS","39111","","","","77713131389"
"MAGEE CITY HALL","123 MAIN AVE N","","","MAGEE","MS","39111","","","","77713131391"
"MAGEE COMMUNITY HOUSE","115 FIRST AVE NE","","","MAGEE","MS","39111","","","","77713131392"
"CO BLDG/HWY 43","HWY 43","","","PINOLA","MS","39149","","","","77713131393"
"PINOLA FIRE STATION","SCHOOLHOUSE RD","","","PINOLA","MS","39149","","","","77713131396"
"BRAXTON MASONIC LODGE","124 W MAIN ST","","","BRAXTON","MS","39044","","","","77713131397"
"CO BLDG/HWY 469 & JENNINGS STORE","HWY 459","","","HARRISVILLE","MS","39082","","","","77713131398"
"CO BLDG/INTER OF HWY 43 & MERIT RD","HWY 43 & MERIT RD","","","MENDENHALL","MS","39114","","","","77713131399"
"COMMUNITY HOUSE/GILLIS STORE","HWY 28 W","","","MENDENHALL","MS","39114","","","","77713131400"
"OLD PEARL FIRE DEPT","5367 GATESVILLE RD","","","HARRISVILLE","MS","39082","","","","77713131401"
"UNION CHURCH FIRE STATION","18236 HWY 28","","","UNION CHURCH","MS","39668","","","","77713131432"
"COUNTY BUILDING A","22 BUCK RD","","","FAYETTE","MS","39069","","","","77713131433"
"RED LICK FIRE STATION","5038 REDLICK RD","","","LORMAN","MS","39096","","","","77713131434"
"DO NOT USE 1","5447 STAMPLEY RD","","","FAYETTE","MS","39069","","","","77713131435"
"STAMPLEY FIRE STATION","5447 STAMPLEY RD","","","FAYETTE","MS","39069","","","","77713131437"
"MT. ISREAL BAPTIST CHURCH","835 HIGHWAY 33","","","FAYETTE","MS","39069","","","","77713131438"
"MULTIPURPOSE CENTER","678 MAIN STREET","","","FAYETTE","MS","39069","","","","77713131440"
"CITY HALL AUDITORIUM","59 MEDGAR EVERS BLVD","","","FAYETTE","MS","39069","","","","77713131441"
"CANNONSBURG FIRE STATION","3113 CANNONSBURG RD
","","","FAYETTE","MS","39120","","","","77713131442"
"SPURGEON MASON  HALL","26 CHURCH HILL RD","","","NATCHEZ","MS","39120","","","","77713131443"
"LORMAN FIRE STATION","11516 RODNEY RD","","","LORMAN","MS","39096","","","","77713131445"
"FAYETTE MANOR APARTMENTS OLD FAYETTE MANOR","170 FAYETTE MANOR DR","","","FAYETTE","MS","39069","","","","77713131447"
"QTM MULTI PURP BLDG","101 WESTWOOD AVE.","","","QUITMAN","MS","39355","","","","77713131482"
"LANGSDALE COMM CTR","5681 CO. RD. 610","","","SHUBUTA","MS","39360","","","","77713131483"
"MEETING PLACE","1849 HWY 18 W","","","QUITMAN","MS","39355","","","","77713131484"
"STNW 1 VOTING HOUSE","6803 HWY 513","","","STONEWALL","MS","39363","","","","77713131485"
"SHU MULTI PURP BLDG","160 GRAHAM ST.","","","SHUBUTA","MS","39360","","","","77713131486"
"BVDM VFD","13327 CO. RD. 210","","","SHUBUTA","MS","39360","","","","77713131490"
"HARMONY VFD","532 CO. RD. 282","","","QUITMAN","MS","39355","","","","77713131491"
"OK GRV VOTING HOUSE","31 CO. RD. 2661","","","SHUBUTA","MS","39360","","","","77713131492"
"PACHUTA TOWN HALL","15537 HWY 11","","","PACHUTA","MS","39347","","","","77713131493"
"CHURCH FELLOWSHIP HALL","71 CO. RD. 324","","","ENTERPRISE","MS","39330","","","","77713131494"
"RC VFD","1556 CO.RD. 345","","","QUITMAN","MS","39355","","","","77713131496"
"STNW TOWN HALL","801 S. ERWIN RD.","","","STONEWALL","MS","39363","","","","77713131497"
"ENTERPRISE VFD","102 HWY 513 W","","","ENTERPRISE","MS","30330","","","","77713131499"
"ENTERPRISE VFD","102 HWY. 513","","","ENTERPRISE","MS","39330","","","","77713131499"
"PINERIDGE COMM CTR","17130 HWY 18 E.","","","QUITMAN","MS","39355","","","","77713131501"
"SNELL VFD","11893 CO. RD. 514","","","MERIDIAN","MS","39301","","","","77713131502"
"ENERGY VOTING HOUSE","8841 CO. RD. 514","","","MERIDIAN","MS","39301","","","","77713131503"
"UNION COMM CTR","114 HWY 514","","","MERIDIAN","MS","39301","","","","77713131504"
"BOYS & GIRLS CLUB","341 NORTH JACKSON AVE.","","","QUITMAN","MS","39355","","","","77713131505"
"MANASSA COMM CTR","3867 CO. RD. 511","","","QUITMAN","MS","39355","","","","77713131508"
"SPRINGS VFD","8005 CO. RD. 511","","","QUITMAN","MS","39355","","","","77713131509"
"CARM COMM CTR","4507 CO. RD. 630","","","QUITMAN","MS","39355","","","","77713131511"
"BOY SCOUT HUT","301 S. JACKSON AVE.","","","QUITMAN","MS","39355","","","","77713131512"
"NATIONAL GUARD ARMORY","1638 HWY 44","","","COLUMBIA","MS","39429","","","","77713131529"
"MORRIS","3471 HWY 44","","","COLUMBIA","MS","39429","","","","77713131530"
"UNION","1580 LAMPTON HILLTOP RD","","","COLUMBIA","MS","39429","","","","77713131532"
"POPETOWN","150 INDUSTRIAL PARK RD","","","COLUMBIA","MS","39429","","","","77713131533"
"CARLEY LODGE","77 BUNKER HILL RD","","","COLUMBIA","MS","39429","","","","77713131534"
"CARLEY LODGE","77 BUNKER HILL RD","","","COLUMBIA ","MS","39429","","","","77713131534"
"CEDAR GROVE","2363 HWY 13 NORTH","","","COLUMBIA","MS","39429","","","","77713131535"
"CEDAR GROVE","2363 HWY 13 NORTH ","","","COLUMBIA ","MS","39429","","","","77713131535"
"GOSS","3214 HWY 13 NORTH","","","COLUMBIA","MS","39429","","","","77713131536"
"GOSS","3214 HWY 13 NORTH ","","","COLUMBIA","MS","39429","","","","77713131536"
"FOXWORTH","2 WEST MARION ST","","","FOXWORTH","MS","39483","","","","77713131537"
"MORGANTOWN FIRE DEPARTMENT","1464 HWY 587","","","FOXWORTH","MS","39483","","","","77713131538"
"LITTLE ROCK","872 HWY 586","","","FOXWORTH","MS","39483","","","","77713131539"
"CITY HALL","201 SECOND ST","","","COLUMBIA","MS","39429","","","","77713131540"
"WHITE BLUFF","920 RANCH RD","","","FOXWORTH","MS","39483","","","","77713131541"
"DARBUN","281 HIGHWAY 586","","","KOKOMO","MS","39643","","","","77713131542"
"COURT HOUSE","500 COURT HOUSE SQUARE","","","COLUMBIA","MS","39429","","","","77713131543"
"BALLS MILL","883 OLD HWY 35 SOUTH","","","FOXWORTH","MS","39483","","","","77713131544"
"BALLS MILL","883 OLD HWY 35 SOUTH","","","FOXWORTH","MS","39843","","","","77713131544"
"KOKOMO","700 BRANTON BAY RD","","","FOXWORTH","MS","39483","","","","77713131545"
"PITTMAN","478 NEW HOPE CHURCH RD","","","FOXWORTH","MS","39483","","","","77713131546"
"SANDY HOOK FIRE DEPARTMENT","61 HART RD","","","SANDY HOOK","MS","39478","","","","77713131547"
"SANDY HOOK FIRE DEPARTMENT","61 HART RD","","","SANDY HOOK ","MS","39478","","","","77713131547"
"SOUTH COLUMBIA","250 BROAD STREET","","","COLUMBIA","MS","39429","","","","77713131548"
"SOUTH COLUMBIA","250 BROAD STREET, SUITE 12","","","COLUMBIA","MS","39429","","","","77713131548"
"JEFFERSON MIDDLE SCHOOL","611 OWENS ST","","","COLUMBIA","MS","39429","","","","77713131549"
"EAST COLUMBIA","1060 HWY 13 SOUTH","","","COLUMBIA","MS","39429","","","","77713131550"
"OLD HUB SCHOOL","431 OLD HWY 13 SOUTH","","","COLUMBIA","MS","39429","","","","77713131551"
"PINE BURR FIRE DEPARTMENT","1079 PINE BURR RD","","","COLUMBIA","MS","39429","","","","77713131552"
"BOND","BOND BAPTIST CHURCH
35 SELLERS ST","","","WIGGINS","MS","39577","","","","77713131553"
"OLD HOSPITAL NORTH","COUNTY OFFICE BLDG
214 NORTH CRITZ ST","","","WIGGINS","MS","39577","","","","77713131556"
"COURTHOUSE","JUSTICE COURT BLDG
231 THIRD ST","","","WIGGINS","MS","39577","","","","77713131558"
"AMERICAN LEGION EAST","OLD GUARD BLDG
141 CENTRAL AVE","","","WIGGINS","MS","39577","","","","77713131559"
"THOMAS PRICE","1082 HIGHWAY 26 WEST","","","WIGGINS","MS","39577","","","","77713131562"
"PERKINSTON NORTH","PERK FIRE STATION
2441 PERK SILVER RUN RD","","","PERKINSTON","MS","39573","","","","77713131563"
"MAGNOLIA","MAGNOLIA FIRE STATION
350 MAGNOLIA RD","","","PERKINSTON","MS","39573","","","","77713131565"
"MCHENRY LIBRARY NORTH","MCHENRY PUBLIC LIBRARY
25 MCHENRY SCHOOL DR","","","MCHENRY","MS","39561","","","","77713131566"
"ELARBEE","SILVER RUN FIRE STATION
1071 RIDGE RD","","","PERKINSTON","MS","39573","","","","77713131568"
"TUXECHANA","SUNFLOWER COMMUNITY CENTER
551 SUNFLOWER RD","","","PERKINSTON","MS","39573","","","","77713131569"
"TEN MILE","NATION GUARD READINESS CENTER
280 OLD HIGHWAY 49","","","WIGGINS","MS","39577","","","","77713131570"
"MCHENRY FIRE STATION E 107/43","MCHENRY FIRE STATION
95 MCHENRY AVE","","","MCHENRY","MS","39561","","","","77713131572"
"FLINT CREEK NE","FLINT CREEK VOTING BLDG
2829 HIGHWAY 26 E","","","WIGGINS","MS","39577","","","","77713131575"
"BIG LEVEL","BIG LEVEL FIRE STATION
1414 KING BEE RD","","","PERKINSTON","MS","39573","","","","77713131578"
"PLEASANT HILL","RAMSEY SPRINGS FIRE STATION
1735 HIGHWAY 15","","","PERKINSTON","MS","39573","","","","77713131579"
"BEAUREGARD","1009 BEAUREGARD RD","","","WESSON","MS","39191","","","","77713131630"
"CENTERPOINT","1004 CENTERPOINT LN","","","HAZLEHURST","MS","39083","","","","77713131631"
"CARPENTER","1004 DENTVILLE RD","","","UTICA","MS","39175","","","","77713131632"
"CRYSTAL SPRINGS EAST","210 LEE AVE","","","CRYSTAL SPRINGS","MS","39059","","","","77713131633"
"CRYSTAL SPRINGS NORTH","26031 HWY 51","","","CRYSTAL SPRINGS","MS","39059","","","","77713131634"
"CRYSTAL SPRINGS SOUTH","200 S JACKSON ST","","","CRYSTAL SPRINGS","MS","39059","","","","77713131635"
"CRYSTAL SPRINGS WEST","26164  HWY 27","","","CRYSTAL SPRINGS","MS","39059","","","","77713131636"
"DENTVILLE","11104 DENTVILLE RD","","","HAZLEHURST","MS","39083","","","","77713131637"
"GEORGETOWN NORTH","6110 BRUSHY CREEK RD","","","GEORGETOWN","MS","39078","","","","77713131640"
"GEORGETOWN SOUTH","1177 RAILROAD AVE","","","GEORGETOWN","MS","39078","","","","77713131641"
"HAZLEHURST EAST","202 EAST WHITWORTH ST","","","HAZLEHURST","MS","39083","","","","77713131642"
"HAZLEHURST EAST","202 EAST WHITWORTH ST","","","HAZLEURST","MS","39083","","","","77713131642"
"HAZLEHURST NORTH","640 GEORGETOWN ST","","","HAZLEHURST","MS","39083","","","","77713131643"
"HAZLEHURST SOUTH","1001 1 SIGNATURE DR","","","HAZLEHURST","MS","39083","","","","77713131644"
"HAZLEHURST WEST","122 S LOWE ST","","","HAZLEHURST","MS","39083","","","","77713131645"
"MARTINSVILLE","12072 HWY 51","","","HAZLEHURST","MS","39083","","","","77713131646"
"SHADY GROVE","1090 SHADY GROVE RD","","","HAZLEHURST","MS","39083","","","","77713131647"
"STRONGHOPE UNION","4196 MONTICELLO RD","","","WESSON","MS","39191","","","","77713131648"
"WESSON","1018 SPRING ST","","","WESSON","MS","39191","","","","77713131649"
"ALEXANDER","ALEXANDER JR. HIGH SCHOOL
713 BEAUREGARD STREET
SCHOOL AUDITORIUM","","","BROOKHAVEN","MS","39601","","","","77713131690"
"EAST LINCOLN","EAST LINCOLN VOL FIRE DEPT
3357 EAST LINCOLN ROAD","","","BROOKHAVEN","MS","39601","","","","77713131691"
"FAIR RIVER","FAIR OAK SPRINGS MASONIC LODGE
2728 HARMONY DRIVE SE","","","BROOKHAVEN","MS","39601","","","","77713131692"
"FORRESTRY","MS FORESTRY COMMISSION OFFICE
515 COUNTY FARM LANE NE","","","BROOKHAVEN","MS","39601","","","","77713131693"
"GOVERNMENT COMPLEX","LINCOLN COUNTY GOVERNMENT COMPLEX
301 S FIRST STREET, BOARD ROOM","","","BROOKHAVEN","MS","39601","","","","77713131694"
"HIGH SCHOOL","BROOKHAVEN HIGH SCHOOL
433 EAST MONTICELLO STREET","","","BROOKHAVEN","MS","39601","","","","77713131695"
"HIGH SCHOOL","BROOKHAVEN HIGH SCHOOL
433 EAST MONTICELLO STREET
VOCATIONAL BUILDING","","","BROOKHAVEN","MS","39601","","","","77713131695"
"BIG SPRINGS","BIG SPRINGS BAPIST CHURCH
2659 TURPIN ROAD NE","","","BROOKHAVEN","MS","39601","","","","77713131697"
"BRIGNAL","BRIGNAL VOTING CENTER
2240 BRIGNAL ROAD
CORNER OF BRIGNAL RD AND HOWARD RD","","","BROOKHAVEN","MS","39601","","","","77713131698"
"HEUCKS RETREAT","HEUCKS RETREAT VOL FIRE DEPT
1855 CALLENDER ROAD NE","","","BROOKHAVEN","MS","39601","","","","77713131699"
"LITTLE BAHALA","LITTLE BAHALA BAPIST CHURCH
3034 FAITH LANE NE","","","WESSON","MS","39191","","","","77713131700"
"MONTGOMERY","BURK'S COMPANY BUILDING
2423 CLEAR BRANCH LANE AT FURRIS MILL RD","","","WESSON","MS","39191","","","","77713131701"
"NEW SIGHT","NEW SIGHT VOL FIRE DEPT
371 NEW HOPE TRL","","","BROOKHAVEN","MS","39601","","","","77713131702"
"ROGERS CIRCLE","BEULAH CHAPEL CHURCH
1315 BRIGNAL ROAD","","","BROOKHAVEN","MS","39601","","","","77713131704"
"BOGUE CHITTO","BOGUE CHITTO HIGH SCHOOL
LIBRARY
385 MONTICELLO ST DE","","","BOGUE CHITTO","MS","39601","","","","77713131705"
"BOGUE CHITTO","BOGUE CHITTO HIGH SCHOOL
LIBRARY
385 MONTICELLO ST SE","","","BOGUE CHITTO","MS","39601","","","","77713131705"
"BOGUE CHITTO","BOGUE CHITTO HIGH SCHOOL
LIBRARY
385 MONTICELLO STREET SE
","","","BOGUE CHITTO","MS","39601","","","","77713131705"
"CITY HALL","
CHAMBER OF COMMERCE
 230 S WHITWORTH AVE","","","BROOKHAVEN","MS","39601","","","","77713131706"
"ENTERPRISE","ENTERPRISE ATTENDANCE CENTER
1601 HIGHWAY 583 SE","","","BOGUE CHITTO","MS","39629","","","","77713131707"
"ENTERPRISE","ENTERPRISE SCHOOL
LIBRARY
HWY 583 AND TOPISAW DR SE","","","BOGUE CHITTO","MS","39629","","","","77713131707"
"NORFIELD","VOTING HOUSE
3127 HIGHWAY 51 SE","","","BOGUE CHITTO","MS","39629","","","","77713131708"
"NORFIELD","VOTING HOUSE
ON HWY 51 SOUTH OF NORFIELD","","","BOGUE CHITTO","MS","39629","","","","77713131708"
"OLD BROOK","BROOKHAVEN EQUIPMENT BUILDING
1146 SOUTH FIRST STREET NE","","","BROOKHAVEN","MS","39601","","","","77713131709"
"RUTH","RUTH VOL FIRE DEPT
3531 HIGHWAY 583 SE","","","RUTH","MS","39662","","","","77713131710"
"RUTH","RUTH VOL FIRE DEPT
HWY 583 AND RUTH DR","","","RUTH","MS","39662","","","","77713131710"
"ARLINGTON","COUNTY UNIT FACILITY DISTRICT 4
1280 BOGUE CHITTO RD SW","","","BOGUE CHITTO","MS","39629","","","","77713131711"
"HALBERT HEIGHTS","BROOKHAVEN CENTRAL FIRE STATION
314 BROOKHAVEN STREET","","","BROOKHAVEN","MS","39601","","","","77713131712"
"JOHNSON","519 BEACHNUT TRL SW
NEXT TO MONTGOMERY BAPTIST CHURCH","","","SUMMIT","MS","39666","","","","77713131713"
"JOHNSON GROVE","BEHIND JOHNSON GROVE CHURCH OF CHRIST
434 JOHNSON GROVE ROAD","","","BOGUE CHITTO","MS","39629","","","","77713131714"
"JOHNSON GROVE","BEHIND JOHNSON GROVE CHURCH OF CHRIST
665 AUBURN DR SW","","","BOGUE CHITTO","MS","39629","","","","77713131714"
"WEST LINCOLN","VOTING HOUSE - NEXT TO WEST LINCOLN SCHOOL
969 JACKSON LIBERTY DRIVE SW","","","BROOKHAVEN","MS","39601","","","","77713131716"
"WEST LINCOLN","VOTING HOUSE - NEXT TO WEST LINCOLN SCHOOL
969 JACKSON LIBERTY DRIVE SW","","","BROOKHAVNE","MS","39601","","","","77713131716"
"CASEYVILLE","VOTING HOUSE
3699 CASEYVILLE RD NW
SOUTH SIDE","","","WESSON","MS","39191","","","","77713131717"
"LIPSEY","LIPSEY SCHOOL IN THE GYM
412 DRURY LANE","","","BROOKHAVEN","MS","39601","","","","77713131718"
"LOYD STAR","LLOYD STAR VOL FIRE DEPT
1904 HIGHWAY 550 NW","","","BROOKHAVEN","MS","39601","","","","77713131719"
"OLD RED STAR","VOTING HOUSE
3002 OLD RED START DR NW","","","BROOKHAVEN","MS","39601","","","","77713131720"
"VAUGHN","VOTING HOUSE
1340 JACKSON LIBERTY RD NW","","","BROOKHAVEN","MS","39601","","","","77713131721"
"VAUGHN","VOTING HOUSE
1340 ON JACKSON LIBERTY RD NW","","","BROOKHAVEN","MS","39601","","","","77713131721"
"VAUGHN","VOTING HOUSE
1340 ON JACKSON LIBERTY RD NW
","","","BROOKHAVEN","MS","39601","","","","77713131721"
"ZETUS","ZETUS VOL FIRE DEPT
482 WATTS LANE NW","","","BROOKHAVEN","MS","39601","","","","77713131722"
"DANTZLER","DANTZLER COMMUNITY CENTER
27 TURKEY PINE DR","","","HATTIESBURG ","MS","39401","","","","77713131745"
"DIXIE","790 ELKS LAKE RD ","","","HATTIESBURG ","MS","39401","","","","77713131747"
"KAMPER PARK","KAMPER PARK EDUCATION CENTER
107 S 17TH AVE ","","","HATTIESBURG","MS","39401","","","","77713131756"
"KAMPER PARK","KAMPER PARK EDUCATION CENTER
107 S 17TH AVE ","","","HATTIESBURG ","MS","39401","","","","77713131756"
"WESTSIDE","1122 S 28 TH AVE","","","HATTIESBURG ","MS","39401","","","","77713131759"
"RAWLS SPRINGS","50 RAWLS ST","","","HATTIESBURG","MS","39401","","","","77713131763"
"RAWLS SPRINGS","50 RAWLS ST","","","HATTIESBURG ","MS","39401","","","","77713131763"
"TRAIN DEPOT","TRAIN DEPOT
308 NEWMAN ST","","","HATTIESBURG ","MS","39401","","","","77713131766"
"TRAIN DEPOT","TRAIN DEPOT
308 NEWMAN ST
","","","HATTIESBURG ","MS","39401","","","","77713131766"
"NORTH HEIGHTS","6540 US HWY 49 N ","","","HATTIESBURG ","MS","39401","","","","77713131769"
"NORTH HEIGHTS","6540 US HWY 49 N ","","","HATTIESURG ","MS","39401","","","","77713131769"
"EATONVILLE","NORTH FORREST RECREATION CENTER
679 EATONVILLE RD","","","HATTIESBURG","MS","39401","","","","77713131773"
"EATONVILLE","NORTH FORREST RECREATION CENTER
679 EATONVILLE RD","","","HATTIESBURG ","MS","39401","","","","77713131773"
"GLENDALE","GLENDALE COMMUNITY CENTER
451 MONROE RD ","","","HATTIESBURG","MS","39401","","","","77713131775"
"GLENDALE","GLENDALE COMMUNITY CENTER
451 MONROE RD ","","","HATTIESBURG ","MS","39401","","","","77713131775"
"BAR MAC","BAR-MAC RECREATION CENTER
610 HERRINGTON RD ","","","PETAL ","MS","39465","","","","77713131782"
"PETAL CIVIC CENTER","PETAL COMMUNITY CENTER 
712 SOUTH MAIN ST ","","","PETAL","MS","39465","","","","77713131784"
"PETAL CIVIC CENTER","PETAL COMMUNITY CENTER 
712 SOUTH MAIN ST ","","","PETAL ","MS","39465","","","","77713131784"
"LEEVILLE","LEEVILLE COMMUNITY CENTER
LYNN RAY RD AND FUSON RD","","","PETAL ","MS","39465","","","","77713131787"
"PETAL MASONIC","PETAL MASONIC LODGE 
120 CAMERON ","","","PETAL ","MS","39465","","","","77713131791"
"SUNRISE","SUNRISE COMMUNITY CENTER 
388 SUNRISE RD","","","PETAL ","MS","39465","","","","77713131792"
"SUNRISE","SUNRISE COMMUNITY CENTER 
388 SUNRISE RD ","","","PETAL ","MS","39465","","","","77713131792"
"DIXIE PINE CENTRAL","PALMER'S CROSSIN COMMUNITY CENTER 
225 TATUM RD ","","","HATTIESBURG ","MS","39401","","","","77713131800"
"DIXIE PINE CENTRAL","PALMER'S CROSSING COMMUNITY CENTER
225 TATUM RD ","","","HATTIESBURG ","MS","39401","","","","77713131800"
"DIXIE PINE CENTRAL","PALMER'S CROSSING COMMUNITY CENTER
225 TATUM RD 
","","","HATTIESBURG ","MS","39401","","","","77713131800"
"ROWAN","ROWAN CENTER OF HATIESBURG HIGH
500 MARTIN LUTHER KING DR 
","","","HATTIESBURG","MS","39401","","","","77713131801"
"ROWAN","ROWAN CENTER OF HATIESBURG HIGH
500 MARTIN LUTHER KING DR 
","","","HATTIESBURG ","MS","39401","","","","77713131801"
"SALVATION ARMY","SALVATION ARMY ADMIN. BUILDING
5670 U S HWY 49 SOUTH ","","","HATTIESBURG","MS","39401","","","","77713131802"
"SALVATION ARMY","SALVATION ARMY ADMIN. BUILDING
5670 U S HWY 49 SOUTH ","","","HATTIESBURG ","MS","39401","","","","77713131802"
"SALVATION ARMY","SALVATION ARMY ADMIN. BUILDING
5670 U S HWY 49 SOUTH ","","","HATTIESURG ","MS","39401","","","","77713131802"
"COURT STREET","COURT ST UNITED METHODIST CHURCH
609 SOUTHERN AVE
","","","HATTIESBURG","MS","39401","","","","77713131803"
"COURT STREET","COURT ST UNITED METHODIST CHURCH
609 SOUTHERN AVE
","","","HATTIESBURG ","MS","39401","","","","77713131803"
"CAMP SCHOOL","HATTIESBURG PUBLIC SCHOOL ADMIN. 
301 MAMIE ST ","","","HATTIESBURG","MS","39401","","","","77713131806"
"CAMP SCHOOL","HATTIESBURG PUBLIC SCHOOL ADMIN. 
301 MAMIE ST ","","","HATTIESBURG ","MS","39401","","","","77713131806"
"CAMP SCHOOL","HATTIESBURG PUBLIC SCHOOL ADMIN. 
301 MAMIE ST 
","","","HATTIESBURG ","MS","39401","","","","77713131806"
"WEST PETAL","WEST PETAL PRECINCT
221 W FIFTH AVE ","","","PETAL ","MS","39465","","","","77713131812"
"WEST PETAL","WEST PETAL PRECINCT
221 W FIFTH AVE 
","","","PETAL ","MS","39465","","","","77713131812"
"MCLAURIN","MCLAURIN COMMUNITY CENTER
15 MCLAURIN RD ","","","HATTIESBURG","MS","39401","","","","77713131813"
"MCLAURIN","MCLAURIN COMMUNITY CENTER
15 MCLAURIN RD ","","","HATTIESBURG ","MS","39401","","","","77713131813"
"LILLIE BURNEY","901 IDA ST ","","","HATTIESBURG ","MS","39401","","","","77713131820"
"WEST HILLS","HATTIESBURG MOOSE LODGE #1804
308 WEST HILLS DR ","","","HATTIESBURG ","MS","39401","","","","77713131823"
"HIGHLAND PARK","LONGLEAF TRACE GATEWAY
2895 W 4TH ST ","","","HATTIESBURG ","MS","39401","","","","77713131824"
"BROOKLYN","SOUTH FORREST COMMUNITY CENTER 
2169 CARNES RD ","","","HATTIESBURG","MS","39401","","","","77713131829"
"BROOKLYN","SOUTH FORREST COMMUNITY CENTER 
2169 CARNES RD ","","","HATTIESBURG ","MS","39401","","","","77713131829"
"CARNES","CARNES VOTING PRECINCT BUILDING
1193 CARNES RD","","","WIGGINS","MS","39455","","","","77713131834"
"CARNES","CARNES VOTING PRECINCT BUILDING
1193 CARNES RD","","","WIGGINS ","MS","39455","","","","77713131834"
"MAXIE","FORREST COUNTY BUILDING
155 MOFFETT RD ","","","WIGGINS","MS","39455","","","","77713131835"
"MAXIE","FORREST COUNTY BUILDING
155 MOFFETT RD 
","","","WIGGINS","MS","39455","","","","77713131835"
"PINECREST","HUB CITY MASONIC LODGE #1804
3321 HARDY ST","","","HATTIEBURG","MS","39401","","","","77713131837"
"PINECREST","HUB CITY MASONIC LODGE #1804
3321 HARDY ST","","","HATTIESBURG ","MS","39401","","","","77713131837"
"PINECREST","HUB CITY MASONIC LODGE #1804
3321 HARDY ST
","","","HATTIESBURG ","MS","39401","","","","77713131837"
"TIMBERTON","PINE BELT FAMILY Y BUILDING
3719 U S HWY 11 SOUTH ","","","HATTIESBURG","MS","39401","","","","77713131839"
"TIMBERTON","PINE BELT FAMILY Y BUILDING
3719 U S HWY 11 SOUTH ","","","HATTIESBURG ","MS","39401","","","","77713131839"
"KOSCIUSKO HIGH SCHOOL","VETERANS MEMORIAL DRIVE","","","KOSCIUSKO","MS","39090","","","","77713131862"
"METHODIST PROTESTANT CHURCH","162 APONAUG ROAD","","","KOSCIUSKO","MS","3909","","","","77713131864"
"NEW FIRE STATION HWY 433","4146 HWY 433 WEST","","","BENTONIA","MS","39040","","","","77713131940"
"BENTONIA TOWN HALL","216 E RAILROAD AVE","","","BENTONIA","MS","39040","","","","77713131941"
"116 PRITCHARD AVE.","116 PRITCHARD AVE","","","BENTONIA","MS","39040","","","","77713131942"
"CENTER RIDGE RD ACROSS FROM","3205 CENTER RIDGE ROAD","","","YAZOO CITY","MS","39194","","","","77713131943"
"NEW BLDG. ACROSS FROM PARADISE","2 OLD DOVER ROAD","","","YAZOO CITY","MS","39194","","","","77713131944"
"LITTLE YAZOO SPORT CENTER","1649 HWY 49 FRONTAGE ROAD","","","YAZOO CITY","MS","39194","","","","77713131945"
"SATARTIA TOWN HALL","318 PLUM STREET","","","SATARTIA","MS","39162","","","","77713131946"
"TINSLEY COMMUNITY CENTER NEXT","3666 TINSLEY ROAD","","","YAZOO CITY","MS","39194","","","","77713131947"
"BENTON FIRE HOUSE","216 ACADEMY DRIVE","","","BENTON","MS","39039","","","","77713131948"
"WELFARE OFFICE--GRADY AVE.","1315 GRADY AVE","","","YAZOO CITY","MS","39194","","","","77713131949"
"DEASONVILLE COMMUNITY CENTER","6925 VAUGHAN ROAD","","","VAUGHAN","MS","39179","","","","77713131950"
"8882 WILDWOOD RD.","8882 WILDWOOD ROAD","","","VAUGHAN","MS","39179","","","","77713131951"
"COUNTY ROAD BARN","1686 COUNTY BARN ROAD","","","YAZOO CITY","MS","39194","","","","77713131952"
"SCOTLAND STORE AT INTERSECTION","SCOTLAND ROAD","","","BENTON","MS","39039","","","","77713131953"
"OLD WELFARE BLDG. CORNER MOUND","347 NORTH MOUND STREET","","","YAZOO CITY","MS","39194","","","","77713131954"
"JR. HIGH SCHOOL","516 EAST CANAL STREET","","","YAZOO CITY","MS","39194","","","","77713131955"
"JONESTOWN COUNTY BARN","905 THOMAS AVE","","","YAZOO CITY","MS","39194","","","","77713131956"
"WASHINGTON STREET FIRE STATION","210 SOUTH WASHINGTON STREET","","","YAZOO CITY","MS","39194","","","","77713131957"
"EDEN FIRE STATION","262 EDEN MAIN STREET","","","YAZOO CITY","MS","39194","","","","77713131958"
"TEEN CENTER","1200 JACKSON AVE","","","YAZOO CITY","MS","39194","","","","77713131961"
"FREERUN COMMUNITY CENTER","4320 EDEN MIDWAY ROAD","","","YAZOO CITY","MS","39194","","","","77713131962"
"NEW AIRPORT-CARTER RD","1293 CARTER ROAD","","","YAZOO CITY","MS","39194","","","","77713131963"
"HOLLY BLUFF FIRE STATION","995 HIGHWAY 16 WEST","","","HOLLY BLUFF","MS","39194","","","","77713131965"
"N. D. TAYLOR SCHOOL GYM","400 LAMAR AVE","","","YAZOO CITY","MS","39194","","","","77713131966"
"BEAT 1/NORTH FOREST","FOREST SERVICE CENTER
-970 E 1ST STREET","","","FOREST","MS","39074","","","","77713131967"
"BEAT 1/HARPERVILLE","1001 OLD HILLSBORO RD","","","FOREST","MS","39074","","","","77713131968"
"BEAT 1/HILLSBORO","99 HILLSBORO-LUDLOW RD","","","FOREST","MS","39074","","","","77713131969"
"BEAT 2/SOUTH FOREST","SCOTT COUNTY COURTHOUSE","","","FOREST","MS","39074","","","","77713131970"
"BEAT 2/HOMEWOOD","MORTON MARATHON RD","","","FOREST","MS","39074","","","","77713131971"
"BEAT 2/HIGH HILL","6316 HIGHWAY 501 SOUTH ","","","LAKE","MS","39092","","","","77713131972"
"BEAT 2/LAKE","LAKE TOWN HALL
 - 100 FRONT STREET","","","LAKE","MS","39092","","","","77713131973"
"BEAT 2/USRY","5335 OLD HIGHWAY 80","","","FOREST","MS","39074","","","","77713131974"
"BEAT 3/NORTHWEST FOREST","AMERICAN LEGION","","","FOREST","MS","39074","","","","77713131975"
"BEAT 3/EASTWEST MORTON","NATIONAL GUARD ARMORY","","","MORTON","MS","39117","","","","77713131976"
"BEAT 3/PULASKI","7156 HIGHWAY 481 SOUTH","","","PULASKI","MS","39152","","","","77713131977"
"BEAT 3/SPRINGFIELD","SPRINGFIELD BAPTIST CHURCH
-3285 SPRINGFIELD RD","","","MORTON","MS","39117","","","","77713131978"
"BEAT 3/COOPERVILLE","HOMESTEAD BAPTIST CHURCH
- 29 COOPERVILLE RD","","","MORTON","MS","39117","","","","77713131979"
"BEAT 4/NORTH MORTON","OLD CITY HALL 
-19 WEST 1ST AVENUE","","","MORTON","MS","39117","","","","77713131980"
"BEAT 4/LIBERTY","LIBERTY FIRE DEPT 
-289 MEASLES RD","","","MORTON","MS","39117","","","","77713131981"
"BEAT 4/FORKVILLE","8030 HIGHWAY 13 NORTH","","","MORTON","MS","39117","","","","77713131982"
"BEAT 4/LUDLOW","LUDLOW FIRE DEPT
-39 LEE RD","","","LUDLOW","MS","39117","","","","77713131983"
"BEAT 4/CLIFTON","OLD FELLOWSHIP HALL
- 3034 CLIFTON HILLSBORO RD","","","MORTON","MS","39117","","","","77713131984"
"BEAT 4/CONTRELL","33 EAST WATKINS RD","","","LENA","MS","39094","","","","77713131985"
"BEAT 5/NORTHEAST FOREST","1324 EAST 4TH ST","","","FOREST","MS","39074","","","","77713131986"
"BEAT 5/SALEM",""LAKE MIDDLE SCHOOL"-1770 EAST SCOTT RD","","","LAKE","MS","39074","","","","77713131987"
"BEAT 5/SALEM",""LAKE MIDDLE SCHOOL"-1770 EAST SCOTT RD","","","LAKE","MS","39092","","","","77713131987"
"BEAT 5/SEBASTOPOL","PUBLIC LIBRARY
-17413 HIGHWAY 21","","","SEBASTOPOL","MS","39359","","","","77713131988"
"BEAT 5/STEELE","8992 HIGHWAY 21","","","FOREST","MS","39074","","","","77713131989"
"BEAT 5/LANGS MILL","2780 RINGGOLD RD","","","FOREST","MS","39074","","","","77713131990"
"VALLEY PARK COMMUNITY CENTER","55 RAILROAD DRIVE","","","VALLEY PARK","MS","39177","","","","77713132002"
"VALLEY PARK COMMUNITY CENTER","P O BOX 27","","","MAYERSVILLE","MS","39113","","","","77713132002"
"TALLULA COMMUNITY CENTER","10535 HWY 1","","","ROLLING FORK","MS","39159","","","","77713132003"
"TALLULA COMMUNITY CENTER","P O BOX 27","","","MAYERSVILLE","MS","39113","","","","77713132003"
"MAYERSVILLE COURTHOUSE","129 COURT STREET","","","MAYERSVILLE","MS","39113","","","","77713132004"
"MAYERSVILLE COURTHOUSE","P O BOX 27","","","MAYERSVILLE","MS","39113","","","","77713132004"
"ADDIE VOTING PRECINCT","7357 GLEN ALLAN RD","","","GLEN ALLAN ","MS","38744","","","","77713132005"
"ADDIE VOTING PRECINCT","P O BOX 27","","","MAYERSVILLE","MS","39113","","","","77713132005"
"GRACE VOTING PRECINCT","6491 GRACE ROAD","","","GRACE","MS","38745","","","","77713132006"
"GRACE VOTING PRECINCT","P O BOX 27","","","MAYERSVILLE","MS","39113","","","","77713132006"
"OLD KJHS GYMN","600 TIPTON STREET","","","KOSCIUSKO","MS","39090","","","","77713132119"
"COMMUNITY HOUSE","WILLIAMSVILLE ROAD","","","KOSCIUSKO","MS","39090","","","","77713132120"
"COLISEUM","HWY 12 EAST","","","KOSCIUSKO","MS","3909","","","","77713132121"
"MCCOOL FIRE STATION","HWY 407","","","MCCOOL","MS","39108","","","","77713132123"
"MASONIC LODGE","ATTALA ROAD 2120","","","MCCOOL","MS","39108","","","","77713132124"
"COMMUNITY HOUSE","ATTALA ROAD 3122","","","MCCOOL","MS","39108","","","","77713132125"
"COURTHOUSE","118 WEST WASHINGTON STREET","","","KOSCIUSKO","MS","39090","","","","77713132126"
"RIDING ARENA","HWY 43 NORTH","","","KOSCIUSKO","MS","3909","","","","77713132127"
"SCHOOL BUILDING","HWY 35 NORTH","","","VAIDEN ","MS","39176","","","","77713132129"
"COMMUNITY HOUSE","ATTALA ROAD 3231","","","KOSCIUSKO","MS","39090","","","","77713132130"
"MASONIC LODGE","ATTALA ROAD 3231","","","KOSCIUSKO","MS","39090","","","","77713132131"
"BLDG BY PALESTINE CHURCH","16580 HWY 14 WEST","","","KOSCIUSKO","MS","39090","","","","77713132132"
"MCDANIEL'S STORE","HWY 14 WEST","","","GOODMAN","MS","39108","","","","77713132133"
"SALLIS FIRE STATION","FRONT STREET","","","SALLIS","MS","39160","","","","77713132134"
"MCADAMS SCHOOL","6315 ATTALA ROAD 6315","","","SALLIS","MS","39160","","","","77713132135"
"PROVIDENCE FIRE STATION","ATTALA ROAD 5053","","","ETHEL","MS","39067","","","","77713132137"
"ZAMA FIRE STATION","HWY 19 SOUTH","","","KOSCIUSKO","MS","39090","","","","77713132138"
"HARMONY CHURCH","ATTALA ROAD 5210","","","ETHEL","MS","39067","","","","77713132139"
"ETHEL FIRE STATION","MAIN STREET","","","ETHEL","MS","39067","","","","77713132140"
"PHIL CRUM'S SHOP","HWY 2 WEST","","","CORINTH","MS","38834","","","","77713132322"
"BIGGERSVILLE FIRE STATION","531 CR 513","","","RIENZI","MS","38865","","","","77713132323"
"W. O. W. BUILDING","72 CR 253","","","GLEN","MS","38846","","","","77713132324"
"AMERICAN LEGION BUILDING","511 S TATE ST","","","CORINTH","MS","38834","","","","77713132325"
"PINECREST BAPTIST CHURCH FELLOWSHIP HALL","313 PINECREST ROAD","","","CORINTH","MS","38834","","","","77713132326"
"FIRST PRESBYTERIAN CHURCH FELLOWSHIP HALL","8TH STREET","","","CORINTH","MS","38834","","","","77713132327"
"FARMINGTON CITY HALL","4135 CR 200","","","CORINTH","MS","38834","","","","77713132328"
"GLEN CITY HALL","HWY 72 EAST","","","GLEN","MS","38846","","","","77713132329"
"JACINTO SENIOR CITIZEN CENTER","4 CR 375","","","RIENZI","MS","38865","","","","77713132330"
"L. C. FOLLIN BLUE BUILDING","7 CR 604","","","KOSSUTH","MS","38834","","","","77713132331"
"SPORTSPLEX","SPORTSPLEX
1911 WEBSTER ST ","","","CORINTH","MS","38834","","","","77713132332"
"RIENZI FIRE STATION","71 S FRONT ST","","","RIENZI","MS","38865","","","","77713132333"
"JOHN ST COMMUNITY CENTER","1102 S JOHN ST","","","CORINTH","MS","38834","","","","77713132334"
"OLD UNION CENTER SCHOOL BLDG","
3 CR 643","","","WALNUT","MS","38683","","","","77713132335"
"BISHOP CENTER","1300 WASHINGTON ST","","","CORINTH","MS","38834","","","","77713132336"
"V. F. W.","1 PURDY SCHOOL RD","","","CORINTH","MS","38834","","","","77713132337"
"ASHLAND VOLUNTEER FIRE DEPT","60 4TH STREET","","","ASHLAND","MS","38603","","","","77713132358"
"NORTHEAST BENTON FIRE DEPT","16220 HWY 72","","","ASHLAND","MS","38603","","","","77713132359"
"ABELS STORE FIRE STATION","60 OLD HIGHWAY 4 & 5 JUNCTION","","","ASHLAND","MS","38603","","","","77713132361"
"PRECINCT 2HF5","225 SPRUCE STREET","","","HICKORY FLAT","MS","38603","","","","77713132362"
"NORTH BENTON FIRE STATION","3591 HWY 7","","","LAMAR","MS","38642","","","","77713132365"
"CENTER RIDGE","UNITY METHODIST CHURCH                          HWY 37","","","TAYLORSVILLE","MS","39168","","","","77713132375"
"PRATTS FIRE STATION","2171 HWY 370","","","BALDWYN","MS","38824","","","","77713132398"
"BALDWYN CITY HALL","202 S SECOND ST","","","BALDWYN","MS","38824","","","","77713132399"
"GUNTOWN COMMUNITY CENTER","1571 MAIN ST","","","GUNTOWN","MS","38849","","","","77713132400"
"FRIENDSHIP FIRE STATION","990 RD 2578","","","BALDWYN","MS","38824","","","","77713132401"
"UNITY FIRE STATION","913 RD 1303","","","GUNTOWN","MS","38849","","","","77713132402"
"HEBRON PRECINCT BUILDING","210 RD 1451","","","SALTILLO","MS","38866","","","","77713132403"
"FELLOWSHIP FIRE STATION","611 RD 885","","","SALTILLO","MS","38866","","","","77713132404"
"OAK HILL PRECINCT BUILDING","2255 N VETERANS BLVD","","","TUPELO","MS","38804","","","","77713132405"
"BEL-AIR CENTER","2107 COUNTRY CLUB RD","","","TUPELO","MS","38804","","","","77713132406"
"EGGVILLE FIRE STATION","860 RD 1498","","","TUPELO","MS","38804","","","","77713132407"
"EGGVILLE FIRE STATION","860 ROAD 1498","","","TUPELO","MS","38804","","","","77713132407"
"ALLEN'S CHAPEL METHODIST CHURCH","3119 HWY 178","","","MOOREVILLE","MS","38857","","","","77713132408"
"MOOREVILLE METHODIST CHURCH","575 HIGHWAY 371","","","MOOREVILLE","MS","38857","","","","77713132409"
"MOOREVILLE METHODIST CHURCH","733 HWY 371","","","MOOREVILLE","MS","38857","","","","77713132409"
"AUBURN CIVIC CENTER","166 RD 1498","","","TUPELO","MS","38804","","","","77713132410"
"TUPELO CHILDREN MANSION","1801 E MAIN ST","","","TUPELO","MS","38804","","","","77713132411"
"CEDAR HILL FIRE STATION","149 RD 541","","","GUNTOWN","MS","38849","","","","77713132412"
"CEDAR HILL FIRE STATION","149 RD 541","","","GUNTOWN","MS","38849","","","","77713132413"
"DAVIS BOX PRECINCT BUILDING","245 ROAD 1","","","TUPELO","MS","38804","","","","77713132414"
"BIRMINGHAM RIDGE FIRE STATION","947 RD 1948","","","SALTILLO","MS","38866","","","","77713132415"
"EUCLATUBBA BAPTIST CHURCH","726 EUCLATUBBA RD","","","SALTILLO","MS","38866","","","","77713132416"
"SALTILLO COMMUNITY CENTER","131 PARK AVE","","","SALTILLO","MS","38866","","","","77713132417"
"BEECH SPRINGS BAPTIST CHURCH","146 RD 1702","","","SALTILLO","MS","38866","","","","77713132418"
"FORESTRY COMMISSION BUILDING","1711 MCCULLOUGH BLVD","","","TUPELO","MS","38801","","","","77713132419"
"PARKWAY BAPTIST CHURCH","1302 LEE ST","","","TUPELO","MS","38801","","","","77713132420"
"BELDEN VOLUNTEER FIRE STATION","4677-A ENDVILLE RD","","","BELDEN","MS","38826","","","","77713132421"
"BISSELL BAPTIST CHURCH","4662 W MAIN ST","","","TUPELO","MS","38801","","","","77713132422"
"LAWNDALE PRESBYTERIAN CHURCH","1500 LAWNDALE DR","","","TUPELO","MS","38801","","","","77713132423"
"PALMETTO-OLD UNION FIRE DEPT.","825 RD 261","","","TUPELO","MS","38801","","","","77713132424"
"PLEASANT GROVE PRECINCT BUILDING","779 RD 506","","","SHANNON","MS","38868","","","","77713132425"
"OLD UNION BAPTIST CHURCH LOCATION","531 RD 600","","","SHANNON","MS","38868","","","","77713132426"
"OLD LEE COUNTY COURTHOUSE","BROADWAY STREET","","","TUPELO","MS","38804","","","","77713132427"
"MORNING STAR BAPTIST CHURCH","2840 WILLIE MOORE RD","","","TUPELO","MS","38801","","","","77713132428"
"BREWER METHODIST CHURCH","280 RD 805","","","SHANNON","MS","38868","","","","77713132429"
"SHANNON CITY HALL","225 BROAD ST","","","SHANNON","MS","38868","","","","77713132430"
"SHANNON CITY HALL","P. O. BOX 6","","","SHANNON","MS","38868","","","","77713132430"
"RICHMOND BAPTIST CHURCH FELLOWSHIP HALL","2249 ROAD 814","","","TUPELO","MS","38804","","","","77713132431"
"PLANTERSVILLE CITY HALL","2587 MAIN ST","","","PLANTERSVILLE","MS","38862","","","","77713132432"
"ICC STUDENT SERVICE CENTER","2176 S EASON BLVD","","","TUPELO","MS","38804","","","","77713132433"
"MERRIMAN'S STORE LOCATION","888 RD 1205","","","NETTLETON","MS","38858","","","","77713132434"
"NETTLETON COMMUNITY CENTER","120 FINNEY AVE","","","NETTLETON","MS","38858","","","","77713132435"
"UNION FIRE STATION","3454 HWY 6","","","PLANTERSVILLE","MS","38862","","","","77713132436"
"ALLEN'S CHAPEL METHODIST CHURCH","186 ROAD 1310","","","TUPELO","MS","38804","","","","77713132437"
"ALLEN'S CHAPEL METHODIST CHURCH","3119 HWY 178","","","MOOREVILLE","MS","38857","","","","77713132437"
"MOOREVILLE METHODIST CHURCH","575 HIGHWAY 371","","","MOOREVILLE","MS","38857","","","","77713132438"
"MOOREVILLE METHODIST CHURCH","733 HWY 371","","","MOOREVILLE","MS","38857","","","","77713132438"
"VERONA CITY HALL","201 MAIN ST","","","VERONA","MS","38879","","","","77713132439"
"BOX 2 GRENADA CO OFFICE","1241 S MOUND STREET","","","GRENADA","MS","38901","","","","77713132443"
"BOX 3 CITY AUDITORIUM","17 N MAIN STREET","","","GRENADA","MS","38901","","","","77713132444"
"HOLCOMB COMMUNITY CENTER","14 N MAIN ST EAST","","","HOLCOMB","MS","38940","","","","77713132445"
"ELLIOTT VOL FIRE STATION","1572 MURFF DRIVE","","","GRENADA","MS","38901","","","","77713132450"
"SWEETHOME HOL#2 FIRE STAT","4300 HWY 35 SOUTH","","","HOLCOMB","MS","38940","","","","77713132452"
"GORE SPRINGS COMM CENTER","32251 HWY 8 EAST","","","GORE SPRINGS","MS","38929","","","","77713132453"
"FUTHEYVILLE 1ST PENTECOST","34 BRUCE ROAD","","","GRENADA","MS","38901","","","","77713132454"
"PLEASANT GROVE COMMUN CEN","268 PLEASANT GROVE ROAD","","","GORE SPRINGS","MS","38929","","","","77713132458"
"CHURCH OF GOD OUR FATHER & THE LORD JESUS CHRIST","902 N MAIN ST
HWY 9","","","CALHOUN CITY","MS","38916","","","","77713132466"
"CHURCH OF GOD OUR FATHER & THE LORD JESUS CHRIST","902 N MAIN ST
HWY 9
","","","CALHOUN CITY","MS","38916","","","","77713132466"
"NE CALHOUN FIRE DEPT.","2A CR 151 (FIRESTATION)","","","HOULKA","MS","38850","","","","77713132470"
"PITTSBORO FIRE DEPT.","117 E MAIN ST. (FIRE DEPARTMENT)","","","PITTSBORO","MS","38951","","","","77713132472"
"BRUCE FIRE DEPT.","118 E CALHOUN ST. (FIRE DEPT.)","","","BRUCE","MS","38915","","","","77713132473"
"BANNER FIRE DEPT.","516 HWY 9 W  (FIRE DEPT.)","","","BRUCE","MS","38915","","","","77713132475"
"BANNER FIRE DEPT.","516 HWY 9W (FIRE DEPT.)","","","BRUCE","MS","38915","","","","77713132475"
"CALHOUN CITY FIRE DEPT.","201 E RUSSEL AVE (FIRE DEPT.)","","","CALHOUN CITY","MS","38916","","","","77713132478"
"CALHOUN CITY FIRE DEPT.","201 E RUSSELL AVE (FIRE DEPT.)","","","CALHOUN CITY","MS","38916","","","","77713132478"
"DERMA CITY HALL","120 S. MAIN ST. (CITY HALL)","","","DERMA","MS","38839","","","","77713132479"
"DERMA FIRE DEPT.","310 E LAWRENCE AVE (FIRE DEPT)","","","DERMA","MS","38878","","","","77713132485"
"DERMA FIRE DEPT.","310 E LAWRENCE AVE (FIRE DEPT.)","","","DERMA","MS","38839","","","","77713132485"
"VARDAMAN FIRE DEPT.","109 N. RUSSELL ST. (FIRE DEPT.)","","","VARDAMAN","MS","38878","","","","77713132486"
"CALEDONIA COMMUNITY CENTER","754 MAIN STREET","","","CALEDONIA","MS","39740","","","","77713132492"
"CHS SUSPENSION RM","215 HEMLOCK","","","COLUMBUS","MS","39702","","","","77713132493"
"STEENS COMMUNITY CENTER","118 STEENS VERNON RD","","","STEENS","MS","39766","","","","77713132494"
"TRINITY RETIREMENT HOME","300 AIRLINE RD","","","COLUMBUS","MS","39702","","","","77713132495"
"IMMANUEL CTR CHRISTIAN EDU","5405 MILITARY RD","","","STEENS","MS","39766","","","","77713132496"
"AIRBASE/NW LOWNDES FIRE DEPT","128 JESS LYONS RD","","","COLUMBUS","MS","39705","","","","77713132497"
"BRANDON CENTRAL SCH OFF/CAFET","2630 MCARTHUR DR","","","COLUMBUS","MS","39705","","","","77713132498"
"FIRST ASSEMBLY/ACTIVITIES BUILDING","2201 MILITARY RD","","","COLUMBUS","MS","39701","","","","77713132499"
"NEW HOPE COMMUNITY CENTER","281 STADIUM RD","","","COLUMBUS","MS","39702","","","","77713132500"
"RURAL HILL COMMUNITY CENTER","61 MILLER DR","","","COLUMBUS","MS","39702","","","","77713132501"
"SALE SCHOOL CAFETORIUM","520 WARPATH RD","","","COLUMBUS","MS","39702","","","","77713132502"
"COL HOUSING AUTH. BLDG","2201 8TH AV S","","","COLUMBUS","MS","39701","","","","77713132503"
"CRAWFORD PARK & REC. BLDG","783 MARTIN LUTHER KING JR DR","","","CRAWFORD","MS","39736","","","","77713132504"
"NATIONAL GUARD ARMORY","111 FABRITEK DRIVE","","","COLUMBUS","MS","39702","","","","77713132505"
"TOWNSEND PARK RECREATION BLDG","826 15TH ST SO","","","COLUMBUS","MS","39701","","","","77713132506"
"PLUM GROVE PARK & REC. BLDG.","54 MINNIE VAUGHN RD","","","COLUMBUS","MS","39701","","","","77713132507"
"ARTESIA COMMUNITY CENTER","46 S FRONT ST","","","ARTESIA","MS","39736","","","","77713132508"
"HUNT SCHOOL CAFETORIUM","920 20TH ST N","","","COLUMBUS","MS","39701","","","","77713132509"
"PROPST PARK COMMUNITY HUT","2535 MAIN ST","","","COLUMBUS","MS","39701","","","","77713132510"
"UNION ACADEMY CAFETORIUM","1425 10TH AV N","","","COLUMBUS","MS","39701","","","","77713132511"
"CARRIER LODGE","802 1ST ST S","","","COLUMBUS","MS","39701","","","","77713132512"
"WEST LOWNDES HIGH COMPUTER RM","664 S FRONTAGE RD","","","COLUMBUS","MS","39701","","","","77713132513"
"KIRKVILLE","HOUSTON COMMUNITY CENTER","","","MARIETTA","MS","38856","","","","77713132523"
"ARKABUTLA COMMUNITY CENTER","8225 ARKABUTLA ROAD","","","COLDWATER","MS","38618","","","","77713132579"
"COLDWATER ELEMENTARY SCHOOL","340 PEYTON ROAD","","","COLDWATER","MS","38618","","","","77713132581"
"#2 FIRE DEPARTMENT - COTTONVILLE","13247 ARKABUTLA ROAD","","","COLDWATER","MS","38618","","","","77713132582"
"INDEPENDENCE FIRE DEPART","5480 HIGHWAY 305","","","COLDWATER","MS","38618","","","","77713132583"
"LOOXAHOMA COMMUNITY CENTER","1198 LYLES ROAD","","","SENATOBIA","MS","38668","","","","77713132584"
"GREENLEAF FIRE DEPARTMENT","8584 PALESTINE ROAD","","","COLDWATER","MS","38618","","","","77713132585"
"POAGVILLE COMMUNITY CENTER","7791 PEYTON ROAD","","","COLDWATER","MS","38618","","","","77713132586"
"POAGVILLE COMMUNITY CENTER","7791 PEYTON ROAD","","","COLDWATER","MS","38668","","","","77713132586"
"POAGVILLE FIRE DEPARTMENT","1206 POAGVILLE ROAD","","","COLDWATER","MS","38618","","","","77713132587"
"SARAH COMMUNITY CENTER","15670 BROWNSFERRY ROAD","","","SARAH","MS","38665","","","","77713132588"
"COUNTY AGENT AUDITORIUM","1 FRENCHES ALLEY","","","SENATOBIA","MS","38668","","","","77713132589"
"CROCKETT COMMUNITY CENTER","7256 HIGHWAY 4 WEST","","","SENATOBIA","MS","38668","","","","77713132590"
"SENATOBIA COMMUNITY CENTER","104 SOUTHERN STREET","","","SENATOBIA","MS","38668","","","","77713132591"
"OLD NATIONAL GUARD ARMORY","4575 HIGHWAY 51 NORTH","","","SENATOBIA","MS","38668","","","","77713132592"
"WOODMAN OF THE WORLD","137 HALLS MILL LEEVE ROAD","","","SENATOBIA","MS","38668","","","","77713132593"
"WOODMAN OF THE WORLD","137 HALLS MILL LEEVE ROAD
","","","SENATOBIA","MS","38668","","","","77713132593"
"FLAG LAKE BAPTIST CHURCH","1628 HIGHWAY 4 WEST","","","SARAH","MS","38665","","","","77713132595"
"ANTIOCH #2 CHURCH","3330 ARKABUTLA ROAD","","","COLDWATER","MS","38618","","","","77713132596"
"THYATIRA CHURCH OF CHRIST","26059 HIGHWAY 4 EAST","","","SENATOBIA","MS","38668","","","","77713132597"
"TYRO COMMUNITY CENTER","7676 LOOXAHOMA TYRO ROAD","","","SENATOBIA","MS","38668","","","","77713132598"
"WYATTE BAPTIST CHURCH","30721 HIGHWAY 4 EAST","","","SENATOBIA","MS","38668","","","","77713132599"
"OXFORD PARK COMMISSION OFFICE","310 S. 15TH STREET","","","OXFORD","MS","38655","","","","77713132619"
"FIRE STATION #11 (LAFAYETTE SPRINGS)","11 COUNTY RD 287","","","OXFORD","MS","38655","","","","77713132620"
"YOCONA COMMUNITY CENTER","826 HWY 334","","","OXFORD","MS","38655","","","","77713132621"
"OXFORD CONFERENCE CT","102 ED PERRY BLVD","","","OXFORD","MS","38655","","","","77713132622"
"PHILADELPHIA COMMUNITY CENTER","1303 HWY 30 EAST","","","ETTA","MS","38627","","","","77713132623"
"STONE RECREATION CENTER","423 WASHINGTON AVE","","","OXFORD","MS","38655","","","","77713132624"
"ABBEVILLE TOWN HALL","8 BUSINESS 7 SOUTH","","","ABBEVILLE","MS","38601","","","","77713132625"
"COLLEGE HILL COMMUNITY CENTER","10 COUNTY ROAD 130","","","OXFORD","MS","38655","","","","77713132626"
"TAYLOR COMMUNITY CENTER","78 COUNTY ROAD 338","","","TAYLOR","MS","38673","","","","77713132627"
"OXFORD MALL","1111 WEST JACKSON AVE","","","OXFORD","MS","38655","","","","77713132628"
"SEAFOOD JUNCTION","861 HIGHWAY 6 WEST","","","OXFORD","MS","38655","","","","77713132629"
"GREEN'S SHOP (CR 376)","177 COUNTY ROAD 376","","","WATER VALLEY","MS","38965","","","","77713132630"
"GREEN'S SHOP (CR 376)","177 COUNTY ROAD 376","","","WATER VALLEY ","MS","38965","","","","77713132630"
"FIRE STATION #1 (HARMONTOWN)","599 HIGHWAY 310","","","COMO","MS","38619","","","","77713132631"
"FIRE STATION #16 (UNION WEST)","823 COUNTY ROAD 313","","","OXFORD","MS","38655","","","","77713132632"
"LAF. CO HEALTH DEPT.-HWY 7 S","101 CENTER RIDGE DR","","","OXFORD","MS","38655","","","","77713132633"
"LAF. CO HEALTH DEPT.-HWY 7 S","101 CENTER RIDGE DR (HWY 7 SOUTH)","","","OXFORD","MS","38655","","","","77713132633"
"LAF. CO HEALTH DEPT.-HWY 7 S","101 CENTER RIDGE RD (HWY 7 SOUTH)","","","OXFOFRD","MS","38655","","","","77713132633"
"FIRE STATION #14 (PARIS)","31 COUNTY ROAD 430","","","PARIS","MS","38949","","","","77713132634"
"FIRE STATION #6 (TULA)","153 COUNTY ROAD 436","","","OXFORD","MS","38655","","","","77713132635"
"FIRE STATION #3 (AIRPORT GROCERY)","15 COUNTY ROAD 369 (HWY 7 S)","","","OXFORD","MS","38655","","","","77713132636"
"WAYNESBORO CITY 2 A-L","406 MISSISSIPPI DR, PRECINCT HOUSE","","","WAYNESBORO","MS","39367","","","","77713132663"
"WAYNESBORO CITY 3 A-L","1008 BENTON ST, WAYNESBORO CITY AUDITORIUM","","","WAYNESBORO","MS","39367","","","","77713132664"
"WAYNESBORO CITY 4","601 AZALEA DR, VOLUNTEER FIRE DEPT BLDG","","","WAYNESBORO","MS","39367","","","","77713132665"
"STATE LINE","233 MAIN ST, VOLUNTEER FIRE DEPT ","","","STATELINE","MS","39362","","","","77713132667"
"STATE LINE","233 MAIN ST, VOLUNTEER FIRE DEPT STATELINE, MS","","","39362","MS","39362","","","","77713132667"
"STATE LINE","233 MAIN ST. VOLUNTEER FIRE DEPT STATELINE, MS 39362","","","STATELINE","MS","39362","","","","77713132667"
"EUCUTTA","1504 EUCUTTA SANDERSVILLE RD, VOLUNTEER FIRE DEPT","","","SHUBUTA ","MS","39360","","","","77713132670"
"WAYNESBORO CITY 5 M-Z","3849 HWY 63","","","WAYNESBORO","MS","39367","","","","77713132671"
"WAYNESBORO CITY 5 M-Z","3849 HWY 63, NATIONAL GUARD ARMORY","","","WAYNESBORO","MS","39367","","","","77713132671"
"BUCKATUNNA","1678 HWY 45 SOUTH, VOLUNTEER FIRE DEPT. BLDG.","","","BUCKATUNNA","MS","39322","","","","77713132672"
"WINCHESTER","236 WINCHESTER CROSS RD, PRECINCT HOUSE","","","WAYNESBORO","MS","39367","","","","77713132673"
"DIAMOND","998 MATHERVILLE DIAMOND RD, PRECINCT HOUSE","","","WAYNESBORO","MS","39367","","","","77713132674"
"BEAT FOUR A-L","5109-A HWY 84, VOLUNTEER FIRE DEPT","","","WAYNESBORO","MS","39367","","","","77713132675"
"CORINTH","2320 CAMP EIGHT RD","","","WAYNESBORO","MS","39367","","","","77713132676"
"CORINTH","2320 CAMP EIGHT RD, PRECINCT HOUSE BLDG","","","WAYNESBORO","MS","39367","","","","77713132676"
"DENHAM","612 COUNTY LAKE DENHAM RD, VOLUNTEER FIRE DEPT","","","WAYNESBORO","MS","39367","","","","77713132677"
"HIWANNEE","5834 HWY 45 NORTH, VOL. FIRE DEPT","","","WAYNESBORO","MS","39367","","","","77713132678"
"STRENGTHFORD","4 STRENGTHFORD COOLEY RD, VOLUNTEER FIRE DEPT","","","LAUREL","MS","39441","","","","77713132680"
"CHICORA","1788 BUCKATUNNA CHICORA CLARA RD, PRECINCT HOUSE","","","BUCKATUNNA","MS","39322","","","","77713132681"
"BIG ROCK","960 BIG ROCK RD, PRECINCT HOUSE BLDG","","","WAYNESBORO","MS","39367","","","","77713132682"
"MATHERVILLE/COYT","83 MATHERVILLE FROST B5RIDGE RD, VOLUNTEER FIRE DEPT BLDG","","","SHUBUTA","MS","39360","","","","77713132683"
"MOZINGO","1663 RESERVOIR RD, VOLUNTEER FIRE DEPT. BLDG.","","","WAYNESBORO","MS","39367","","","","77713132684"
"COYT","656 COYT RD, VOLUNTEER FIRE DEPT. BLDG","","","WAYNESBORO","MS","39367","","","","77713132686"
"PLEASANT GROVE","157 OLD HWY 84 LOOP RD, VOLUNTEER FIRE DEPT. BLDG.","","","LAUREL","MS","39441","","","","77713132687"
"CLARA A-L","2575 HWY 63, VOLUNTEER FIRE DEPT BLDG.","","","WAYNESBORO","MS","39367","","","","77713132688"
"CHAPPARAL/DIAMOND","983 HAYES NUTE RD, PRECINCT HOUSE","","","WAYNESBORO","MS","39367","","","","77713132689"
"YELLOW CREEK A-L","1660 WAYNESBORO SHUBUTA RD, VOLUNTEER FIRE DEPT BLDG","","","WAYNESBORO","MS","39367","","","","77713132691"
"WAYNESBORO CITY 1","155 WAYNE ST, WAYNESBORO JUNIOR HIGH SCHOOL BLDG.","","","WAYNESBORO","MS","39367","","","","77713132692"
"WAYNESBORO CITY 1","WAYNESBORO JUNIOR HIGH SCHOOL
155 WAYNE ST.","","","WAYNESBORO","MS","39367","","","","77713132692"
"FAIRGROUND","200 IVY AVE.","","","LOUISVILLE","MS","39339","","","","77713132700"
"FAIRGROUND","200 IVY AVE. ","","","LOUISVILLE","MS","39339","","","","77713132700"
"NANIH WAIYA  FIRE DEPT","13866 HIGHWAY 397","","","LOUISVILLE","MS","39339","","","","77713132705"
"LOVORN TRACTOR","713 EAST JOHN C. STENNIS DR.","","","LOUISVILLE","MS","39339","","","","77713132710"
"EAST WINSTON FIRE DEPT","10390 HIGHWAY 14 EAST","","","LOUISVILLE","MS","39339","","","","77713132711"
"UNITED STEEL WORKERS BLDG","411 EAST JOHN C. STENNIS DR.","","","LOUISVILLE","MS","39339","","","","77713132712"
"ZION RIDGE COMMUNITY CENT","4179 ZION RIDGE RD.","","","LOUISVILLE","MS","39339","","","","77713132716"
"SHILOH FIRE DEPARTMENT","2089 C. HUNTLEY RD.","","","LOUISVILLE","MS","39339","","","","77713132717"
"COUNTY AGENT'S OFFICE","460 VANCE ST.","","","LOUISVILLE","MS","39339","","","","77713132718"
"MARS HILL FIRE DEPARTMENT","4470 MARS HILL RD.","","","NOXAPATER","MS","39346","","","","77713132723"
"NOXAPATER FIRE DEPT","145 WEST MAIN ST.","","","NOXAPATER","MS","39346","","","","77713132725"
"NEW NATIONAL GUARD","2310 HIGHWAY 15 SOUTH","","","LOUISVILLE","MS","39339","","","","77713132727"
"NEW NATIONAL GUARD","2310 HIGHWAY 15 SOUTH ","","","LOUISVILLE","MS","39339","","","","77713132727"
"PRECINCT AL","ALGOMA COMMUNITY HOUSE
186 FRONT STREET","","","ALGOMA","MS","38820","","","","77713132728"
"PRECINCT BA","BANKHEAD POLLING PLACE
3039 HIGHWAY 6 EAST","","","PONTOTOC","MS","38863","","","","77713132729"
"PRECINCT BA","BANKHEAD POLLING PLACE
3039 HIGHWAY 6 EAST
","","","PONTOTOC","MS","38863","","","","77713132729"
"PRECINCT BE","BETHEL/ENDVILLE POLLING PLACE
30 ENDVILLE ROAD","","","BELDEN","MS","38826","","","","77713132730"
"PRECINCT BE","BETHEL/ENDVILLE POLLING PLACE
30 ENDVILLE ROAD
","","","BELDEN","MS","38826","","","","77713132730"
"PRECINCT BEC","BECKHAM COMMUNITY CENTER
9413 HIGHWAY 15 SOUTH","","","PONTOTOC","MS","38863","","","","77713132731"
"PRECINCT BU","BUCHANAN COMMUNITY BUILDING
4783 FRIENDSHIP ROAD","","","PONTOTOC","MS","38863","","","","77713132732"
"PRECINCT CC","OLD CHERRY CREEK SCHOOL
90 CENTER HILL ROAD","","","ECRU","MS","38841","","","","77713132733"
"PRECINCT EC","ECRU COMMUNITY CENTER
154 CENTRAL AVENUE","","","ECRU","MS","38841","","","","77713132734"
"PRECINCT FR","FRIENDSHIP BAPTIST CHURCH
6248 HIGHWAY 15 NORTH","","","ECRU","MS","38841","","","","77713132735"
"PRECINCT FR","FRIENDSHIP BAPTIST CHURCH
6248 HIGHWAY 15 NORTH
","","","ECRU","MS","38841","","","","77713132735"
"PRECINCT HO","GLOBAL OUTREACH BUILDING
74 KINGSHIGHWAY","","","PONTOTOC","MS","38863","","","","77713132736"
"PRECINCT HU","HURRICANE COMMUNITY CENTER
7930 HIGHWAY 346","","","THAXTON","MS","38871","","","","77713132737"
"PRECINCT HU","HURRICANE COMMUNITY CENTER 
7930 HIGHWAY 346","","","THAXTON","MS","38871","","","","77713132737"
"PRECINCT JU","JUDAH POLLING PLACE
11315 HWY 341","","","RANDOLPH","MS","38864","","","","77713132738"
"PRECINCT JU","JUDAH POLLING PLACE
11315 HWY 341
","","","RANDOLPH","MS","38864","","","","77713132738"
"PRECINCT LO","LONGVIEW POLLING PLACE
3465 LONGVIEW ROAD","","","BELDEN","MS","38826","","","","77713132739"
"PRECINCT NR","RANDOLPH COMMUNITY CENTER
758 RANDOLPH LOOP","","","RANDOLPH","MS","38864","","","","77713132740"
"PRECINCT OH","OAK HILL COMMUNITY CENTER
101 OAK HILL LOOP","","","PONTOTOC","MS","38863","","","","77713132741"
"PRECINCT P1","MAPLE DRIVE PRESBYTERIAN CHURCH
146 MAPLE DRIVE","","","PONTOTOC","MS","38863","","","","77713132742"
"PRECINCT P2","PONTOTOC COUNTY AIRPORT
445 AVIATION LANE","","","PONTOTOC","MS","38863","","","","77713132743"
"PRECINCT P3","AMERICAN LEGION BUILDING
327 LEGION LANE","","","PONTOTOC","MS","38863","","","","77713132744"
"PRECINCT P4","PEPA WAREHOUSE
930 HWY 41","","","PONTOTOC","MS","38863","","","","77713132745"
"PRECINCT P4","PEPA WAREHOUSE
930 HWY 41
","","","PONTOTOC","MS","38863","","","","77713132745"
"PRECINCT P5","PONTOTOC COUNTY COURTHOUSE
11 WASHINGTON STREET","","","PONTOTOC","MS","38863","","","","77713132746"
"PRECINCT P5","PONTOTOC COUNTY COURTHOUSE
11 WASHINGTON STREET
","","","PONTOTOC","MS","38863","","","","77713132746"
"PRECINCT RO","ROBBS POLLING PLACE
450 ROBBS BEND","","","RANDOLPH","MS","38864","","","","77713132747"
"PRECINCT RO","ROBBS POLLING PLACE
450 ROBBS BEND ","","","RANDOLPH","MS","38864","","","","77713132747"
"PRECINCT SH","SHERMAN LIBRARY
56 WEST LAMAR STREET","","","SHERMAN","MS","38863","","","","77713132748"
"PRECINCT SH","SHERMAN LIBRARY
56 WEST LAMAR STREET","","","SHERMAN","MS","38869","","","","77713132748"
"PRECINCT SP","SPRINGVILLE POLLING PLACE
42 SOUTH PONTOTOC ROAD","","","PONTOTOC","MS","38863","","","","77713132749"
"PRECINCT RA","RANDOLPH COMMUNITY CENTER
758 RANDOLPH LOOP","","","RANDOLPH","MS","38863","","","","77713132750"
"PRECINCT RA","RANDOLPH COMMUNITY CENTER
758 RANDOLPH LOOP","","","RANDOLPH","MS","38864","","","","77713132750"
"PRECINCT TH","THAXTON COMMUNITY CENTER
10615 HWY 336","","","THAXTON","MS","38871","","","","77713132751"
"PRECINCT TH","THAXTON COMMUNITY CENTER
10615 HWY 336
","","","THAXTON","MS","38871","","","","77713132751"
"PRECINCT TO","TOCCOPOLA FIRE DEPARTMENT
3152 TOCCOPOLA JUNCTION ROAD","","","THAXTON","MS","38871","","","","77713132752"
"PRECINCT TR","DISTRICT 5 ROAD MAINTENANCE FACILITY
6920 HIGHWAY 41","","","PONTOTOC","MS","38863","","","","77713132753"
"PRECINCT TU","TURNPIKE VOTING PRECINCT
39 MCGREGOR CHAPEL ROAD NORTH","","","PONTOTOC","MS","38863","","","","77713132754"
"PRECINCT WO","WOODLAND POLLING PLACE
3597 WOODLAND ROAD","","","PONTOTOC","MS","38863","","","","77713132755"
"PRECINCT WO","WOODLAND POLLING PLACE
3597 WOODLAND ROAD
","","","PONTOTOC","MS","38863","","","","77713132755"
"PRECINCT Z","DISTRICT 4 ROAD MAINTENANCE FACILITY
149 WOODLAND ROAD","","","PONTOTOC","MS","38863","","","","77713132756"
"PRECINCT Z","DISTRICT 4 ROAD MAINTENANCE FACILITY
149 WOODLAND ROAD
","","","PONTOTOC","MS","38863","","","","77713132756"
"ARLINGTON VOL. FIRE DEPARTMENT NO. 1","10980 ROAD 397","","","PHILA","MS","39350","","","","77713132781"
"NEW ZION PENTECOSTAL CHURCH","11421 ROAD 387","","","PHILA","MS","39350","","","","77713132784"
"TUCKER FACILITY BUILDING","127 A TUCKER FACILITY RD","","","PHILA","MS","39350","","","","77713132786"
"COFFADELIAH LODGE  HWY 491","10731 HWY 491 N","","","PHILA","MS","39350","","","","77713132793"
"NORTH BEND VOTING BLDG HWY 21 N","14473 HWY 21 N","","","PHILA","MS","39350","","","","77713132794"
"NESHOBA COUNTY COLISEUM","12000 HWY 15 N","","","PHILA","MS","39350","","","","77713132795"
"HOUSE VOL FIRE DEPT CR 298","13690 HWY 492 E","","","UNION","MS","39365","","","","77713132800"
"BAPTIST CENTER","903 VALLEY DRIVE","","","PHILA","MS","39350","","","","77713132801"
"BAPTIST CENTER","903 VALLEY VIEW DR","","","PHILA","MS","39350","","","","77713132801"
"TUCKER FIRE STATION NO. 1","10030 BIA 0024","","","PHILA","MS","39350","","","","77713132803"
"TUCKER VOL FIRE DEPT II","10031 ROAD 541","","","PHILA","MS","39350","","","","77713132804"
"DIXON VOL. FIRE DEPT","14800 HWY 21 S","","","PHILA","MS","39350","","","","77713132805"
"PLEASANT VALLEY M.B. CHURCH","12850 ROAD 210","","","UNION","MS","39350","","","","77713132806"
"PLEASANT VALLEY M.B. CHURCH","12850 ROAD 210","","","UNION","MS","39365","","","","77713132806"
"HOPE VOL. FIRE DEPT","10101 HWY 427","","","PHILA","MS","39350","","","","77713132807"
"LINWOOD BAPTIST CHURCH FELLOWSHIP HALL","14591 HWY 15 S","","","UNION","MS","39365","","","","77713132808"
"BURNSIDE LAKE AUDITORIUM","10100 RD 2812","","","PHILA","MS","39350","","","","77713132813"
"BURNSIDE LAKE AUDITORIUM","10100 ROAD 2812","","","PHILA","MS","39350","","","","77713132813"
"EAST NESHOBA FIRE DEPT NO. 1","13110 HWY 16 E","","","PHILA","MS","39350","","","","77713132814"
"ARLINGTON VOL FIRE DEPT","10980 ROAD 397","","","PHILA","MS","39350","","","","77713132815"
"WESTSIDE COMMUNITY CENTER","916 CARVER AVENUE","","","PHILA","MS","39350","","","","77713132816"
"ACI FIRE STATION #2","4735 RED BANKS RD S","","","BYHALIA","MS","38611","","","","77713132825"
"NEW PROSPECT BAPTIST CHURCH","310 HWY 305","","","OLIVE BRANCH","MS","38654","","","","77713132826"
"MINERAL WELLS UNITED METHODIST CHURCH","5400 CENTERHILL RD","","","OLIVE BRANCH","MS","38654","","","","77713132827"
"OB SEVEN DAY ADVENDIST CHURCH","10469 COLLEGE RD","","","OLIVE BRANCH","MS","38654","","","","77713132828"
"MIDDLE SCHOOL GYM","6530 BLOCKER ST","","","OLIVE BRANCH","MS","38654","","","","77713132829"
"INTERMEDIATE SCHOOL","8631 PIGEON ROOST","","","OLIVE BRANCH","MS","38654","","","","77713132830"
"O B FIRE STATION # 2","7745 CRAFT RD","","","OLIVE BRANCH","MS","38654","","","","77713132831"
"GRACEWOOD BAPTIST CHURCH","8551 GETWELL RD N","","","SOUTHAVEN","MS","38672","","","","77713132832"
"DESOTO CENTRAL HIGH SCHOOL","2911 CENTRAL PKWY","","","SOUTHAVEN","MS","38671","","","","77713132833"
"SOUTHAVEN INTERMEDIATE SCHOOL","175 RASCO ROAD
","","","SOUTHAVEN","MS","38671","","","","77713132834"
"SOUTHAVEN INTERMEDIATE SCHOOL","175 RASCO ROAD 
","","","SOUTHAVEN","MS","38671","","","","77713132834"
"SUMMERSHILL FIRE STATION","7600 PLEASANT HILL RD","","","OLIVE BRANCH","MS","38654","","","","77713132835"
"PLEASANT HILL BAPTIST CHURCH","4046 PLEASANT HILL RD","","","OLIVE BRANCH","MS","38654","","","","77713132836"
"PLEASANT HILL BAPTIST CHURCH","4046 PLEASANT HILL RD","","","OLIVE BRANCH ","MS","38654","","","","77713132836"
"SOUTHAVEN FIRE STATION #3","6050 ELMORE RD","","","SOUTHAVEN","MS","38671","","","","77713132837"
"COLONIAL HILLS CHURCH","7701 HWY 51 N","","","SOUTHAVEN","MS","38671","","","","77713132838"
"JUSTICE CRT/TAX COLL BLDG","8525 HIGHWAY 51 N","","","SOUTHAVEN","MS","38671","","","","77713132839"
"GOODMAN RD BAPTIST CHURCH","4368 GOODMAN RD W","","","HORN LAKE","MS","38637","","","","77713132840"
"HORN LAKE CITY HALL","3101 GOODMAN RD W","","","HORN LAKE","MS","38637","","","","77713132841"
"WALLS LIBRARY","7181 DELTA BLUFF PKWY","","","WALLS","MS","38680","","","","77713132842"
"LAKE CORMORANT MIDDLE SCHOOL","3203 WILSON MILL ROAD","","","LAKE CORMORANT","MS","38641","","","","77713132843"
"SOUTHAVEN MIDDLE SCHOOL","899 RASCO RD W","","","SOUTHAVEN","MS","38671","","","","77713132844"
"M.R. DYE PUBLIC LIBRARY","2885 GOODMAN RD","","","HORN LAKE","MS","38637","","","","77713132845"
"HORN LAKE FIRE STATION # 2","5711 HIGHWAY 51 N","","","HORN LAKE","MS","38637","","","","77713132846"
"NW MS COMMUNITY COLLEGE","5197 W. E. ROSS PKWY","","","SOUTHAVEN","MS","38671","","","","77713132847"
"NESBIT FIRE DEPT","3233 NESBIT RD","","","NESBIT","MS","38651","","","","77713132848"
"EUDORA BAPTIST CHURCH","9670 HIGHWAY 304 W","","","HERNANDO","MS","38632","","","","77713132849"
"OAK GROVE BAPTIST CHURCH","4440 OAK GROVE RD","","","HERNANDO","MS","38632","","","","77713132850"
"NESBIT WATER ASSOC.","901 PLEASANT HILL RD","","","NESBIT","MS","38651","","","","77713132851"
"BRIDGETOWN FIRE STATION","3980 MALONE RD","","","NESBIT","MS","38651","","","","77713132852"
"LEWISBURG HIGH SCHOOL","1703 CRAFT RD","","","OLIVE BRANCH","MS","38654","","","","77713132853"
"LEWISBURG HIGH SCHOOL","1703 CRAFT RD
","","","OLIVE BRANCH","MS","38654","","","","77713132853"
"PLEASANT HILL METHODIST CHURCH","3787 PLEASANT HILL RD","","","OLIVE BRANCH","MS","38654","","","","77713132854"
"LONGVIEW POINT BAPTIST CHURCH","1100 MCINGVALE RD","","","HERNANDO","MS","38362","","","","77713132856"
"LONGVIEW POINT BAPTIST CHURCH","1100 MCINGVALE RD","","","HERNANDO","MS","38632","","","","77713132856"
"HERNANDO GALE CENTER","2601 ELM ST","","","HERNANDO","MS","38632","","","","77713132857"
"LOVE FIRE STATION","7345  HIGHWAY 51 S","","","HERNANDO","MS","38632","","","","77713132858"
"COCKRUM FIRE STATION","10145 HOLLY SPRINGS RD","","","HERNANDO","MS","38632","","","","77713132859"
"ANC-ANCHOR VOTING HOUSE 001","650 CR 416","","","WOODLAND","MS","39776","","","","77713132861"
"ANC-ANCHOR VOTING HOUSE 001","650 CR 416 ","","","WOODLAND","MS","39776","","","","77713132861"
"BV-BUENA VISTA VOTING HOUSE 002","CR 172","","","HOUSTON","MS","38851","","","","77713132862"
"BV-BUENA VISTA VOTING HOUSE 002","CR 172","","","HOUSTON ","MS","38851","","","","77713132862"
"BV-BUENA VISTA VOTING HOUSE 002","CR 172 ","","","HOUSTON","MS","38851","","","","77713132862"
"EGT-EGYPT VOTING CENTER 003","CR 177","","","OKOLONA","MS","38860","","","","77713132863"
"EGT-EGYPT VOTING CENTER 003","CR 177","","","OKOLONA ","MS","38860","","","","77713132863"
"EGT-EGYPT VOTING CENTER 003","CR 177 ","","","OKOLONA","MS","38860","","","","77713132863"
"EO-OKOLONA CITY AUDITORIUM 004","215 MAIN ST ","","","OKOLONA ","MS","38860","","","","77713132864"
"NHK-HOULKA COMMUNITY CENTER 005","612 HWY 32 E","","","HOULKA","MS","38850","","","","77713132865"
"NHK-HOULKA COMMUNITY CENTER 005","612 HWY 32 E ","","","HOULKA ","MS","38850","","","","77713132865"
"NHK-HOULKA COMMUNITY CENTER 005","612 HWY 32 EAST ","","","HOULKA ","MS","38850","","","","77713132865"
"NO-OKOLONA NATIONAL GUARD ARMORY 006","214 W MONROE AVE","","","OKOLONA ","MS","38860","","","","77713132866"
"NO-OKOLONA NATIONAL GUARD ARMORY 006","214 W MONROE AVE ","","","OKOLONA","MS","38860","","","","77713132866"
"NO-OKOLONA NATIONAL GUARD ARMORY 006","214 W MONROE AVE ","","","OKOLONA ","MS","38860","","","","77713132866"
"NWH-HOUSTON NATIONAL GUARD ARMORY 007","653 PEARL ST ","","","HOUSTON ","MS","38851","","","","77713132867"
"PG-THORN COMMUNITY CENTER 008","106 CR 37","","","HOUSTON","MS","38851","","","","77713132868"
"PG-THORN COMMUNITY CENTER 008","106 CR 37","","","HOUSTON ","MS","38851","","","","77713132868"
"PSL-PEARSALL VOTING HOUSE 009","871 CR 92","","","HOUSTON","MS","38851","","","","77713132869"
"PSL-PEARSALL VOTING HOUSE 009","871 CR 92","","","HOUSTON ","MS","38851","","","","77713132869"
"SEH-HOUSTON CIVIC CENTER 010","635 STARKVILLE RD","","","HOUSTON","MS","38851","","","","77713132870"
"SEH-HOUSTON CIVIC CENTER 010","635 STARKVILLE RD ","","","HOUSTON ","MS","38851","","","","77713132870"
"SHK-HOULKA COMMUNITY CENTER 011","612 HWY 32 E","","","HOULKA","MS","38850","","","","77713132871"
"SHK-HOULKA COMMUNITY CENTER 011","612 HWY 32 E","","","HOULKA ","MS","38850","","","","77713132871"
"SHK-HOULKA COMMUNITY CENTER 011","612 HWY 32 E ","","","HOULKA ","MS","38850","","","","77713132871"
"SPA-SPARTA OPRY HOUSE 012","634 CR 419","","","WOODLAND ","MS","39776","","","","77713132872"
"SPA-SPARTA OPRY HOUSE 012","634 CR 419 ","","","WOODLAND ","MS","39776","","","","77713132872"
"VV-CHICKASAW COUNTY BARN 013","146 CR 412","","","HOUSTON","MS","38851","","","","77713132873"
"VV-CHICKASAW COUNTY BARN 013","146 CR 412","","","HOUSTON ","MS","38851","","","","77713132873"
"WO-OKOLONA NATIONAL GUARD 014","214 W MONROE AVE ","","","OKOLONA ","MS","38860","","","","77713132874"
"WOOD-WOODLAND CITY HALL 015","120 MARKET ST ","","","WOODLAND ","MS","39776","","","","77713132875"
"CHESTER COMMUNITY CENTER","44 EAST ROAD","","","ACKERMAN","MS","39735","","","","77713132885"
"WEIR FIRE DEPARTMENT","46 N. ANN STREET","","","WEIR","MS","39772","","","","77713132886"
"FRENCH CAMP FIRE DEPARTMENT","6069 MS HIGHWAY 413","","","FRENCH CAMP","MS","39745","","","","77713132887"
"BLANTON'S PIANO SERVICE","1 S. AIRPORT RD ","","","ACKERMAN","MS","39735","","","","77713132888"
"HEBRON ROAD","7519 HEBRON ROAD","","","EUPORA","MS","39744","","","","77713132889"
"BEAT 3 COUNTY BARN","5300 STEWART WEIR ROAD","","","WEIR","MS","39772","","","","77713132890"
"RIO GRANDE RESTAURANT","MS HIGHWAY 15","","","ACKERMAN","MS","39735","","","","77713132891"
"REFORM FIRE DEPARTMENT","142 PLAINERMILL ROAD","","","ACKERMAN","MS","39735","","","","77713132894"
"SHERWOOD COMMUNITY CENTER","23 E. SHERWOOD OCL RD","","","MATHISTON","MS","39752","","","","77713132896"
"ACKERMAN ELEMENTARY SCHOOL","8475 MS HIGHWAY 15","","","ACKERMAN","MS","39735","","","","77713132897"
"BYWY FIRE DEPARTMENT","320 BYWY CHURCH RD","","","ACKERMAN","MS","39735","","","","77713132898"
"WEIR SCHOOL GYMNASIUM","265 MARION KELLY DR
WEIR SCHOOL GYMNASIUM","","","WEIR","MS","39777","","","","77713132899"
"ANTIOCH","2245 HWY 18","","","LOUIN","MS","39338","","","","77713133019"
"OAK BOWERY","3048 HWY 528","","","HEIDELBERG","MS","39439","","","","77713133020"
"HOLDERS","1230 HWY 528","","","BAY SPRINGS ","MS","39422","","","","77713133021"
"MOSS  1ST DIST","1203 C R 8","","","LAUREL","MS","39443","","","","77713133022"
"MOSS 2ND DIST","1203 C R 8","","","LAUREL","MS","39443","","","","77713133023"
"PALESTINE","992 C R 20","","","LOUIN","MS","39338","","","","77713133024"
"PAULDING","1778 HWT 503","","","PAULDING","MS","39348","","","","77713133025"
"FELLOWSHIP","3 C R 2424","","","HICKORY","MS","39332","","","","77713133026"
"MIDWAY","2509 C R 24","","","NEWTON","MS","39345","","","","77713133027"
"ROSE HILL","31 C R 5131","","","ROSE HILL","MS","39356","","","","77713133028"
"VOSSBURG","630 C R 39","","","VOSSBURG","MS","39366","","","","77713133029"
"BAY SPRINGS BEAT-3","61 C R 1521","","","BAY SPRINGS","MS","39422","","","","77713133030"
"LOUIN","4242 HWY 15","","","LOUIN","MS","39338","","","","77713133032"
"MONTROSE","383 C R 20","","","LOUIN","MS","39338","","","","77713133033"
"BAY SPRINGS BEAT-4","27 W 8 TH AVE","","","BAY SPRINGS","MS","39422","","","","77713133034"
"STRINGER","1128 HWY 15","","","STRINGER","MS","39481","","","","77713133035"
"HEIDELBERG","114 W PARK ST","","","HEIDELBERG","MS","39439","","","","77713133036"
"CLAIBORNE","3185 C R 8","","","HEIDELBERG","MS","39439","","","","77713133037"
"PHILADELPHIA","114 W PARK ST","","","HEIDELBERG","MS","39439","","","","77713133038"
"HWY 33 SOUTH","1813 HIGHWAY 33 SOUTH","","","CENTREVILLE","MS","39631","","","","77713133040"
"OLD USO BUILDING CENTREVILE POLICE STATION","216 JOSEPH STREET","","","CENTREVILLE","MS","39631","","","","77713133043"
"WOODVILLE LIBRARY","MAIN STREET","","","WOODVILLE","MS","39669","","","","77713133046"
"LONGMIRE VOTING PRECINCT","15237 MACEDONIA ROAD","","","CROSBY ","MS","39633","","","","77713133047"
"18219 BUNKLEY ROAD SW","18219 BUNKLEY ROAD SW","","","ROXIE","MS","39661","","","","77713133131"
"ROXIE CITY HALL","124 WEST BLVD.","","","ROXIE","MS","39661","","","","77713133132"
"7646 MCNAIR ROAD NW","7646 MCNAIR ROAD NW","","","ROXIE","MS","39661","","","","77713133135"
"273 RAILROAD AVE NW","273 RAILROAD AVENUE NW","","","ROXIE","MS","39661","","","","77713133136"
"COUNTY AGENT OFFICE","20 WALNUT STREET SOUTH","","","MEADVILLE","MS","39653","","","","77713133137"
"BUDE CITY HALL","125 RAILROAD AVENUE","","","BUDE","MS","39630","","","","77713133139"
"8714 BUNKLEY ROAD SW","8714 BUNKLEY ROAD SW","","","MEADVILLE ","MS","39653","","","","77713133143"
"30 EDDICETON CIRCLE NORTH NE","30 EDDICETON CIRCLE NORTH NE","","","MEADVILLE","MS","39653","","","","77713133144"
"LUCIEN BAPTIST CHURCH FELLOWSHIP HALL","57 PARSONS STREET SE","","","MCCALL CREEK","MS","39647","","","","77713133146"
"27 BUTLER STREET SE","27 BUTLER STREET SE","","","MCCALL CREEK","MS","39647","","","","77713133147"
"1375 LITTLE SPRINGS EXT SE","1375 LITTLE SPRINGS EXT SE","","","SMITHDALE","MS","39664","","","","77713133148"
"DISTRICT 5 FIRE DEPARTMENT BUILDING","35 MCGEHEE ROAD SE","","","MEADVILLE","MS","39653","","","","77713133149"
"6673 HWY 98 EAST","6673 HIGHWAY 98 EAST","","","MEADVILLE","MS","39653","","","","77713133150"
"MULTI-PURPOSE BLDG.","298 FREEMAN ST","","","BROOKSVILLE","MS","39739","","","","77713133154"
"CENTRAL ADMINISTRATION BLDG (GYMNASIUM)","15865 HIGHWAY 14","","","MACON","MS","39341","","","","77713133159"
"NW - NATIONAL GUARD ARMORY","OLD NATIONAL GUARD BUILDING
700 ALBERTA DRIVE","","","WINONA","MS","38967","","","","77713133178"
"MASONIC HALL -  KILMICHAEL","KILMICHAEL MASONIC HALL                       
110 FIRST STREET","","","KILMICHAEL","MS","39747","","","","77713133198"
"CITY HALL - KILMICHAEL","KILMICHAEL CITY HALL
114 NORTH DEPOT AVE","","","KILMICHAEL","MS","39747","","","","77713133199"
"COUNTY BUILDING - LODI","COUNTY BUILDING
2541 LODI ROAD","","","KILMICHAEL","MS","39747","","","","77713133203"
"NATIONS","NATIONS COMMUNITY BUILDING
915 HIGHWAY 413","","","KILMICHAEL","MS","39747","","","","77713133207"
"FIRE DEPARTMENT - POPLAR CREEK","POPLAR CREEK FIRE DEPT
10 POPLAR CREEK RD","","","KILMICHAEL","MS","39747","","","","77713133231"
"CITY HALL -  WINONA","WINONA CITY HALL
116 N QUITMAN AVE","","","WINONA","MS","38967","","","","77713133233"
"FIRE DEPARTMENT - STEWART","STEWART FIRE DEPT
21 CHOCTAW STREET","","","STEWART","MS","39767","","","","77713133236"
"GRANBY FIRE STATION","GRANBY FIRE DEPT
956 ST. STEPHENS ROAD","","","PRENTISS","MS","39474","","","","77713133284"
"MT CARMEL BAP CHURCH","MT CARMEL BAPTIST CHURCH,
87 MT. CARMEL LOOP","","","PRENTISS","MS","39474","","","","77713133300"
"GRANBY ROAD","106 GRANBY ROAD","","","PRENTISS","MS","39474","","","","77713133301"
"SONAT RD. GWINVILLE","649 SONAT RD","","","NEW HEBRON","MS","39140","","","","77713133304"
"SONAT RD-HEBRON","649 SONAT RD","","","NEW HEBRON","MS","39140","","","","77713133306"
"EZRA GARNER BLDG.","26 AIRPORT ROAD","","","PRENTISS","MS","39474","","","","77713133307"
"RED HOUSE COMM BLDG","985 WEST WHITESAND ROAD","","","NEW HEBRON","MS","39140","","","","77713133309"
"RED HOUSE COMM BLDG","985 WEST WHITESAND ROAD","","","NEWHEBRON","MS","39140","","","","77713133309"
"RED HOUSE COMM BLDG","985 WEST WHITSAND ROAD","","","NEW HEBRON","MS","39140","","","","77713133309"
"DOUBLE PONDS","WHITING
675 SOPHIA SUTTON ROAD","","","PRENTISS","MS","39474","","","","77713133311"
"AIRPORT FIREHOUSE","434 AIRPORT RD.","","","NATCHEZ","MS","39120","","","","77713133313"
"BY-PASS FIRE STATION","467 JOHN R JUNKIN DR.","","","NATCHEZ ","MS","39120","","","","77713133314"
"ELKS LODGE","241 LOWER WOODVILLE RD.","","","NATCHEZ","MS","39120","","","","77713133316"
"CHURCH OF CHRIST","2 BEAU PRE RD.","","","NATCHEZ","MS","39120","","","","77713133319"
"CHRISTIAN HOPE BAPTIST CHURCH","301 LASALLE ST","","","NATCHEZ","MS","39120","","","","77713133321"
"COURTHOUSE","115 S. WALL ST.","","","NATCHEZ","MS","39120","","","","77713133322"
"ROSE HILL BAPTIST CHURCH","607 1/2 MADISON ST.","","","NATCHEZ","MS","39120","","","","77713133323"
"DUNCAN PARK CANTEEN","57 DUNCAN PARK RD.","","","NATCHEZ","MS","39120","","","","77713133324"
"DISTRICT 5 FIRE STATION","228 FOSTER MOUND RD.","","","NATCHEZ","MS","39120","","","","77713133326"
"KINGSTON FIRE STATION","575 KINGSTON RD","","","NATCHEZ","MS","39120","","","","77713133327"
"KINGSTON FIRE STATION","575 KINGSTON RD.","","","NATCHEZ","MS","39120","","","","77713133327"
"MS NAT GUARD ARMORY","329 LIBERTY RD.","","","NATCHEZ","MS","39120","","","","77713133329"
"MORGANTOWN SCHOOL","101 COTTAGE HOME DR.","","","NATCHEZ","MS","39120","","","","77713133330"
"MARYLAND HEIGHTS REC BLDG","111 DUMAS DR.","","","NATCHEZ","MS","39120","","","","77713133331"
"DAVID R STECKLER MULTI PUR. BLDG","311 LIBERTY RD.","","","NATCHEZ","MS","39120","","","","77713133332"
"FRAZIER SCHOOL","1445 GEORGE F WEST BLVD.","","","NATCHEZ","MS","39120","","","","77713133333"
"LOVELY LANE METHODIST CHURCH","65 MORGANTOWN RD.","","","NATCHEZ","MS","39120","","","","77713133334"
"LIBERTY RD VOLUNTEER FIRE DEPT","1196 LIBERTY RD.","","","NATCHEZ","MS","39120","","","","77713133336"
"DISTRICT 4 BARN","176 FOSTER MOUND RD","","","NATCHEZ","MS","39120","","","","77713133337"
"DISTRICT 4 BARN","176 FOSTER MOUND RD.","","","NATCHEZ","MS","39120","","","","77713133337"
"THOMPSON SCHOOL","1038 N. UNION ST.","","","NATCHEZ","MS","39120","","","","77713133338"
"NEW HOPE BAPTIST CHURCH","417 MORGANTOWN RD.","","","NATCHEZ","MS","39120","","","","77713133340"
"LEAKESVILLE-COMMUNITY CTR","1627 CENTER ST","","","LEAKESVILLE","MS","39451","","","","77713133357"
"NORTH L'VILLE-FIRE HOUSE","808 MAIN ST","","","LEAKESVILLE","MS","39451","","","","77713133358"
"STATELINE-OLD GYM","41 WINCHESTER ST","","","STATE LINE","MS","39362","","","","77713133359"
"MUTUAL RIGHTS-VOTING HOUSE","34777 HWY 63 N","","","LEAKESVILLE","MS","39451","","","","77713133360"
"WADE-SAND HILL COMMUNITY CTR","39455 HWY 63 N","","","RICHTON","MS","39476","","","","77713133361"
"JONES-VOTING HOUSE","219 BREWERTOWN RD","","","RICHTON","MS","39476","","","","77713133362"
"PIAVE-VOTING HOUSE","51 GORDON RD","","","RICHTON","MS","39476","","","","77713133363"
"MAPLES-VOTING HOUSE","12955 BRUSHY CREEK RD","","","LUCEDALE","MS","39452","","","","77713133365"
"VERNAL-OLD VERNAL SCHOOL","3685 VERNAL RIVER RD","","","LUCEDALE","MS","39452","","","","77713133366"
"WASHINGTON-NEELY COMM CTR","7733 OLD HWY 24","","","NEELY","MS","39461","","","","77713133367"
"LEAF-LEAF CHURCH","113 CHURCH ST","","","MCLAIN","MS","39456","","","","77713133368"
"MCLAIN-TOWN HALL","106 CHURCH AVE","","","MCLAIN","MS","39456","","","","77713133369"
"JONATHAN-VOTING HOUSE","3088 JONATHAN RD","","","LEAKESVILLE","MS","39451","","","","77713133370"
"E. GLOSTER/GLOSTER F.D.","251 S FIRST ST","","","GLOSTER","MS","39638","","","","77713133379"
"LIBERTY/HWY. 567","4354 MS HWY 567","","","LIBERTY","MS","39645","","","","77713133380"
"NEW ZION/SMITHDALE F.D.","5466 FENN RD","","","SMITHDALE","MS","39664","","","","77713133381"
"ZION HILL/HWY. 567/COLE RD.","6075 MS HWY 567","","","LIBERTY","MS","39645","","","","77713133383"
"AMITE RIVER/LIB. ELEMENTARY","3457B S GREENSBURG RD","","","LIBERTY","MS","39645","","","","77713133384"
"ARIEL VOLUNTEER FIRE DEPT. BLDG.","4250 KAHNVILLE RD","","","GLOSTER","MS","39638","","","","77713133386"
"BERWICK/JERUSALEM BAPT. CHURCH","3590-A JERUSALEM RD","","","LIBERTY","MS","39645","","","","77713133387"
"E.CENTREVILLE/HWY. 48 W","1299 MS HWY 48","","","CENTREVILLE","MS","39631","","","","77713133389"
"E.CENTREVILLE/HWY. 48 W","1299 MS HWY 48","","","CENTREVILLE ","MS","39631","","","","77713133389"
"STREET VOLUNTEER FIRE DEPT.","2169 MS HWY 569 S","","","LIBERTY","MS","39645","","","","77713133390"
"STREET VOLUNTEER FIRE DEPT.","2169 MS HWY 569 S","","","LIBERTY ","MS","39645","","","","77713133390"
"CROSBY/FORMER TOWN HALL","106 PINE ST","","","CROSBY","MS","39631","","","","77713133391"
"CROSBY/FORMER TOWN HALL","106 PINE ST","","","CROSBY","MS","39633","","","","77713133391"
"GLOSTER TRANSFER/COMPACTOR","4909 E HOMOCHITTO RD","","","GLOSTER","MS","39638","","","","77713133393"
"GLOSTER TRANSFER/COMPACTOR","4909 E HOMOCHITTO RD","","","GLOSTER ","MS","39638","","","","77713133393"
"HOMOCHITTO/MT. VERNON CHURCH","2038 POOLE LN","","","GLOSTER","MS","39638","","","","77713133394"
"O'NEIL FIRE DEPARTMENT","5697 OXFORD MEADVILLE RD","","","GLOSTER","MS","39638","","","","77713133395"
"EAST FORK/HWY. 24/PEORIA RD.","4330 PEORIA RD","","","LIBERTY","MS","39645","","","","77713133396"
"EAST LIBERTY/HARRISON BLDG.","910 OLD MCCOMB-LIBERTY RD","","","LIBERTY","MS","39645","","","","77713133398"
"SMITHDALE/HWY. 570 - FENN RD.","6485 MS HWY 570","","","SMITHDALE","MS","39664","","","","77713133399"
"SMITHDALE/HWY. 570 - FENN RD.","6485 MS HWY. 570","","","SMITHDALE","MS","39664","","","","77713133399"
"TANGIPAHOA RD/HWY. 570","7651 MS HIGHWAY 570","","","SUMMIT","MS","39666","","","","77713133400"
"RICEVILLE/HWY. 568/PALMER RD.","2505 PALMER RD","","","MAGNOLIA","MS","39652","","","","77713133401"
"S. LIBERTY/COURTHOUSE","243 W MAIN ST","","","LIBERTY","MS","39645","","","","77713133402"
"TICKFAW/PEORIA ROAD","3499 PEORIA RD","","","LIBERTY","MS","39645","","","","77713133404"
"WALLS/GILLSBURG VOL. F. D.","6077 MS HWY 568","","","OSYKA","MS","39657","","","","77713133407"
"LAMBERT CITY HALL","831 SCOTT AVE","","","LAMBERT","MS","38643","","","","77713133424"
"CROWDER CITY HALL","450 QUITMAN AVE NORTH","","","CROWDER","MS","38622","","","","77713133425"
"CAIRO VOTER BUILDING","10851 HIGHWAY 46","","","CEDAR BLUFF","MS","39741","","","","77713133426"
"CARADINE VOTER BUILDING","14252 UNA-BRAND ROAD","","","PRAIRIE","MS","39756","","","","77713133427"
"CEDAR BLUFF - COMMUNITY CENTER","197 HENRYVILLE ROAD","","","CEDAR BLUFF","MS","39741","","","","77713133428"
"COUNTY COMPLEX","330 W. BROAD","","","WEST POINT","MS","39773","","","","77713133430"
"COUNTY COMPLEX","330 W. BROAD STREET ","","","WEST POINT","MS","39773","","","","77713133430"
"AMERICAN LEGION HUT","515 WESTBROOK","","","WEST POINT","MS","39773","","","","77713133432"
"RECREATION CENTER","1032 WOOD ST.","","","WEST POINT","MS","39773","","","","77713133434"
"RECREATION CENTER","1032 WOOD STREET","","","WEST POINT","MS","39773","","","","77713133434"
"PHEBA - VOTER BUILDING","21523 HIGHWAY 50 W","","","PHEBA","MS","39755","","","","77713133445"
"PINE BLUFF VOTER BUILDING","10498 COLONY ROAD","","","MANTEE","MS","39751","","","","77713133446"
"SILOAM - COMMUNITY CENTER","2504 HIGHWAY 47","","","WEST POINT","MS","39773","","","","77713133447"
"SOUTH-WEST POINT","540 E. BRAME AVE.","","","WEST POINT","MS","39773","","","","77713133448"
"TIBBEE - FIRE STATION","2895 E. TIBBEE RD.","","","WEST POINT","MS","39773","","","","77713133449"
"UNION STAR - FIRE STATION","6423 WAVERLY RD.","","","WEST POINT","MS","39773","","","","77713133451"
"UNION STAR - FIRE STATION","6423 WAVERLY ROAD","","","WEST POINT","MS","39773","","","","77713133451"
"VINTON - COUNTY SHED","440 BARTON FERRY RD","","","WEST POINT","MS","39773","","","","77713133452"
"HENRY HARRIS BUILDING","227 COURT STREET","","","WEST POINT","MS","39773","","","","77713133453"
"POWER COMPANY AT BALDWYN","101 EAST CLAYTON ST.","","","BALDWYN","MS","38824","","","","77713133520"
"BLACKLAND COMMUNITY CENTER","289 CR 7200","","","BOONEVILLE","MS","38829","","","","77713133521"
"PRENTISS CO. AGRICENTER","2301 NORTH SECOND ST.","","","BOONEVILLE","MS","38829","","","","77713133522"
"PRENTISS CO. AGRICENTER","P.O. BOX 477","","","BOONEVILLE","MS","38829","","","","77713133522"
"JUMPERTOWN COMMUNITY CENTER","724 HIGHWAY 4 WEST","","","BOONEVILLE","MS","38829","","","","77713133523"
"PRENTISS BAPTIST ASSOCIATION BUILDING","400 MARIETTA ST.","","","BOONEVILLE","MS","38829","","","","77713133524"
"INGRAM FIRE STATION","212 CR 6200","","","BALDWYN","MS","38824","","","","77713133528"
"INGRAM FIRE STATION","P.O. BOX 477","","","BOONEVILLE","MS","38829","","","","77713133528"
"MARIETTA COMMUNITY CENTER","36 CR 4060","","","MARIETTA","MS","38856","","","","77713133529"
"HILLS CHAPEL SCHOOL","8 CR 2371","","","BOONEVILLE","MS","38829","","","","77713133530"
"EASTSIDE COMMUNITY CENTER","406 N. LAKE ST.","","","BOONEVILLE","MS","38829","","","","77713133531"
"NEW SITE SCHOOL","1020 HIGHWAY 4 EAST","","","NEW SITE","MS","38859","","","","77713133534"
"CAIRO FIRE DEPARTMENT","654 HIGHWAY 365","","","BOONEVILLE","MS","38829","","","","77713133535"
"THRASHER SCHOOL","167 CR 1040","","","BOONEVILLE","MS","38829","","","","77713133539"
"TUSCUMBIA  COMMUNITY CENTER","80 CR 1101","","","BOONEVILLE","MS","38829","","","","77713133540"
"WEST SIDE COMMUNITY CENTER","101 DALLISON DR.","","","BOONEVILLE","MS","38829","","","","77713133541"
"WHEELER HIGH SCHOOL","318 CR 5011","","","BOONEVILLE","MS","38829","","","","77713133542"
"WHEELER HIGH SCHOOL","P.O. BOX 119","","","WHEELER","MS","38880","","","","77713133542"
"ROCKY CREEK FIRE DEPARTMENT","1250 ROCKY CREEK RD","","","LUCEDALE","MS","39452","","","","77713133543"
"SENIOR CITIZENS BLDG","7102 HWY 198 E","","","LUCEDALE","MS","39452","","","","77713133544"
"WARD FIRE DEPARTMENT","2167 WEEKS RD","","","LUCEDALE","MS","39452","","","","77713133545"
"WARD FIRE DEPARTMENT","2167 WEEKS RD","","","LUCEDALE ","MS","39452","","","","77713133545"
"SHIPMAN FIRE DEPARTMENT","3161 SHIPMAN RD","","","LUCEDALE","MS","39452","","","","77713133546"
"COURTHOUSE","355 COX ST","","","LUCEDALE","MS","39452","","","","77713133547"
"AGRICOLA EMERGENCY SHELTER","3161 COOKS CORNER RD","","","LUCEDALE","MS","39452","","","","77713133548"
"AGRICOLA FIRE DEPARTMENT","6191 HWY 613","","","LUCEDALE","MS","39452","","","","77713133549"
"HOWELL COMMUNITY CENTER","4257 HOWELL TANNER CHAPEL RD","","","LUCEDALE","MS","39452","","","","77713133550"
"MOVELLA FIRE DEPARTMENT","1131 HWY 613","","","LUCEDALE","MS","39452","","","","77713133551"
"MULTI-PURPOSE BUILDING HIGHWAY","9146 OLD HWY 63 SOUTH","","","LUCEDALE","MS","39452","","","","77713133552"
"BASIN FIRE DEPARTMENT","1174 PLEASANT HILL CHURCH RD","","","LUCEDALE","MS","39452","","","","77713133553"
"DAVIS COMMUNITY CENTER","103 MUSIC MOUNTAIN RD","","","LUCEDALE","MS","39452","","","","77713133554"
"BARTON FIRE DEPARTMENT","2112 GRAIN ELEVATOR RD","","","LUCEDALE","MS","39452","","","","77713133555"
"CITY COURTROOM","545 OAK ST","","","LUCEDALE","MS","39452","","","","77713133556"
"SHADY GROVE COUNTY BARN","14204 HIGHWAY 26 W","","","LUCEDALE","MS","39452","","","","77713133557"
"SHADY GROVE COUNTY BARN","14204 HWY 26 W","","","LUCEDALE","MS","39452","","","","77713133557"
"OLD BEXLEY SCHOOL","102 BEXLEY RD N.","","","LUCEDALE","MS","39452","","","","77713133558"
"SALEM FIRE DEPARTMENT","7269 HWY 57 N","","","MCLAIN","MS","39456","","","","77713133559"
"SALEM FIRE DEPARTMENT","7269 HWY 57 N.","","","MCLAIN","MS","39456","","","","77713133559"
"MIDDLE SCHOOL GYM","330 CHURCH ST","","","LUCEDALE","MS","39452","","","","77713133560"
"CENTRAL FIRE DEPARTMENT","4146 BASIN CENTRAL RD","","","LUCEDALE","MS","39452","","","","77713133561"
"BENNDALE EMERGENCY SHELTER","5207 HWY 26 W
","","","LUCEDALE","MS","39452","","","","77713133562"
"BENNDALE EMERGENCY SHELTER","5207 HWY 26 W.","","","LUCEDALE","MS","39452","","","","77713133562"
"BROOME FIRE DEPARTMENT","8109 BROOME SCHOOL RD","","","PERKINSTON","MS","39573","","","","77713133563"
"TWIN CREEK FIRE DEPARTMENT","163 CAMELLIA RD","","","LUCEDALE","MS","39452","","","","77713133564"
"79 JACKSON RD,COMM CENTER","79 JACKSON RD","","","HATTIESBURG","MS","39402","","","","77713133622"
"OLD PORTERVILLE SCHOOL - BEHIND","BEHIND JACK WEBB GROCERY STORE","","","PORTERVILLE","MS","39352","","","","77713133644"
"ST.  JAMES EPISCOPAL CHURCH","1026 WASHINGTON AVE. ","","","GREENVILLE","MS","38701","","","","77713133662"
"ST.  JAMES EPISCOPAL CHURCH","1026 WASHINGTON AVENUE","","","GREENVILLE","MS","38701","","","","77713133662"
"COVENANT PRESBYTERIAN CHURCH","1865 S. MAIN ST. ","","","GREENVILLE","MS","38701","","","","77713133663"
"COVENANT PRESBYTERIAN CHURCH","1865 SOUTH MAIN STREET","","","GREENVILLE","MS","39701","","","","77713133663"
"SWIFTWATER BAPTIST CHURCH","3031 HWY 1 S.","","","GREENVILLE","MS","39701","","","","77713133664"
"SWIFTWATER BAPTIST CHURCH","3031 HWY 1 S. ","","","GREENVILLE","MS","38701","","","","77713133664"
"GLEN ALLEN COMMUNITY  BLDG.","970 W. LAKE WASHINGTON RD. ","","","GLEN ALLEN","MS","38722","","","","77713133665"
"GLEN ALLEN COMMUNITY  BLDG.","970 W. LAKE WASHINGTON RD. ","","","GLEN ALLEN","MS","38744","","","","77713133665"
"WARDS RECREATION CENTER","1648 HWY 1 S. ","","","GREENVILLE","MS","38701","","","","77713133666"
"WARDS RECREATION CENTER","1648 HWY 1 SOUTH","","","GREENVILLE","MS","39701","","","","77713133666"
"BUSTER BROWN COMMUITY CENTER","400 ROBERTSHAW ST","","","GREENVILLE","MS","39701","","","","77713133667"
"BUSTER BROWN COMMUITY CENTER","400 ROBERTSHAW ST. ","","","GREENVILLE","MS","38701","","","","77713133667"
"ARCOLA TECHNOLOGY CENTER","102 TOWER LANE","","","ARCOLA","MS","38722","","","","77713133668"
"TAMPA DRIVE","HWY 82 W. ","","","GREENVILLE","MS","38701","","","","77713133670"
"TAMPA DRIVE","HWY 82 WEST","","","GREENVILLE","MS","38701","","","","77713133670"
"EXTENSION BUILDING","148 N EDISON ST","","","GREENVILLE","MS","38701","","","","77713133672"
"EXTENSION BUILDING","148 N. EDISON ST. ","","","GREENVILLE","MS","38701","","","","77713133672"
"LAKE VISTA MASONIC LODGE","705 SAMPSON ROAD","","","GREENVILLE","MS","38701","","","","77713133673"
"METCALFE CITY HALL","519 MARTIN LUTHER KING","","","METCALFE","MS","38760","","","","77713133674"
"ELK'S LODGE","1818 E ALEXANDER","","","GREENVILLE","MS","38701","","","","77713133675"
"ELK'S LODGE","1818 E. ALEXANDER ST.","","","GREENVILLE","MS","38701","","","","77713133675"
"LELAND HEALTH DEPARTMENT","801 N BROAD ST","","","LELAND","MS","38756","","","","77713133676"
"LELAND HEALTH DEPARTMENT","801 N. BROAD ST. ","","","LELAND","MS","38756","","","","77713133676"
"LELAND ROTARY CLUB","411 CALIFORNIA AVE.","","","LELAND","MS","38756","","","","77713133677"
"LELAND ROTARY CLUB","PO BOX 9013","","","LELAND","MS","38756","","","","77713133677"
"HOLLANDALE CITY HALL","200 EAST AVE. S. ","","","HOLLANDALE","MS","38748","","","","77713133678"
"HOLLANDALE CITY HALL","200 EAST AVENUE SOUTH","","","HOLLANDALE","MS","38748","","","","77713133678"
"DARLOVE","3024 AVON DARLOVE RD. ","","","HOLLANDALE","MS","38748","","","","77713133679"
"WASHINGTON COUNTY CONVENTION CENTER","1040 S RACEWAY ROAD","","","GREENVILLE","MS","38703","","","","77713133680"
"GREENVILLE INDUSTRIAL COLLEGE","140 S. EIGHT ST. ","","","GREENVILLE","MS","38701","","","","77713133681"
"GREENVILLE INDUSTRIAL COLLEGE","140 S. EIGHTH STREET","","","GREENVILLE","MS","38701","","","","77713133681"
"OZONA BAPTIST CHURCH-164 OZONA RD","6509 HIGHWAY 11-CHURCH OF THE WAY","","","CARRIERE","MS","39426","","","","77713133696"
"CONWAY","VOTING HOUSE
3201 CONWAY RD","","","CARTHAGE","MS","39051","","","","77713133717"
"EAST CARTHAGE","TRINITY BAPTIST CHURCH
308 OAKHILL DRIVE","","","CARTHAGE","MS","39051","","","","77713133718"
"EDINBURG","PINE GROVE CHURCH 
91 ADAMS RD","","","CARTHAGE","MS","39051","","","","77713133720"
"FREENY","VOTING HOUSE
3503 FREENY RD","","","CARTHAGE","MS","39051","","","","77713133721"
"FREENY","VOTING HOUSE
3503 FREENY RD","","","CARTHAGE","MS","39094","","","","77713133721"
"GOOD HOPE","SW LEAKE WATER ASSN. BLDG.
991 PLEASANT HILL RD","","","LENA","MS","39094","","","","77713133722"
"LENA","LENA FIRE DEPT
1114 GRAND AVE.","","","LENA","MS","39094","","","","77713133723"
"MADDEN","MADDEN FIRE DEPT
1413 BRYAN RD","","","CARTHAGE","MS","39051","","","","77713133724"
"MADDEN","MADDEN FIRE DEPT
1413 BRYAN RD","","","CARTHAGE","MS","39189","","","","77713133724"
"NORTH CARTHAGE","CARTHAGE LIBRARY
114 EAST FRANKLIN STREET","","","CARTHAGE","MS","39051","","","","77713133725"
"OFAHOMA","OFAHOMA FIRE DEPT
2531 FOREST GROVE RD","","","CARTHAGE","MS","39051","","","","77713133726"
"RENFROE","MARYDELL FIRE
201 LOOP RD","","","CARTHAGE","MS","39051","","","","77713133727"
"RENFROE","MARYDELL FIRE DEPT
201 LOOP RD","","","CARTHAGE","MS","39051","","","","77713133727"
"SOUTH CARTHAGE","FREENY WATER ASSN.
1411 HWY 35 SOUTH","","","CARTHAGE","MS","39051","","","","77713133728"
"SALEM","VOTING HOUSE
735 PURVIS RD","","","WALNUT GROVE","MS","39189","","","","77713133729"
"SINGLETON","BARNES FIRE DEPARTMENT
4645 COUNTYLINE RD","","","CARTHAGE","MS","39051","","","","77713133730"
"SUNRISE","EDINBURG FIRE DEPT
91 ADAMS RD","","","CARTHAGE","MS","39051","","","","77713133731"
"THOMASTOWN","THOMASTOWN COMMUNITY CNTR
7665 HWY 43","","","KOSCIUSKO","MS","39090","","","","77713133732"
"WEST CARTHAGE","LINCOLN PARK COMMUNITY CNT
411 HAYES STREET","","","CARTHAGE","MS","39051","","","","77713133733"
"WALNUT GROVE","PUBLIC LIBRARY
146 MAIN STREET","","","WALNUT GROVE","MS","39055","","","","77713133734"
"WALNUT GROVE","PUBLIC LIBRARY
146 MAIN STREET","","","WALNUT GROVE","MS","39189","","","","77713133734"
"WIGGINS","VOTING HOUSE
1814 HWY 16 WEST","","","CARTHAGE","MS","39051","","","","77713133735"
"MT HEBRON TCDC BUILDING","7841 CR 301","","","WALNUT","MS","38663","","","","77713133792"
"CAMBURN BUILDING","31440 HWY. 15 N","","","WALNUT","MS","38683","","","","77713133793"
"UNION HALL WALNUT, MS","31 MITCHELL AVE","","","WALNUT","MS","38683","","","","77713133794"
"CHALYBEATE ELEMENTARY SCHOOL","2471 HIGHWAY 354","","","WALNUT","MS","38683","","","","77713133795"
"NORTH TIPPAH SUPERINDENT'S OFFICE","24111 HIGHWAY 15","","","TIPLERSVILLE","MS","38674","","","","77713133796"
"FALKNER ELEMENTARY SCHOOL GYM","20771 HIGHWAY 15","","","FALKNER","MS","38629","","","","77713133797"
"FALKNER TOWN HALL","10071 CR 200","","","FALKNER","MS","38629","","","","77713133798"
"BLUE MOUNTAIN FIRE STATION","32 W MAIN ST","","","BLUE MOUNTAIN","MS","38610","","","","77713133800"
"RODGERS' SHOP","10 HIGHWAY 15","","","NEW ALBANY","MS","38652","","","","77713133801"
"NEW HOPE TCDC BUILDING","1211 CR 702","","","BLUE MOUNTAIN","MS","38610","","","","77713133802"
"OLD BUENA VISTA SCHOOL","81 CR 718","","","RIPLEY","MS","38663","","","","77713133803"
"PALMER TCDC BUILDING","351 CR 817","","","RIPLEY","MS","38663","","","","77713133804"
"SHADY GROVE FIRE STATION","790 HIGHWAY 4","","","RIPLEY","MS","38663","","","","77713133805"
"MITCHELL FIRE DEPARTMENT","40 CR 614","","","RIPLEY","MS","38663","","","","77713133806"
"PINE GROVE SCHOOL AUDITORIUM","3510-A CR 600","","","RIPLEY","MS","38663","","","","77713133807"
"DUMAS FIRE STATION","3340 HIGHWAY 370","","","DUMAS","MS","38625","","","","77713133808"
"INDUSTRIAL BUILDING @ FAIRGROUNDS","10791-B HIGHWAY 15","","","RIPLEY","MS","38663","","","","77713133810"
"CHAPMAN TCDC BUILDING","440 CR 538","","","RIPLEY","MS","38663","","","","77713133811"
"SPOUT SPRINGS FIRE STATION","23100 HIGHWAY 2","","","RIPLEY","MS","38663","","","","77713133813"
"PEOPLES BAPTIST CHURCH FELLOWSHIP HALL","7691 CR 500","","","RIPLEY","MS","38663","","","","77713133814"
"HOPPER'S SHOP","2840 CR 204","","","TIPLERSVILLE","MS","38674","","","","77713133816"
"COURTHOUSE","517 EAST BROAD STREET","","","MONTICELLO","MS","39654","","","","77713133820"
"TILTON FIRE DEPARTMENT","213 GIVENS MULLINS ROAD","","","JAYESS ","MS","39641","","","","77713133821"
"TOPEKA FIRE DEPT.","20 BISMARK ROAD","","","JAYESS","MS","39641","","","","77713133822"
"NATIONAL GUARD ARMORY","74 OLD HWY 27 NORTH","","","MONTICELLO","MS","39654","","","","77713133823"
"COLEMANS CHAPEL CHURCH","204 D. E. STEPHENS ROAD","","","SILVER CREEK","MS","39663","","","","77713133824"
"PEARL RIVER BAPTIST CHURCH","24 PEARL RIVER ROAD","","","SILVER CREEK","MS","39663","","","","77713133825"
"NEW HEBRON FIRE STATION","506 MAIN AVENUE","","","NEW HEBRON","MS","39140","","","","77713133826"
"FIRST BAPTIST CHURCH","188 CHURCH STREET","","","MONTICELLO","MS","39654","","","","77713133829"
"SC CITY HALL","20 SECOND STREET","","","SILVER CREEK","MS","39663","","","","77713133830"
"NOLA VOTING BUILDING","162 SONTAG NOLA ROAD","","","SONTAG","MS","39665","","","","77713133831"
"OAKVALE FIRE DEPARTMENT","368 THIRD AVENUE","","","OAKVALE","MS","39656","","","","77713133832"
"DOERS OF THE WORD MISSION","95 OAK GROVE ROAD","","","MONTICELLO","MS","39654","","","","77713133833"
"U.P.W.I. UNION HALL","3186 SOUTHERN AVENUE","","","SILVER CREEK","MS","39663","","","","77713133834"
"WEST ARM FIRE DEPARTMENT","24 ARM CEMETERY ROAD","","","SILVER CREEK","MS","39663","","","","77713133835"
"VFW BUILDING","21 VFW WAY","","","MONTICELLO","MS","39654","","","","77713133836"
"OAKVALE FIRE DEPT","368 THIRD AVENUE","","","OAKVALE","MS","39656","","","","77713133837"
"OMA VOL. FIRE DEPT","1218 MONTICELLO ROAD","","","MONTICELLO","MS","39654","","","","77713133838"
"COMMUNITY CENTER (SONTAG)","11 SMITH FERRY ROAD","","","SONTAG","MS","39665","","","","77713133839"
"WANILLA FIRE DEPARTMENT","969 SMITH FERRY ROAD","","","MONTICELLO","MS","39654","","","","77713133840"
"329 FORD CALCOTE","329 FORD CALCOTE ROAD","","","MONTICELLO","MS","39654","","","","77713133841"
"V.F.W. BUILDING","21 VFW WAY","","","MONTICELLO","MS","39654","","","","77713133842"
"CENTER FIRE DEPARTMENT","278 EAST LINCOLN ROAD","","","MONTICELLO","MS","39654","","","","77713133843"
"TOPEKA-TILTON SCHOOL","853 HWY 27","","","MONTICELLO","MS","39654","","","","77713133844"
"JAYESS MASONIC LODGE","27 NORTH RAILROAD AVENUE","","","JAYESS ","MS","39641","","","","77713133845"
"1 AMORY FIRST","EAST AMORY COMMUNITY CENTER
1200 CRUMP BLVD","","","AMORY","MS","38821","","","","77713133879"
"2 PARHAM","PARHAM  COMMUNITY  CENTER
60416 HATLEY DETROIT RD","","","AMORY","MS","38821","","","","77713133881"
"1 SMITHVILLE","SMITHVILLE  COMMUNITY  CENTER
60001 FRANKLIN ST","","","SMITHVILLE","MS","38870","","","","77713133882"
"1 BIGBEE","BIGBEE   COMMUNITY   CENTER
30470 BIGBEE RD","","","AMORY","MS","38821","","","","77713133886"
"1 BOYDS","CASON   COMMUNITY   CENTER
30339 OLD HWY 6","","","NETTLETON","MS","38858","","","","77713133887"
"1 HATLEY","HATLEY   COMMUNITY   CENTER
60030 MORGAN ST","","","AMORY","MS","38821","","","","77713133892"
"2 AMORY SECOND","OLD  NATIONAL GUARD   ARMORY
101 9TH ST S","","","AMORY","MS","38821","","","","77713133916"
"2 BECKER","BECKER    COMMUNITY    CENTER
HWY 25 S","","","AMORY","MS","38821","","","","77713133919"
"3 GREENWOOD SPRINGS","GREENWOOD SPRINGS COMM CTR
50588 GRWD SPRINGS RD
","","","GRWD SPRINGS","MS","38848","","","","77713133920"
"2 WILLIAMS","SPLUNGE  COMMUNITY  CENTER
60721 SPLUNGE RD","","","GRWD SPRGS","MS","38848","","","","77713133923"
"3 LACKEY","LACKEY   COMMUNITY   CENTER
40170 LACKEY RD","","","HAMILTON","MS","39746","","","","77713133954"
"3 ABERDEEN THIRD","ABERDEEN PARK & REC
611 COMMERCE ST W","","","ABERDEEN","MS","39730","","","","77713133957"
"3 ABERDEEN THIRD","ABERDEEN PARK & REC BUILDING
611 COMMERCE ST W","","","ABERDEEN","MS","39730","","","","77713133957"
"3 ATHENS","ATHENS VOLUNTEER FIRE DEPT
50205 ATHENS QUINCY RD","","","ABERDEEN","MS","39730","","","","77713133958"
"3 BARTAHATCHIE","BARTAHATCHIE COMMUNITY CTR
40457 WOLFE RD","","","CALEDONIA","MS","39740","","","","77713133960"
"3 HAMILTON","HAMILTON COMMUNITY CENTER
40463 OLD HWY 45 S","","","HAMILTON","MS","39746","","","","77713133963"
"4 NORTH ABERDEEN","AMERICAN    LEGION    BUILDING
HWY 45 NORTH
","","","ABERDEEN","MS","39730","","","","77713133996"
"4 SOUTH ABERDEEN","HIGH STREET COMMUNITY CENTER
611 HIGH ST","","","ABERDEEN","MS","39730","","","","77713133999"
"4 DARRACOTT","DARRACOTT COMMUNITY CENTER
10446 DARRACOTT RD","","","ABERDEEN","MS","39730","","","","77713134000"
"4 GIBSON","NEW HEBRON COMMUNITY CENTER
20154 EGYPT RD","","","ABERDEEN","MS","39730","","","","77713134001"
"4 PRAIRIE","PRAIRIE      HEALTH      CENTER
10203 HWY 382","","","PRAIRIE","MS","39756","","","","77713134003"
"5 AMORY FIFTH","WEST  AMORY  COMMUNITY  CENTER 
 111TH ST","","","AMORY","MS","38821","","","","77713134055"
"5 WILLIS","WREN   FIRE   DEPARTMENT   #2
20484 MCALLISTER RD","","","OKOLONA","MS","38860","","","","77713134058"
"5 WREN","WREN     COMMUNITY    CENTER
32653 HWY 45 N","","","ABERDEEN","MS","39730","","","","77713134063"
"5 CENTRAL GROVE","CENTRAL  GROVE  COMM CENTER
30099 UNION GROVE","","","NETTLETON","MS","38858","","","","77713134065"
"5 NETTLETON","OLD   NATIONAL   GUARD   ARMORY
110 HILL ST ","","","NETTLETON","MS","38858","","","","77713134071"
"CONEHATTA COMMUNITY HOUSE","8507 HWY 489","","","CONEHATTA","MS","39057","","","","77713134204"
"COURTHOUSE","92 WEST BROAD ST","","","DECATUR","MS","39327","","","","77713134205"
"MULTI-PURPOSE BLDG.","14712 HWY 15 SOUTH","","","DECATUR","MS","39327","","","","77713134206"
"MULTI-PURPOSE BLDG.","14712 HWY 15 SOUTH","","","DECATUR","MS","39327","","","","77713134207"
"DUFFEE FIRE STATION","12763 CHUNKY-DUFFEE RD","","","LITTLE ROCK","MS","39337","","","","77713134209"
"GIBBSTOWN FIRE DEPT.","5776 LAWRENCE HAZEL RD","","","LAWRENCE","MS","39336","","","","77713134210"
"HICKORY SCHOOL","376 W COLLEGE ST","","","HICKORY","MS","39332","","","","77713134212"
"COUNTY BARN","1178 LAWRENCE HAZEL RD","","","LAWRENCE","MS","39336","","","","77713134214"
"LIBERTY COMMUNITY HOUSE","1336 LIBERTY CHURCH RD","","","NEWTON","MS","39345","","","","77713134216"
"MASONIC LODGE","322 LITTLE ROCK CO. LINE RD","","","LITTLE ROCK","MS","39337","","","","77713134219"
"PILATE SCHOOL","521 E CHURCH STREET","","","NEWTON","MS","39345","","","","77713134222"
"NEWTON HIGH SCHOOL BAND HALL","205 SCHOOL STREET","","","NEWTON","MS","39345","","","","77713134225"
"PROSPECT BAPTIST CHURCH","7619 CONEHATTA PROSPECT RD","","","CONEHATTA","MS","39057","","","","77713134226"
"SCANLAN COMMUNITY HOUSE","77 SCANLAN RD","","","DECATUR","MS","39327","","","","77713134228"
"LIBRARY","101 PEACHTREET STREET","","","UNION","MS","39365","","","","77713134232"
"UNION CITY HALL","404 BANK STREET","","","UNION","MS","39365","","","","77713134234"
"DECATUR #1 (M)","92 WEST BROAD STREET","","","DECATUR","MS","39327","","","","77713134251"
"LAWRENCE (M)","1178 LAWRENCE HAZEL RD","","","LAWRENCE","MS","39336","","","","77713134255"
"CHUNKY CITY HALL","24 N COMMERCE STREET","","","CHUNKY","MS","39323","","","","77713134269"
"MACEDONIA COMMUNITY CENTER","1022 CR 26","","","MYRTLE","MS","38650","","","","77713134275"
"BLYTHE","1244 CR 10","","","HICKORY FLAT","MS","38633","","","","77713134276"
"MYRTLE SCHOOL","1008 HAWK AVENUE","","","MYRTLE","MS","38650","","","","77713134277"
"PINEDALE FIRE STATION","1239 ST HIGHWA 355","","","ETTA","MS","38627","","","","77713134281"
"WEST UNION SCHOOL","1610 ST HIGHWAY 30 WEST","","","MYRTLE","MS","38650","","","","77713134282"
"NEW ALBANY SPORTSPLEX","1165 BRATTON ROAD","","","NEW ALBANY","MS","38652","","","","77713134284"
"INGOMAR SCHOOL","1384 CR 101","","","NEW ALBANY","MS","38652","","","","77713134286"
"KING'S CHAPEL INGOMAR FIRE STATION","1521 LOT 1 CR 101","","","NEW ALBANY","MS","38652","","","","77713134289"
"COURTHOUSE","114 EAST BANKHEAD STREET","","","NEW ALBANY","MS","38652","","","","77713134290"
"BEACON HILL FIRE STATION","1025 CR 278","","","NEW ALBANY","MS","38652","","","","77713134294"
"BLUE SPRINGS LIBRARY","1182 ST HIGHWAY 9 SOUTH","","","BLUE SPRINGS","MS","38828","","","","77713134296"
"CENTER BAPTIST CHURCH","1710 CR 121","","","BLUE SPRINGS","MS","38828","","","","77713134298"
"KEOWNVILLE","1471 ST HIGHWAY 30 EAST","","","NEW ALBANY","MS","38652","","","","77713134307"
"PLEASANT RIDGE","2075 CR 180","","","NEW ALBANY","MS","38652","","","","77713134308"
"JERICHO BAPTIST CHURCH","2179 CR 171","","","BALDWYN","MS","38824","","","","77713134310"
"VOLUNTEER FIRE DEPT STATION #2B","17400 HWY 57","","","VANCLEAVE","MS","39565","","","","77713134443"
"VANCLEAVE METHODIST CHURCH","13620 HWY 57","","","VANCLEAVE","MS","39565","","","","77713134444"
"EAST CENTRAL COMMUNITY CENTER","4300 HWY 614
","","","MOSS POINT","MS","39562","","","","77713134447"
"BIG POINT FIRE STATION","7701 COMMUNITY HOUSE RD","","","MOSS POINT","MS","39562","","","","77713134450"
"HELENA COMMUNITY HOUSE","10500 SARACENNIA RD","","","MOSS POINT","MS","39562","","","","77713134451"
"ESCATAWPA COMMUNITY CENTER","4107 JAMESTOWN RD","","","MOSS POINT","MS","39563","","","","77713134452"
"ORANGE GROVE COMMUNITY CENTER","9313 OLD STAGE RD","","","MOSS POINT","MS","39562","","","","77713134455"
"CRAFTSMAN'S UNION HALL","5913 GRIERSON ST","","","MOSS POINT","MS","39563","","","","77713134457"
"SUE ELLEN REC CENTER","4131 SUE ELLEN ST","","","MOSS POINT","MS","39563","","","","77713134458"
"REC CTR, BY CITY HALL,MOSS POINT","4400 DENNY ST","","","MOSS POINT","MS","39563","","","","77713134459"
"YOUNG MEN'S BUS. CLUB, DANTZLER","3406 DANTZLER ST","","","MOSS POINT","MS","39563","","","","77713134461"
"YOUNG WOMEN'S BUS. CLUB,BELLVIEW","3031 BELLVIEW ST","","","MOSS POINT","MS","39563","","","","77713134462"
"EASTSIDE COMMUNITY CENTER","3512 AZALEA ST","","","MOSS POINT","MS","39563","","","","77713134463"
"JUSTICE COURT BLDG ON JEFF. ST.","5343 JEFFERSON AV","","","MOSS POINT","MS","39563","","","","77713134464"
"FAIR HALL","2902 SHORTCUT RD","","","PASCAGOULA","MS","39567","","","","77713134465"
"SALVATION ARMY BUILDING","3808 ARLINGTON ST","","","PASCAGOULA","MS","39581","","","","77713134468"
"FAITH UNITED METHODIST CHURCH","4005 CHICOT ST","","","PASCAGOULA","MS","39581","","","","77713134470"
"GIRL SCOUTS BLDG ON MARTIN RD","2804 MARTIN ST","","","PASCAGOULA","MS","39581","","","","77713134472"
"LIGHTHOUSE BAPTIST CHURCH","3003 BELAIR ST","","","PASCAGOULA","MS","39567","","","","77713134474"
"VICTORY PRAISE & WORSHIP CHURCH","2305 CHICOT ST","","","PASCAGOULA","MS","39581","","","","77713134476"
"RESURRECTION ELEMENTARY SCHOOL","3704 QUINN DR","","","PASCAGOULA","MS","39581","","","","77713134477"
"EASTLAWN BAPTIST CHURCH","1704 BELAIR ST","","","PASCAGOULA","MS","39567","","","","77713134478"
"AMERICAN LEGION ON MARKET ST","1019 MARKET ST","","","PASCAGOULA","MS","39567","","","","77713134479"
"FIRST PRESBYTERIAN CHURCH","1819 PASCAGOULA ST","","","PASCAGOULA","MS","39567","","","","77713134480"
"OASIS CHURCH GULF COAST","4007 PASCAGOULA ST","","","PASCAGOULA","MS","39567","","","","77713134482"
"CONVENTION CTR,COMMUNITY COLLEGE","2012 LIBRARY LN","","","GAUTIER","MS","39553","","","","77713134483"
"VILLA MARIA RETIREMENT APTS","921 PORTER ST","","","OCEAN SPRINGS","MS","39564","","","","77713134488"
"OCEAN SPRINGS COMMUNITY CENTER","512 WASHINGTON AV","","","OCEAN SPRINGS","MS","39564","","","","77713134489"
"OCEAN SPRINGS ARMORY","712 PINE DR","","","OCEAN SPRINGS","MS","39564","","","","77713134490"
"WEST JACKSON CO SERVICE COMPLEX","6904 WASHINGTON AV","","","OCEAN SPRINGS","MS","39564","","","","77713134491"
"ST MARTIN COMMUNITY CENTER","15008 LEMOYNE BLVD","","","BILOXI","MS","39532","","","","77713134493"
"LATIMER COMMUNITY HOUSE","10908 TUCKER RD","","","VANCLEAVE","MS","39565","","","","77713134494"
"LARUE COMMUNITY CENTER","19400 LARUE RD","","","VANCLEAVE","MS","39565","","","","77713134495"
"MARTIN BLUFF BAPTIST CHURCH","7417 MARTIN BLUFF RD","","","GAUTIER","MS","39553","","","","77713134496"
"FONTAINEBLEAU COMMUNITY HOUSE","3825 HWY 57","","","OCEAN SPRINGS","MS","39564","","","","77713134498"
"WESLEY UNITED METHODIST CHURCH","8900 OLD SPANISH TRAIL","","","OCEAN SPRINGS","MS","39564","","","","77713134499"
"OCEAN SPRINGS CIVIC CENTER","3730 BIENVILLE BLVD","","","OCEAN SPRINGS","MS","39564","","","","77713134500"
"VANCLEAVE COMMUNITY CENTER","5125 BALLPARK RD","","","VANCLEAVE","MS","39565","","","","77713134502"
"RED HILL METHODIST CHURCH","20800 OLD RIVER RD","","","VANCLEAVE","MS","39565","","","","77713134504"
"DAISY VESTRY COMMUNITY CENTER","25900 SCHOOLHOUSE RD","","","VANCLEAVE","MS","39565","","","","77713134506"
"NORTH LAUREL","3217 AUDUBON DRIVE","","","LAUREL","MS","39440","","","","77713134511"
"SHADY GROVE","HIGHWAY 15 NORTH","","","LAUREL","MS","39443","","","","77713134513"
"SHARON","924 SHARON-MOSS ROAD","","","LAUREL","MS","39443","","","","77713134514"
"BIG CREEK","6518 HIGHWAY 84 WEST","","","SOSO","MS","39480","","","","77713134515"
"CALHOUN","5195 HIGHWAY 84 WEST","","","LAUREL","MS","39443","","","","77713134516"
"CENTERVILLE","DUSTY ROAD ","","","SOSO","MS","39480","","","","77713134517"
"PARKVIEW BAPTIST CHURCH","930 NORTH 10TH AVENUE","","","LAUREL","MS","39440","","","","77713134518"
"GITANO","SPILLWAY ROAD","","","TAYLORSVILLE","MS","39168","","","","77713134519"
"HEBRON","HIGHWAY 84 WEST","","","TAYLORSVILLE","MS","39168","","","","77713134520"
"MATTHEWS","MATTHEWS ROAD","","","LAUREL","MS","39443","","","","77713134521"
"PLEASANT RIDGE","HOLLY ROAD","","","LAUREL","MS","39443","","","","77713134522"
"SOSO","HIGHWAY 28 WEST","","","SOSO","MS","39480","","","","77713134524"
"SPRINGHILL /MAULDIN COMMUNITY CENTER","SPRINGHILL ROAD","","","LAUREL","MS","39443","","","","77713134525"
"KINGSTON CHURCH","1419 2ND AVENUE","","","LAUREL","MS","39440","","","","77713134526"
"ERATA","ERATA ROAD","","","LAUREL","MS","39443","","","","77713134527"
"GLADE","DOGLEG ROAD","","","LAUREL","MS","39443","","","","77713134528"
"MYRICK COMMUNITY CENTER","LOWER MYRICK ROAD","","","LAUREL","MS","39443","","","","77713134529"
"POWERS COMMUNITY CENTER","HOWSE ROAD ","","","LAUREL","MS","39443","","","","77713134530"
"OVETT","UPPER OVETT ROAD","","","OVETT","MS","39464","","","","77713134531"
"RUSTIN","POOLE CREEK ROAD","","","LAUREL","MS","39443","","","","77713134532"
"SANDERSVILLE CIVIC CENTER","HAWKE'S ROAD","","","SANDERSVILLE","MS","39477","","","","77713134533"
"TUCKERS","ORANGE DRIVE","","","LAUREL","MS","39443","","","","77713134534"
"ANTIOCH","ANTIOCH ROAD","","","LAUREL","MS","39443","","","","77713134535"
"BLACKWELL","OAK BOWERY ROAD","","","ELLISVILLE","MS","39437","","","","77713134536"
"GEORGE HARRISON BUILDING","206 CHURCH ST.","","","ELLISVILLE","MS","39437","","","","77713134537"
"JOHNSON","LYON RANCH ROAD","","","ELLISVILLE","MS","39437","","","","77713134538"
"ELLISVILLE COURTHOUSE","101 N COURT STREET","","","ELLISVILLE","MS","39437","","","","77713134539"
"LANDRUM","HIGHWAY 15 SOUTH","","","OVETT","MS","39464","","","","77713134540"
"MOSELLE","MOSELLE ROAD","","","MOSELLE","MS","39459","","","","77713134541"
"PINE GROVE","HIGHWAY 590","","","ELLISVILLE","MS","39437","","","","77713134542"
"RAINEY","RAINEY ROAD","","","MOSELLE","MS","39459","","","","77713134543"
"SAND HILL","SAND HILL CHURCH ROAD","","","ELLISVILLE","MS","39437","","","","77713134544"
"SHELTON","MONROE ROAD","","","MOSELLE","MS","39459","","","","77713134545"
"UNION","2869 AUGUSTA ROAD","","","ELLISVILLE","MS","39437","","","","77713134546"
"FIRST ASSEMBLY OF GOD","HIGHWAY 11 NORTH","","","ELLISVILLE","MS","39437","","","","77713134547"
"COOK'S AVE. COMM. CENTER","COOKS AVENE","","","LAUREL","MS","39440","","","","77713134548"
"MAGNOLIA CENTER","ELLISVILLE BOULEVARD","","","LAUREL","MS","39440","","","","77713134549"
"L T ELLIS CENTER","VICTORIA AVENUE","","","LAUREL","MS","39440","","","","77713134550"
"ROOSEVELT","ROOSEVELT STREET","","","ELLISVILLE","MS","39437","","","","77713134551"
"OAK PARK SCHOOL","TAYLOR STREET","","","LAUREL","MS","39440","","","","77713134552"
"PENDORFF","HIGHWAY 11 SOUTH","","","LAUREL","MS","39443","","","","77713134553"
"CURRIE","CURRIE ROAD","","","ELLISVILLE","MS","39437","","","","77713134556"
"LAKESHORE","LAKESHORE COMMUNITY CENTER
6440 LOWER BAY ROAD","","","BAY ST LOUIS","MS","39520","","","","77713134559"
"ARLINGTON","COMMUNITY CENTER - 
1119 DICKS STREET","","","WAVELAND","MS","39576","","","","77713134561"
"WAVELAND EAST","WAVELAND FIRE DEPT
307 COLEMAN AVE","","","WAVELAND","MS","39576","","","","77713134562"
"LEE TOWN","BALLFIELD STORM SHELTER - 
LEE TOWN ROAD","","","PICAYUNE","MS","39466","","","","77713134563"
"FLAT TOP","COMMUNITY CENTER - 
23472 INDIAN RIDGE RD","","","PICAYUNE","MS","39466","","","","77713134564"
"CATAHOULA","COMMUNITY CENTER - 
10028 BROWNS RD","","","PICAYUNE","MS","39466","","","","77713134565"
"PEARLINGTON","PEARLINGTON RECOVERY CENTER - 
5265 HIGHWAY 604","","","PEARLINGTON","MS","39572","","","","77713134566"
"BAYOU PHILLIP","COMMUNITY CENTER - 
9155 HARBOR DRIVE","","","BAY ST LOUIS","MS","39520","","","","77713134567"
"WAVELAND WEST","WAVELAND FIRE DEPT
427 HIGHWAY 90","","","WAVELAND","MS","39576","","","","77713134568"
"CRANE CREEK","COMMUNITY CENTER - 
30350 HIGHWAY 603","","","PERKINSTON","MS","39573","","","","77713134569"
"DEDEAUX","OLD DEDEAUX SCHOOL - 
14595 VIDALIA RD","","","PASS CHRISTIAN","MS","39571","","","","77713134570"
"NORTH BAY WEST","AMERICAN LEGION POST 139
645 GREEN MEADOW ROAD","","","BAY ST LOUIS","MS","39520","","","","77713134571"
"DIAMONDHEAD EAST","DIAMONDHEAD COMMUNITY CENTER - 
5300 DIAMONDHEAD CIRCLE","","","DIAMONDHEAD","MS","39525","","","","77713134572"
"COURTHOUSE","COURTHOUSE - 
152 MAIN STREET","","","BAY ST LOUIS","MS","39520","","","","77713134573"
"KILN WEST","STORM SHELTER BEHIND COMMUNITY CTR - 
18692 HIGHWAY 43","","","KILN","MS","39556","","","","77713134574"
"WEST SHORELINE PARK","COMMUNITY CENTER - 
10071 KILN WAVELAND CUTOFF RD","","","WAVELAND","MS","39576","","","","77713134575"
"CITY HALL","CITY HALL - 
302 S 2ND STREET","","","BAY ST LOUIS","MS","39520","","","","77713134576"
"SOUTH BAY","CHRIST EPISCOPAL SCHOOL - 
912 S BEACH BLVD.","","","BAY ST LOUIS","MS","39520","","","","77713134577"
"NORTH BAY EAST","LIBRARY - 
312 HIGHWAY 90","","","BAY ST LOUIS","MS","39520","","","","77713134578"
"STANDARD","FIRE STATION - 
25150 HIGHWAY 603","","","KILN","MS","39556","","","","77713134579"
"EDWARDSVILLE","BSL FIRE STATION #2 - 
9998 HIGHWAY 603","","","BAY ST LOUIS","MS","39520","","","","77713134580"
"FENTON","COMMUNITY CENTER - 
2369 KILN DELISLE ROAD","","","KILN","MS","39556","","","","77713134581"
"KILN EAST","ANNUNCIATION SCHOOL - 
5380 KILN DELISLE ROAD","","","KILN","MS","39556","","","","77713134582"
"DIAMONDHEAD WEST","DIAMONDHEAD CITY HALL- 
5000 DIAMONDHEAD CIRCLE","","","DIAMONDHEAD ","MS","39525","","","","77713134583"
"MIDWAY","458 STALLINGS BRIDGE ROAD","","","TYLERTOWN","MS","39667","","","","77713134591"
"LEXIE","313 HIGHWAY 27 SOUTH","","","TYLERTOWN","MS","39667","","","","77713134592"
"SOUTH KIRKLIN","707 KIRKLIN ROAD","","","TYLERTOWN","MS","39667","","","","77713134593"
"NORTH KIRKLIN","418 KIRKLIN ROAD","","","TYLERTOWN","MS","39667","","","","77713134594"
"EAST TYLERTOWN","608 BROAD STREET","","","TYLERTOWN","MS","39667","","","","77713134596"
"WEST TYLERTOWN","250 BALL AVENUE","","","TYLERTOWN","MS","39667","","","","77713134597"
"MESA","12 MESA WALKER BRIDGE ROAD","","","TYLERTOWN","MS","39667","","","","77713134598"
"SOUTH KNOXO","394 CARTO ROAD","","","TYLERTOWN","MS","39667","","","","77713134599"
"NORTH KNOXO","08 BRANDON BAY ROAD","","","TYLERTOWN","MS","39667","","","","77713134600"
"DEXTER","929 HIGHWAY 48 EAST","","","TYLERTOWN","MS","39667","","","","77713134602"
"IMPROVE","1600 HIGHWAY 48 EAST","","","SANDY HOOK","MS","39478","","","","77713134603"
"3RD DISTRICT TYLERTOWN","700 UNION ROAD","","","TYLERTOWN","MS","39667","","","","77713134604"
"4TH DISTRICT TYLERTOWN","815 MORRIS AVENUE","","","TYLERTOWN","MS","39667","","","","77713134607"
"VARNEL","881 HIGHWAY 27 NORTH","","","TYLERTOWN","MS","39667","","","","77713134608"
"SARTINVILLE","1614 HIGHWAY 27 NORTH","","","TYLERTOWN","MS","39667","","","","77713134610"
"DARBUN","411 DARBUN ROAD","","","TYLERTOWN","MS","39667","","","","77713134614"
"4TH DISTRICT WEST TYLERTOWN","84 NEW BETHEL ROAD","","","TYLERTOWN","MS","39667","","","","77713134615"
"DINAN","840 HIGHWAY 583 NORTH","","","TYLERTOWN","MS","39667","","","","77713134616"
"ENON","1440 HIGHWAY 583 NORTH","","","TYLERTOWN","MS","39667","","","","77713134617"
"SAINT PAUL","225 SAINT PAUL ROAD","","","TYLERTOWN","MS","39667","","","","77713134618"
"HOPE","376 NEW HOME CHURCH ROAD","","","TYLERTOWN","MS","39667","","","","77713134620"
"PEARSON BAPTIST CHURCH","151 S PEARSON RD.","","","PEARL","MS","39208","","","","77713134843"
"PEARSON BAPTIST CHURCH","151 S. PEARSON RD.","","","PEARL","MS","39208","","","","77713134843"
"CLEAR BRANCH VOLUNTEER FIRE DEPT.","2899 W MT. CREEK RD","","","FLORENCE","MS","39073","","","","77713134844"
"CLEARY FIRE DEPARTMENT","125 MELROSE CIRCLE","","","FLORENCE","MS","39073","","","","77713134845"
"TRINITY BAPTIST CHURCH","128 HWY. 469 NORTH","","","FLORENCE","MS","39073","","","","77713134846"
"MT CREEK BAPTIST CHURCH","1207 HWY. 469 SOUTH","","","FLORENCE","MS","39073","","","","77713134847"
"RICHLAND COMMUNITY CENTER","410 E. HARPER ST.","","","RICHLAND","MS","39218","","","","77713134848"
"RICHLAND COMMUNITY CENTER","410 E. HARPER ST.","","","RICHLAND","MS","39218","","","","77713134849"
"STAR VOLUNTEER FIRE DEPT","169 MAIN ST.","","","STAR","MS","39167","","","","77713134850"
"FIRE STATION","112 DEWEESE ST.","","","FLORENCE","MS","39073","","","","77713134851"
"ST MARK'S METHODIST CHURCH","400 GRANTS FERRY RD.","","","BRANDON","MS","39047","","","","77713134852"
"FANNIN UNITED METHODIST CH.","2851 HWY. 471","","","BRANDON","MS","39047","","","","77713134853"
"FLOWOOD LIBRARY","103 WINNERS CIRCLE","","","FLOWOOD","MS","39232","","","","77713134854"
"FLOWOOD LIBRARY","103M WINNERS CIRCLE","","","FLOWOOD","MS","39232","","","","77713134854"
"CASTLEWOODS TENNIS CLUBHOUSE","399 CASTLEWOODS BLVD","","","BRANDON","MS","39047","","","","77713134855"
"VINEYARD CHURCH","5416 LAKELAND DR.","","","FLOWOOD","MS","39232","","","","77713134856"
"COMMUNITY CENTER/FIRE STATION","2232 SPILLWAY RD.","","","BRANDON","MS","39047","","","","77713134857"
"RIVER OF LIFE ASSEMBLY OF GOD","101 PARKWAY RD","","","BRANDON","MS","39047","","","","77713134858"
"THE CHURCH AT NORTHSHORE","498 NORTHSHORE PARKWAY","","","BRANDON","MS","39047","","","","77713134859"
"COMMUNITY CENTER","2356 HWY. 43 SOUTH","","","PELAHATCHIE","MS","39145","","","","77713134860"
"UNION BAPTIST CHURCH","1541 HWY. 13 NORTH","","","BRANDON","MS","39042","","","","77713134861"
"CHRIST CONGREGATIONAL CHURCH","5416 HWY. 18","","","BRANDON","MS","39042","","","","77713134862"
"FIRST BAPTIST CHURCH (FAMILY LIFE)","309 S. COLLEGE ST.","","","BRANDON","MS","39042","","","","77713134863"
"CATO FIRE STATION","2266 WADE PATRICK RD","","","BRAXTON","MS","39044","","","","77713134864"
"MCLAURIN SCHOOL","130 TIGER DR","","","STAR","MS","39167","","","","77713134865"
"BRIARHILL BAPTIST CHURCH","707 HWY. 469 N","","","FLORENCE","MS","39073","","","","77713134866"
"PUCKETT CITY HALL","6449 HWY. 18","","","BRANDON","MS","39042","","","","77713134868"
"NATIONAL GUARD ARMORY","300 HWY. 468","","","BRANDON","MS","39042","","","","77713134869"
"ROBINHOOD BAPTIST CHURCH","1451 OLD LAKE RD","","","BRANDON","MS","39042","","","","77713134870"
"RANKIN CO. BAPTIST ASSN. BLDG.","200 PARK PLACE DR","","","PEARL","MS","39208","","","","77713134871"
"SANDHILL LIBRARY","727 SANDHILL RD","","","SANDHILL","MS","39161","","","","77713134872"
"OAKDALE BAPTIST CHURCH","1872 HWY. 471","","","BRANDON","MS","39042","","","","77713134873"
"SHILOH RECREATION HALL","2394 SHILOH RD","","","PELAHATCHIE","MS","39145","","","","77713134874"
"CROSSROADS BAPTIST CHURCH","104 CROSSROADS RD","","","PELAHATCHIE","MS","39145","","","","77713134875"
"LEESBURG VOLUNTEER FIRE DEPT","435 HWY. 481","","","PELAHATCHIE","MS","39145","","","","77713134876"
"NEW VISION FELLOWSHIP","652 LUCKNEY RD","","","BRANDON","MS","39047","","","","77713134877"
"CROSSGATES BAPTIST CHURCH","8 CROSSWOODS RD","","","BRANDON","MS","39042","","","","77713134878"
"PELAHATCHIE TOWN CENTER","612 SECOND STREET","","","PELAHATCHIE","MS","39145","","","","77713134879"
"CROSSGATES FIRE DEPARTMENT","16 WOODGATE DR","","","BRANDON","MS","39042","","","","77713134880"
"CROSSGATES UNITED METHODIST CHURCH","23 CROSSGATES DR","","","BRANDON","MS","39042","","","","77713134881"
"PILGRIM REST MISSIONARY BAPTIST CHURCH","925 TRICKHAMBRIDGE RD","","","BRANDON","MS","39042","","","","77713134882"
"HIGH'S WOOD HEATERS","105 BLUEBIRD LANE","","","BRANDON","MS","39042","","","","77713134883"
"PLEASANT GROVE BAPTIST CHURCH","5512 OLD BRANDON RD","","","BRANDON","MS","39042","","","","77713134884"
"LIBERTY BAPTIST CHURCH","1211 LUCKNEY RD","","","BRANDON","MS","39042","","","","77713134885"
"FIRST FREE WILL BAPTIST CHURCH","2412 UPPER DR","","","PEARL","MS","39208","","","","77713134886"
"FLOWOOD CITY HALL","2101 AIRPORT RD","","","FLOWOOD","MS","39232","","","","77713134887"
"PAUL TRUITT BAPTIST CHURCH","3705 OLD BRANDON RD","","","PEARL","MS","39208","","","","77713134888"
"PEARL METHODIST CHURCH","226 S PEARSON ROAD","","","PEARL","MS","39208","","","","77713134889"
"PEARL CHAMBER OF COMMERCE","110 GEORGE WALLACE DR","","","PEARL","MS","39208","","","","77713134890"
"MCLAURIN HEIGHTS METHODIST CHURCH","325 MARY ANN DR","","","PEARL","MS","39208","","","","77713134891"
"RANKIN CTY BAPTIST ASSN. BLDG.","200 PARK PLACE DR","","","PEARL","MS","39208","","","","77713134892"
"SWEET REST CHURCH OF CHRIST","215 OLD WHITFIELD RD","","","PEARL","MS","39208","","","","77713134893"
"PEARL CITY HALL","2420 OLD BRANDON RD","","","PEARL","MS","39208","","","","77713134894"
"ECONO TAX","2731 OLD BRANDON RD","","","PEARL","MS","39208","","","","77713134895"
"INDIAN SPRINGS","137 WALTER MYERS RD","","","PETAL","MS","39465","","","","77713134896"
"NEW AUGUSTA COMMUNITY CENTER","298 WILLOW ST EAST","","","NEW AUGUSTA","MS","39462","","","","77713134897"
"BEAUMONT DISTRICT 1","1235 HWY 198","","","BEAUMONT","MS","39423","","","","77713134898"
"RUNNELSTOWN","9204 HWY 42","","","PETAL","MS","39465","","","","77713134902"
"PROSPECT COMMUNITY CENTER","204 PROSPECT RD","","","RICHTON","MS","39476","","","","77713134903"
"PROSPECT COMMUNITY CENTER","204 PROSPECT ROAD","","","RICHTON","MS","39476","","","","77713134903"
"RICHTON HOLLY ST","302 HOLLY ST NORTH","","","RICHTON","MS","39476","","","","77713134904"
"RICHTON CITY HALL","208 FRONT STREET SOUTH","","","RICHTON","MS","39476","","","","77713134905"
"RICHTON MULTI PURPOSE","1194 HWY 15","","","RICHTON","MS","39476","","","","77713134906"
"HINTONVILLE","66 HINTONVILLE RD","","","BEAUMONT","MS","39423","","","","77713134907"
"HINTONVILLE","66 HINTONVILLE RD","","","BEAUMONT","MS","39462","","","","77713134907"
"ARLINGTON","285 ARLINGTON RD","","","BEAUMONT","MS","39423","","","","77713134908"
"COURTHOUSE ANNEX","103 SECOND STREET W","","","NEW AUGUSTA","MS","39462","","","","77713134909"
"BEAUMONT SR CITIZENS","1502 BOLTON AVE","","","BEAUMONT","MS","39423","","","","77713134910"
"THOMSPON HILL","29 LITTLE CREEK RD","","","BEAUMONT","MS","39423","","","","77713134911"
"JANICE","32 JANICE SCHOOL RD","","","BROOKLYN","MS","39425","","","","77713134912"
"JANICE","32 JANICE SCHOOL RD","","","BROOKLYN ","MS","39425","","","","77713134912"
"DEEP CREEK","485 MARS HILL RD","","","WIGGINS","MS","39577","","","","77713134913"
"COMMUNITY HOUSE","142 N DUNN ST","","","EUPORA","MS","39744","","","","77713134931"
"BLUFF SPRINGS CHURCH","684 BLUFF SPRINGS CHURCH RD","","","EUPORA","MS","39744","","","","77713134932"
"DEPT. OF HUMAN SERV.","51 GOVERNMENT ST","","","EUPORA","MS","39744","","","","77713134933"
"MASONIC LODGE #174","13480 MS HWY 404","","","BELLEFONTAINE","MS","39737","","","","77713134934"
"CADARETTA WATER ASSOC. BLDG.","3814 CADARETTA RD","","","GORE SPRINGS","MS","38929","","","","77713134935"
"GOLDEN LIVING CENTER","156 E WALNUT AVE","","","EUPORA","MS","39744","","","","77713134936"
"NEW EBENEZER CHURCH","3036 GRADY RD","","","EUPORA","MS","39744","","","","77713134937"
"TOMNOLEN BAPTIST CHURCH","147 GREENSBORO RD","","","EUPORA","MS","39744","","","","77713134938"
"BOATMANS GARAGE","1622 STEWART-LODI RD","","","STEWART ","MS","39767","","","","77713134939"
"MATHISTON PUBLIC LIBRARY","298 SCOTT AVE","","","MATHISTON","MS","39752","","","","77713134940"
"MABEN AG. BUILDING","73 HOLLAND ST","","","MABEN","MS","39750","","","","77713134941"
"BEAT 4 COUNTY BARN","11275 CLARKSON RD","","","MATHISTON","MS","39752","","","","77713134942"
"FAME CHURCH","1033 FAME CHURCH RD","","","EUPORA","MS","39744","","","","77713134943"
"CLARKSON FIRE DEPT.","27 FIRE HOUSE RD","","","MATHISTON","MS","39752","","","","77713134944"
"CUMBERLAND BAPTIST CHURCH","216 OLD CUMBERLAND RD","","","MABEN","MS","39750","","","","77713134945"
"MANTEE CITY HALL","1275 MAIN ST","","","MANTEE","MS","39751","","","","77713134946"
"WALTHALL FIRE DEPT.","515 CARROLL ST","","","WALTHALL","MS","39771","","","","77713134947"
"MIDWAY VOL FIRE STATION","5891 HWY. 433 NORTH","","","BENTON","MS","39039","","","","77713134950"
"MIDWAY CO ROAD BARN","5891 HWY. 433 NORTH","","","BENTON","MS","39039","","","","77713134951"
"VICTORY BAPTIST CHURCH","420 HOY RD","","","MADISON","MS","39110","","","","7771313500000005"
"THE MARK APTS. CLUBHOUSE","THE MARK APARTMENTS CLUBHOUSE
711 LAKE HARBOR","","","RIDGELAND","MS","39157","","","","7771313500000006"
"TRACE RIDGE BAPTIST CHURCH","238 LAKE HARBOR DR","","","RIDGELAND","MS","39157","","","","7771313500000010"
"RIDGELAND FIRST METHODIST CHURCH","234 W JACKSON ST","","","RIDGELAND","MS","39157","","","","7771313500000013"
"HIGHLAND COLONY BAPTIST CHURCH","1200 HIGHLAND COLONY PARKWAY","","","MADISON","MS","39110","","","","7771313500000017"
"FRANKLIN BAPTIST CHURCH","FRANKLIN BAPTIST CHURCH
2222 COX FERRY RD","","","FLORA","MS","39071","","","","7771313500000025"
"KEARNEY PARK FIRE STATION","KEARNEY PARK FIRE STATION
443 LIVINGSTON VERNON RD","","","FLORA","MS","39071","","","","7771313500000026"
"MT. HOPE CHURCH","MT HOPE CHURCH
184 MARION RD","","","CANTON","MS","39046","","","","7771313500000027"
"ANDERSON LODGE","389 RICKS DR","","","CANTON","MS","39046","","","","7771313500000028"
"BETHEL M.B. CHURCH","BETHEL M.B. CHURCH
951 OLD HIGHWAY 51","","","PICKENS","MS","39146","","","","7771313500000033"
"COUPARLE UNITED METHODIST CHURCH","COUPARLE UNITED METHODIST CHURCH
1901 ROCKY HILL RD","","","CAMDEN","MS","39045","","","","7771313500000034"
"PLEASANT GREEN M B CHURCH","3920 HIGHWAY 43","","","CANTON","MS","39046","","","","7771313500000035"
"PLEASANT GREEN M B CHURCH","P O BOX 159","","","CANTON","MS","39046","","","","7771313500000035"
"CATHOLIC PARISH CENTER","238 E CENTER ST","","","CANTON","MS","39046","","","","7771313500000037"
"CANTON COMMUNITY CENTER","CANTON COMMUNITY CENTER
337 N UNION ST","","","CANTON","MS","39046","","","","7771313500000038"
"CANTON BIBLE CHURCH","CANTON BIBLE CHURCH
815 MARTIN LUTHER KING DR","","","CANTON","MS","39046","","","","7771313500000040"
"PLEASANT GIFT BAPTIST CHURCH","2055 PLEASANT GIFT RD","","","CANTON","MS","39046","","","","7771313500000041"
"SOUTH LIBERTY BAPTIST CHURCH","SOUTH LIBERTY BAPTIST CHURCH
165 E DINKIN ST","","","CANTON","MS","39046","","","","7771313500000042"
"SUNCHASE APTS. CLUBHOUSE","875 WILLIAM BLVD","","","RIDGELAND","MS","39157","","","","7771313500000043"
"NORTH PLEASANT HILL FIRE DEPT","372 NORTH PLEASANT HILL ROAD","","","NEW HEBRON","MS","39140","","","","7771313500000069"
"NORTH CARROLLTON CITY HALL BOARD ROOM","114 E MAIN ST","","","NORTH CARROLLTON","MS","38947","","","","7771313500000072"
"MCANERNEY'S RESTAURANT","4398 CR 282","","","MCCARLEY","MS","38943","","","","7771313500000073"
"JEFFERSON LIBERTY BC LIFE CENTER","3819 CR 100","","","CARROLLTON","MS","38917","","","","7771313500000074"
"WALTON PARK","10211 ROAD 325","","","UNION","MS","39365","","","","7771313500000082"
"HOLLY GROVE MBC","601 JONES STREET","","","CRENSHAW","MS","38621","","","","7771313500000083"
"SLEDGE LIBRARY","790 MAIN ST","","","SLEDGE","MS","38670","","","","7771313500000084"
"DARLING WATER ASSOCIATION","745 DARLING ROAD","","","DARLING","MS","38623","","","","7771313500000085"
"QUITMAN CO. SCHOOL BUS SHOP","1030 HIGHWAY 6 WEST","","","MARKS","MS","38646","","","","7771313500000086"
"MARKS COMMUNITY HOUSE","300 PECAN STREET","","","MARKS","MS","38646","","","","7771313500000089"
"QUITMAN CO. VO-TECH BLDG.","1501 MARTIN LUTHER KING DR.","","","MARKS","MS","38646","","","","7771313500000090"
"TRINITY COMMUNITY CENTER","417 TENTH STREET","","","LAMBERT","MS","38643","","","","7771313500000091"
"OAKVALE FIRE DEPT 2","4242 HWY 13 SO.","","","OAKVALE","MS","39656","","","","7771313500000092"
"HWY 42 BB FIELD A-H","HWY 42 BASEFD","","","BASSFIELD","MS","39421","","","","7771313500000093"
"HWY 42 BB FIELD I-Z","HWY 42 BASEFD","","","BASSFIELD","MS","39421","","","","7771313500000094"
"NORTHBAY","NORTHBAY BAYVIEW CLUB HOUSE
 200 BAYVIEW DR","","","MADISON","MS","39110","","","","7771313500000097"
"NORTHBAY","NORTHBAY BAYVIEW CLUB HOUSE
200 BAYVIEW DR","","","MADISON","MS","39110","","","","7771313500000097"
"RIPLEY PARK COMMISSION GYM","116 SCHOOL ST","","","RIPLEY","MS","38663","","","","7771313500000099"
"GOOD SAMARITAN CENTER","160 BAILS RD","","","RIPLEY","MS","38663","","","","7771313500000100"
"DRY CREEK FIRE STATION","8301 CR 600","","","BOONEVILLE","MS","38829","","","","7771313500000101"
"SIGLER CENTER","SIGLER CENTER
315 CONTI ST","","","HATTIESBURG","MS","39401","","","","7771313575000005"
"BURGER CENTER","N. R. BURGER CENTER
305 E 6TH ST","","","HATTIESBURG","MS","39401","","","","7771313575000006"
"CULTURAL CENTER","HATTIESBURG CULTURAL CENTER
723 MAIN ST","","","HATTIESBURG","MS","39401","","","","7771313575000007"
"CULTURAL CENTER","HATTIESBURG CULTURAL CENTER
723 MAIN ST","","","HATTIESBURG ","MS","39401","","","","7771313575000007"
"CULTURAL CENTER","HATTIESBURG CULTURAL CENTER 
723 MAIN ST","","","HATTIESBURG","MS","39401","","","","7771313575000007"
"THAMES","W. I. THAMES ELEMENTARY SCHOOL
2900 JAMESTOWN RD","","","HATTIESBURG","MS","39402","","","","7771313575000008"
"GALLMAN","COPIAH COUNTY FAIRGROUNDS
2040 WEST GALLMAN ROAD","","","HAZLEHURST","MS","39083","","","","7771313575000009"
"RELATECHURCH.COM","6885 S SIWELL RD","","","BYRAM","MS","39272","","","","7771313575000010"
"ST. LUKE CHURCH OF GOD IN CHRIST","7491 HACKS CROSS RD","","","OLIVE BRANCH","MS","38654","","","","7771313575000011"
"ST. LUKE CHURCH OF GOD IN CHRIST","P. O. BOX 629","","","OLIVE BRANCH","MS","38654","","","","7771313575000011"
"NATIONAL GUARD ARMORY","3436 MCCRACKEN RD","","","HERNANDO","MS","38632","","","","7771313575000012"
"HORN LAKE MIDDLE SCHOOL GYM","6125 HURT RD","","","HORN LAKE","MS","38637","","","","7771313575000013"
"GUICE BUILDING","1015 HWY 33","","","FAYETTE","MS","39069","","","","7771313575000014"
"PINEVIEW BAPTIST CHURCH","1288 CLINTON RAYMOND RD","","","CLINTON","MS","39154","","","","7771313575000017"
"PINEVIEW BAPTIST CHURCH","1288 CLINTON RAYMOND RD","","","CLINTON ","MS","39056","","","","7771313575000017"
"CRUGER NEW TOWN HALL","225 RAILROAD STREET","","","CRUGER","MS","38924","","","","7771313575000018"
"GREATER MT LEVI FULL GOSPEL BAPTIST CHURCH","1008 W FULTON ST","","","CANTON","MS","39046","","","","7771313575000043"
"MADISON COUNTY BAPTIST FAMILY LIFE CENTER","349 N CANAL ST","","","CANTON","MS","39046","","","","7771313575000044"
"TERRY VOLUNTEER FIRE STATION","2001 TANK RD","","","TERRY","MS","39170","","","","7771313575000045"
"ACKERMAN TOWN HALL","MAIN ST","","","ACKERMAN","MS","39735","","","","7771313575000215"
"ACKERMAN TOWN HALL","P O BOX 394","","","ACKERMAN","MS","39735","","","","7771313575000215"
"OLD HOLLYWOOD CHURCH","77 HOLLYWOOD CHURCH","","","FAYETTE","MS","39069","","","","7771313575000217"
"CHAMBLISS'S RESTAURANT","12687 HWY 61 ","","","FAYETTE","MS","39069","","","","7771313575000307"
"HORN LAKE INTERMEDIATE SCHOOL","6585 HORN LAKE RD","","","HORN LAKE","MS","38637","","","","7771313575000320"
"OB SENIOR CITIZEN'S BUILDING","8800 COLLEGE ST.","","","OLIVE BRANCH","MS","38654","","","","7771313575000321"
"BOX 1 SOUTHSIDE CHURCH OF CHRIST","3499 COMMERCE STREET","","","GRENADA","MS","38901","","","","7771313575000329"
"TIE PLANT SOUTHSIDE CHURCH OF CHRIST","3499 COMMERCE STREET","","","GRENADA","MS","38901","","","","7771313575000332"
"FARMHAVEN FIRE DEPT","3806 HWY 16 E","","","CANTON","MS","39046","","","","7771313575000377"
"DESOTO VFD","157 CO. RD. 114","","","SHUBUTA","MS","39360","","","","7771313575000378"
"TRINITY BAPTIST CHURCH","594 CENTER AVENUE S","","","PHILADELPHIA","MS","39350","","","","7771313575000380"
"COKER'S CHAPEL UNITED METHODIST CHURCH","3042 JEFF DAVIS SCHOOL ROAD","","","MERIDIAN","MS","39301","","","","7771313575000385"
"YMCA BLDG.","690 LIBERTY RD","","","FLOWOOD","MS","39232","","","","7771313575000447"
"PEARL CITY HALL","2420 OLD BRANDON RD","","","PEARL","MS","39208","","","","7771313575000449"
"FIRST BAPTIST CHURCH OF MADISON","2100 MAIN ST","","","MADISON","MS","39110","","","","7771313575000450"
"CHINA GROVE CHURCH","1060 MANNSDALE RD","","","MADISON","MS","39110","","","","7771313575000451"
"GLUCKSTADT @ ST JOE CATHOLIC","127 CHURCH RD","","","MADISON","MS","39110","","","","7771313575000452"
"PARKWAY","PARKWAY PENTECOSTAL CHURCH
1620 OLD MANNSDALE RD","","","MADISON","MS","39110","","","","7771313575000453"
"HORN LAKE HIGH SCHOOL","3360 CHURCH RD","","","HORN LAKE","MS","38637","","","","7771313575000456"
"OLD FLAG LAKE CHURCH MULTI-PURPOSE BUILDING","1957 FLAG LAKE ROAD","","","SARAH","MS","38665","","","","7771313575000457"
"RICHBURG","GRACE TEMPLE MINISTRIES
1131 RICHBURG ROAD","","","HATTIESBURG","MS","39402","","","","7771313575000458"
"RICHBURG","GRACE TEMPLE MINISTRIES
1131 RICHBURG ROAD ","","","HATTIESBURG","MS","39402","","","","7771313575000458"
"PEARLHAVEN","CO-LIN GED BUIDLING
934 INDUSTRIAL PARK RD NE
AT THE CORNER OF SAWMILL RD","","","BROOKHAVEN","MS","39601","","","","7771313575000460"
"COUNTY COURTHOUSE","103 W MAIN ST. (COURTROOM)","","","PITTSBORO","MS","38951","","","","7771313750000002"
"ALLIED ENTERPRISE BUILDING","620 S. LEWIS AVE","","","PHILA","MS","39350","","","","7771313750000007"
"FAIRVIEW VOL FIRE DEPT NO. 1","18981 HWY 21 S","","","PHILA","MS","39350","","","","7771313750000008"
"SELF CREEK/DBL SPRINGS","3407 HWY 82 W","","","MABEN","MS","39750","","","","7771313750000011"
"HICKORY GROVE","OLD HWY 182 E","","","STARKVILLE","MS","39762","","","","7771313750000012"
"CENTER GROVE/N ADATON","2237 REED RD ","","","STARKVILLE","MS","39759","","","","7771313750000013"
"CRAIG SPRINGS FIRE STATION","2199 CRAIG SPRINGS RD","","","STURGIS","MS","39769","","","","7771313750000014"
"HILLCREST CHURCH","216 ST HWY 15 S","","","NEW ALBANY","MS","38652","","","","7771313750000018"
"COUNTY BARN 3","5660 BROOKSVILLE","","","LOUISVILLE","MS","39339","","","","7771313750000019"
"COUNTY BARN 3","5660 BROOKSVILLE RD.","","","LOUISVILLE","MS","39339","","","","7771313750000019"
"CENTRAL MAINTENANCE","844 ST HIGHWAY 15 NORTH","","","NEW ALBANY","MS","38652","","","","7771313750000020"
"AMERICAN LEGION HUT GLENFIELD","113 FAIRGROUND CIRCLE","","","NEW ALBANY","MS","38652","","","","7771313750000030"
"NE COMMUNITY COLLEGE","301 NORTH STREET","","","NEW ALBANY","MS","38652","","","","7771313750000031"
"EAST UNION SCHOOL","1554 ST HIGHWAY 9 SOUTH","","","BLUE SPRINGS","MS","38828","","","","7771313750000033"
"SATELLITE ON 495","HWY 495","","","DEKALB","MS","39328","","","","7771313750000037"
"MT. PLEASANT MB CHURCH","MT. PLEASANT M B CHURCH                        
726 HIGHWAY 404","","","DUCK HILL","MS","38925","","","","7771313750000038"
"SWEETHOME BAPTIST CHURCH","SWEETHOME CHURCH
8 SWEETHOME ROAD
","","","DUCK HILL","MS","38925","","","","7771313750000043"
"ACKERMAN COMMUNITY CENTER","895 COLLEGE STREET","","","ACKERMAN","MS","39735","","","","7771313775000001"
"PANHANDLE FIRE DEPARTMENT","3525 WEIR PANHANDLE ROAD","","","MCCOOL","MS","39108","","","","7771313775000002"
"PEARL RIVER GYMNASIUM","101 INDUSTRIAL RD","","","PHILA","MS","39350","","","","7771313775000003"
"HOPE VOL FIRE DEPT NO. 1","12890 HWY 488","","","PHILA","MS","39350","","","","7771313775000004"
"BOGUE CHITTO FACILITY BLDG","13350 HWY 491 N","","","PHILA","MS","39350","","","","7771313775000005"
"SANDTOWN METHODIST CHURCH FELLOWSHIP HALL","11950 HIGHWAY 482","","","PHILA","MS","39350","","","","7771313775000006"
"COUNTY LINE VOL. FIRE DEPT","10700 ROAD 505","","","UNION","MS","39365","","","","7771313775000007"
"HOUSE VOL FIRE DEPT NO. 2","12481 HWY 491 S","","","PHILA","MS","39350","","","","7771313775000008"
"NEWTON NATIONAL GUARD ARMORY","412 NORTHSIDE DRIVE","","","NEWTON","MS","39345","","","","7771313775000009"
"UNION NATIONAL GUARD ARMORY","111 OLD DECATUR RD","","","UNION","MS","39365","","","","7771313775000010"
"POPLAR SPRINGS DR UNITED METHODIST CHURCH","3937 POPLAR SPRINGS DR","","","MERIDIAN","MS","39305","","","","7771313775000016"
"BOX 4 TAYLOR HALL","600 BUTLER STREET","","","GRENADA","MS","38901","","","","7771313775000336"
"BOX 5 GRACE UMC","2315 CARROLLTON ROAD","","","GRENADA","MS","38901","","","","7771313775000337"
"GEESLIN FRIENDSHIP BAPT CHURCH","475 PEA RIDGE ROAD","","","GRENADA","MS","38901","","","","7771313775000339"
"GREENVILLE DAYCARE CENTER","747 CANAL ST. ","","","GREEMVILLE","MS","38701","","","","7771313775000363"
"GREENVILLE DAYCARE CENTER","747 CANAL ST. ","","","GREENVILLE","MS","38701","","","","7771313775000363"
"ALAMUCHA/GREENHILL MISSIONARY BAPTIST CHURCH","5324 HIGHWAY 496","","","TOOMSUBA","MS","39364","","","","7771313775000407"
"ALAMUCHA/GREENHILL MISSIONARY BAPTIST CHURCH","GREENHILL MISSIONARY BAPTIST CHURCH
5324 HIGHWAY 496","","","TOOMSUBA","MS","39364","","","","7771313775000407"
"MONTEREY FIRE DEPT. #2/GREENFIELD COMM. CENTER","3954 HWY. 468 W","","","PEARL","MS","39208","","","","7771313775000408"
"FIRST CUMBERLAND PRESBYTERIAN CHURCH","8061 GERMANTOWN RD","","","OLIVE BRANCH","MS","38654","","","","7771313775000409"
"SOUTHAVEN CITY HALL","8710 NORTHWEST DR","","","SOUTHAVEN","MS","38671","","","","7771313775000411"
"SOUTHAVEN CITY HALL","8710 NORTHWEST DR.
","","","SOUTHAVEN","MS","38671","","","","7771313775000411"
"GARDEN ISLE","GOVERNMENT TRAILER COMPLEX - 
3068 LONGFELLOW DR. TRAILER 13 B","","","BAY ST LOUIS","MS","39520","","","","7771313775000413"
"BAILEY PRESBYTERIAN CHURCH","8665 HWY 493","","","BAILEY","MS","39320","","","","7771313775000414"
"BAILEY PRESBYTERIAN CHURCH","BAILEY PRESBYTERIAN CHURCH
8665 HWY 493","","","BAILEY","MS","39320","","","","7771313775000414"
"HARMONY","VOTING HOUSE
3100 GALILEE RD","","","CARTHAGE","MS","39051","","","","7771313775000415"
"WEST WINONA","200 RECREATION PARK DRIVE","","","WINONA","MS","38967","","","","7771313775000417"
"WEST WINONA","MONTGOMERY COUNTY COLISEUM
200 RECREATION PARK DRIVE","","","WINONA","MS","38967","","","","7771313775000417"
"SARDIS LAKE FIRE DEPARTMENT","28521 HIGHWAY 35 N","","","SARDIS","MS","38666","","","","7771313775000428"
"HCC-RANKIN/ CAREER-TECHNICAL BLDG","1060 COMMERCIAL PARK DR","","","PEARL","MS","39208","","","","7771313775000494"
"MIRACLE TEMPLE COGIC","923 OLD AUGUSTA ROAD","","","RICHTON","MS","39476","","","","7771313775000495"
"FLOWOOD LIBRARY","103 WINNERS CIRCLE","","","FLOWOOD","MS","39232","","","","7771313775000496"
"LAKE CAROLINE CLUBHOUSE","667 BELLVUE DR","","","MADISON","MS","39110","","","","7771313775000497"
"BRIAR HILL BAPTIST CHURCH","707 HWY. 469 N","","","FLORENCE","MS","39073","","","","7771313775000498"
"BRANDON BAPTIST CHURCH","100 BRANDON BAPTIST DR","","","BRANDON","MS","39042","","","","7771313775000499"
"NEW HOPE","NEW HOPE  ROAD  FEMA SHELTER
1084 NEW HOPE ROAD","","","WIGGINS","MS","39577","","","","7771313775000500"
"NEW HOPE","NEW HOPE ROAD FEMA SHELTER
1084 NEW HOPE ROAD","","","WIGGINS","MS","39577","","","","7771313775000500"
"NORTH STATION FIRE & RESCUE","911 HIGHWAY 45","","","CORINTH","MS","38834","","","","7771313775000501"
"FIRST BAPTIST CHURCH OF LAUDERDALE","3659 LAUDERDALE ROAD","","","LAUDERDALE","MS","39335","","","","7771313775000503"
"FIRST BAPTIST CHURCH OF LAUDERDALE","3659 LAUDERDLAE ROAD","","","LAUDERDALE","MS","39335","","","","7771313775000503"
"MERIDIAN LITTLE THEATRE","4334 HWY 39 NORTH","","","MERIDIAN","MS","39301","","","","7771313775000504"
"RAYMOND P. DAVIS COUNTY COURTHOUSE ANNEX BUILDING","410 CONSTITUTION AVE","","","MERIDIAN","MS","39301","","","","7771313775000505"
"2 SIPSEY","SPLUNGE SECONDARY FIRE DEPT
50281 SPLUNGE RD","","","GREENWOOD SPRINGS ","MS","38848","","","","7771313775000508"
"ROGERS CIRCLE A","BEULAH CHAPEL CHURCH
1315 BRIGNAL ROAD","","","BROOKHAVEN","MS","39601","","","","7771313775000510"
"HALBERT HEIGHTS B","BROOKHAVEN CENTRAL FIRE STATION
314 BROOKHAVEN STREET","","","BROOKHAVEN","MS","39601","","","","7771313775000511"
"HALBERT HEIGHTS A","BROOKHAVEN CENTRAL FIRE STATION
314 BROOKHAVEN STREET","","","BROOKHAVEN","MS","39601","","","","7771313775000512"
"SHEEPLO","PINEY GROVE MASONIC LODGE
139 SHEEPLO LOOP","","","PETAL","MS","39465","","","","7771313775000513"
"BEAT 3/COOPERVILLE/SPRINGFIELD","VFW #5586
NEXT TO KRACKER STATION
5228 HWY 13 SOUTH","","","MORTON","MS","39117","","","","7771313775000520"
"HOPEWELL VFD","2603 COUNTY ROAD 430","","","QUITMAN","MS","39355","","","","7771313775000521"
